{
"type": "FeatureCollection",
"name": "Helath_within_FloodExtent_1Sept",
"crs": { "type": "name", "properties": { "name": "urn:ogc:def:crs:OGC:1.3:CRS84" } },
"features": [
{ "type": "Feature", "properties": { "id": 52251, "title": "Parshant Pharmacy", "titleNe": "प्रशान्त फार्मेसी", "descriptio": null, "dataSource": null, "dataSour_1": null, "dataSour_2": null, "lastModifi": "2023-01-10T16:47:52.480", "components": null, "localAddre": "Chaukitar", "localAdd_1": null, "gr": null, "noOfEmploy": null, "noOfMaleEm": null, "noOfFemale": null, "noOfOtherE": null, "noOfDiffer": null, "noOfDiff_1": null, "noOfDiff_2": null, "otherCompo": null, "ownership": "Private Enterprises", "elevation": null, "otherOwner": null, "followsGui": null, "serviceTyp": "Allopathy", "operationa": "Functional", "hospitalBe": null, "icuBed": null, "status": null, "capacityIn": null, "promoter": null, "totalArea": null, "currentLan": null, "remarks": null, "address": null, "emergencyL": null, "operatingD": null, "usableArea": null, "capacity": null, "useOfEvacu": null, "usedAsHeli": null, "isDrinking": null, "isToiletAv": null, "noOfToilet": null, "hasHandWas": null, "noOfHandWa": null, "hasFoodPre": null, "noOfFoodPr": null, "noOfMaleTo": null, "noOfFema_1": null, "noOfCommon": null, "noOfTaps": null, "otherFacil": null, "hasDisable": null, "specifyInf": null, "startTime": "06:00:00", "endTime": "08:00:00", "phoneNumbe": "+977-9846891710", "vehicleNum": null, "driverName": null, "driverCont": null, "driverAlte": null, "fireEngine": null, "fireBikeCo": null, "otherAppar": null, "ventilator": null, "hasChildIm": "false", "hasTdVacci": "false", "hasImnci": "false", "hasGrowthM": "false", "hasSafeMot": "false", "hasAntenat": "false", "hasPostnat": "false", "hasDeliver": "false", "hasBasicEm": "false", "hasCompreh": "false", "hasCompr_1": "false", "hasPostAbo": "false", "hasCondomP": "true", "hasIucd": "false", "hasImplant": "false", "hasVasecto": "false", "hasMinilap": "false", "hasOpd": "false", "hasGeneral": "false", "hasPediatr": "false", "hasObsAndG": "false", "hasDentalO": "false", "hasSurgery": "false", "hasGastroi": "false", "hasCardiac": "false", "hasMental": "false", "hasRespira": "false", "hasNephrol": "false", "hasEnt": "false", "hasDermato": "false", "hasEndocri": "false", "hasOncolog": "false", "hasNeurolo": "false", "hasOphthal": "false", "hasTreatem": "false", "hasTreat_1": "false", "hasTreat_2": "false", "hasTreat_3": "false", "hasTreat_4": "false", "hasTreat_5": "false", "hasLaborat": "false", "hasTestHiv": "false", "hasTestMal": "false", "hasTestTb": "false", "hasTestKal": "false", "hasUrineRe": "false", "hasStoolRe": "false", "hasGener_1": "false", "hasCulture": "false", "hasHormone": "false", "hasLeprosy": "false", "hasTestCov": "false", "hasTestC_1": "false", "hasVolunte": "false", "hasPmtct": "false", "hasAntiRet": "false", "hasDental": "false", "hasInPatie": "false", "hasRadiolo": "false", "hasXRay": "false", "hasXRayWit": "false", "hasUltraso": "false", "hasEchocar": "false", "hasEcg": "false", "hasTrademi": "false", "hasCtScan": "false", "hasMri": "false", "hasEndosco": "false", "hasColonos": "false", "hasSurgica": "false", "hasCaesari": "false", "hasGastr_1": "false", "hasTraumaS": "false", "hasCardi_1": "false", "hasNeuroSu": "false", "hasPlastic": "false", "hasSpecial": "false", "hasIcu": "false", "hasNicu": "false", "hasCcu": "false", "hasMicu": "false", "hasSncu": "false", "hasPicu": "false", "hasCardi_2": "false", "hasPhysiot": "false", "hasAmbulan": "false", "hasExtende": "false", "hasGeriatr": "false", "hasPharmac": "true", "hasOcmc": "false", "hasHealthI": "false", "hasSsu": "false", "hasAyurved": "false", "hasCovidCl": "false", "hasEmergen": "false", "hasOperati": "false", "hasBloodDo": "false", "hasFreeTre": "false", "hasFreeT_1": "false", "hasFreeT_2": "false", "hasFreeT_3": "false", "hasFreeT_4": "false", "hasFreeT_5": "false", "hasFreeT_6": "false", "hasFreeT_7": "false", "hasFreeT_8": "false", "hasFreeT_9": "false", "hasInterne": null, "registrati": "2068/08/12", "lastRenewa": "2078/10/14", "dateOfVali": "2080/10/19", "isVerified": false, "verficatio": null, "isApproved": false, "website": null, "emailAddre": null, "localAdd_2": null, "picture": "https://bipadportal.gov.np/mediafiles/resources/health/1663134420022.jpg", "dateOfOper": null, "remarksOnO": null, "operatedBy": null, "religion": null, "otherRelig": null, "drinkingWa": null, "scale": null, "structure": null, "toilet": null, "type": "Pharmacy", "areaOfAirp": null, "kindOfVehi": null, "otherTypeW": null, "numberOfTr": null, "hasDisab_1": false, "nameAndNoO": null, "subtype": null, "otherType": null, "classroomC": null, "isMotorabl": null, "noOfLanes": null, "length": null, "noOfRoom": null, "noOfBed": null, "noOfStuden": null, "noOfMaleSt": null, "noOfFema_2": null, "noOfOtherS": null, "operatorTy": "Other", "otherOpera": null, "area": null, "altitude": null, "bank": null, "building": null, "hasTechnic": null, "isElectric": null, "isPermanen": null, "level": null, "moneyExcha": null, "atm": null, "noOfDiff_3": null, "noOfDiff_4": null, "noOfDiff_5": null, "noOfStud_1": null, "noOfStud_2": null, "noOfStud_3": null, "noOfStud_4": null, "operationT": null, "bedCount": null, "specializa": "Pharmacy", "outdoorSer": null, "indoorServ": null, "familyPlan": "true", "startingDa": null, "surfaceTyp": null, "surfaceLev": null, "otherSurfa": null, "otherSur_1": null, "hasRoadAcc": null, "storageFac": null, "internetFa": null, "tankBuildD": null, "technicalS": null, "technica_1": null, "placementO": null, "sourceOfWa": null, "noOfServic": null, "isWaterSup": null, "towersName": null, "coverageRa": null, "frequency": null, "isp": null, "hasInter_1": true, "vaccinatio": "false", "birthingCe": null, "hasOtherSe": null, "otherServi": null, "serviceUse": null, "width": null, "condition": null, "windDirect": null, "heliMarker": null, "nightLight": null, "helipadCon": null, "wireless": null, "fiber": null, "cable": null, "otherInter": null, "hasEvacuat": "true", "designedWi": null, "hasDisaste": null, "hasDrinkin": null, "hasFocalPe": "false", "focalPerso": null, "focalPer_1": null, "focalPer_2": null, "focalPer_3": null, "focalPer_4": null, "hasHumanit": null, "hasToilet": null, "isDesigned": "false", "hasHelipad": "false", "numberOf_1": null, "hasSafetyE": null, "remarksOnB": null, "hasOpenSpa": "false", "areaOfOpen": null, "capacityOf": null, "hasDisas_1": null, "hasMedicin": "false", "hasBackupE": "false", "hasWashFac": null, "hfCode": null, "authority": "Non Government", "authorityL": "Local", "serviceSha": null, "specifyCom": null, "hasDisas_2": null, "specifyAwa": null, "providesDi": null, "specifyDis": null, "hasHealthC": null, "specifyD_1": null, "hasEmploye": null, "noOfEmpl_1": null, "isDrrRelat": null, "specifyWas": null, "hasSleepin": null, "noOfBeds": null, "noOfMats": null, "noOfCots": null, "hasElectri": null, "noOfSleepi": null, "typeOfAppa": null, "numberOfFi": null, "numberOf_2": null, "numberOfOt": null, "extraAppar": null, "ward": 3125, "province": null, "district": null, "municipali": null, "resourceTy": "health", "resource_t": "health", "district_i": 26, "district_n": "Dhading", "districtId": 26, "districtNa": "Dhading", "layer": "Dhading_Hospital", "path": "C:\\Users\\ASUS\\Desktop\\Bipad Portal (All Point Files)\\Health Only\\Dhading_Hospital.shp" }, "geometry": { "type": "Point", "coordinates": [ 84.699939228594303, 27.806639564955741 ] } },
{ "type": "Feature", "properties": { "id": 52253, "title": "Bihani Clinic and Pharmacy Private Limited", "titleNe": "बिहानि क्लिनिक र फार्मेसि प्राइभेट लिमिटेड", "descriptio": null, "dataSource": null, "dataSour_1": null, "dataSour_2": null, "lastModifi": "2023-01-10T16:47:53.602", "components": null, "localAddre": "Majhimtar", "localAdd_1": null, "gr": null, "noOfEmploy": 3, "noOfMaleEm": "2", "noOfFemale": "1", "noOfOtherE": null, "noOfDiffer": null, "noOfDiff_1": null, "noOfDiff_2": null, "otherCompo": null, "ownership": "Private Enterprises", "elevation": null, "otherOwner": null, "followsGui": null, "serviceTyp": "Allopathy", "operationa": "Functional", "hospitalBe": "Functional", "icuBed": null, "status": null, "capacityIn": null, "promoter": null, "totalArea": null, "currentLan": null, "remarks": null, "address": null, "emergencyL": null, "operatingD": null, "usableArea": null, "capacity": null, "useOfEvacu": null, "usedAsHeli": null, "isDrinking": null, "isToiletAv": null, "noOfToilet": null, "hasHandWas": null, "noOfHandWa": null, "hasFoodPre": null, "noOfFoodPr": null, "noOfMaleTo": null, "noOfFema_1": null, "noOfCommon": null, "noOfTaps": null, "otherFacil": null, "hasDisable": null, "specifyInf": null, "startTime": "07:00:00", "endTime": "20:00:00", "phoneNumbe": "+977-9813769357", "vehicleNum": null, "driverName": null, "driverCont": null, "driverAlte": null, "fireEngine": null, "fireBikeCo": null, "otherAppar": null, "ventilator": null, "hasChildIm": "false", "hasTdVacci": "true", "hasImnci": "false", "hasGrowthM": "false", "hasSafeMot": "false", "hasAntenat": "false", "hasPostnat": "false", "hasDeliver": "false", "hasBasicEm": "false", "hasCompreh": "false", "hasCompr_1": "false", "hasPostAbo": "false", "hasCondomP": "true", "hasIucd": "false", "hasImplant": "false", "hasVasecto": "false", "hasMinilap": "false", "hasOpd": "true", "hasGeneral": "true", "hasPediatr": "false", "hasObsAndG": "false", "hasDentalO": "false", "hasSurgery": "false", "hasGastroi": "false", "hasCardiac": "false", "hasMental": "false", "hasRespira": "false", "hasNephrol": "false", "hasEnt": "false", "hasDermato": "false", "hasEndocri": "false", "hasOncolog": "false", "hasNeurolo": "false", "hasOphthal": "false", "hasTreatem": "false", "hasTreat_1": "false", "hasTreat_2": "false", "hasTreat_3": "false", "hasTreat_4": "false", "hasTreat_5": "false", "hasLaborat": "true", "hasTestHiv": "false", "hasTestMal": "false", "hasTestTb": "false", "hasTestKal": "false", "hasUrineRe": "true", "hasStoolRe": "true", "hasGener_1": "true", "hasCulture": "false", "hasHormone": "false", "hasLeprosy": "false", "hasTestCov": "false", "hasTestC_1": "false", "hasVolunte": "false", "hasPmtct": "false", "hasAntiRet": "false", "hasDental": "false", "hasInPatie": "false", "hasRadiolo": "false", "hasXRay": "false", "hasXRayWit": "false", "hasUltraso": "false", "hasEchocar": "false", "hasEcg": "false", "hasTrademi": "false", "hasCtScan": "false", "hasMri": "false", "hasEndosco": "false", "hasColonos": "false", "hasSurgica": "false", "hasCaesari": "false", "hasGastr_1": "false", "hasTraumaS": "false", "hasCardi_1": "false", "hasNeuroSu": "false", "hasPlastic": "false", "hasSpecial": "false", "hasIcu": "false", "hasNicu": "false", "hasCcu": "false", "hasMicu": "false", "hasSncu": "false", "hasPicu": "false", "hasCardi_2": "false", "hasPhysiot": "false", "hasAmbulan": "false", "hasExtende": "false", "hasGeriatr": "false", "hasPharmac": "true", "hasOcmc": "false", "hasHealthI": "false", "hasSsu": "false", "hasAyurved": "false", "hasCovidCl": "false", "hasEmergen": "true", "hasOperati": "false", "hasBloodDo": "false", "hasFreeTre": "false", "hasFreeT_1": "false", "hasFreeT_2": "false", "hasFreeT_3": "false", "hasFreeT_4": "false", "hasFreeT_5": "false", "hasFreeT_6": "false", "hasFreeT_7": "false", "hasFreeT_8": "false", "hasFreeT_9": "false", "hasInterne": null, "registrati": "2075/05/18", "lastRenewa": "2079/4/29", "dateOfVali": "2080/4/29", "isVerified": false, "verficatio": null, "isApproved": false, "website": null, "emailAddre": null, "localAdd_2": null, "picture": "https://bipadportal.gov.np/mediafiles/resources/health/1663138769997.jpg", "dateOfOper": null, "remarksOnO": null, "operatedBy": null, "religion": null, "otherRelig": null, "drinkingWa": null, "scale": null, "structure": null, "toilet": null, "type": "Clinic (Eye/Medical)", "areaOfAirp": null, "kindOfVehi": null, "otherTypeW": null, "numberOfTr": null, "hasDisab_1": false, "nameAndNoO": null, "subtype": null, "otherType": null, "classroomC": null, "isMotorabl": null, "noOfLanes": null, "length": null, "noOfRoom": null, "noOfBed": null, "noOfStuden": null, "noOfMaleSt": null, "noOfFema_2": null, "noOfOtherS": null, "operatorTy": "Other", "otherOpera": null, "area": null, "altitude": null, "bank": null, "building": null, "hasTechnic": null, "isElectric": null, "isPermanen": null, "level": null, "moneyExcha": null, "atm": null, "noOfDiff_3": null, "noOfDiff_4": null, "noOfDiff_5": null, "noOfStud_1": null, "noOfStud_2": null, "noOfStud_3": null, "noOfStud_4": null, "operationT": null, "bedCount": 5, "specializa": null, "outdoorSer": null, "indoorServ": null, "familyPlan": "true", "startingDa": null, "surfaceTyp": null, "surfaceLev": null, "otherSurfa": null, "otherSur_1": null, "hasRoadAcc": null, "storageFac": null, "internetFa": null, "tankBuildD": null, "technicalS": null, "technica_1": null, "placementO": null, "sourceOfWa": null, "noOfServic": null, "isWaterSup": null, "towersName": null, "coverageRa": null, "frequency": null, "isp": null, "hasInter_1": true, "vaccinatio": "true", "birthingCe": null, "hasOtherSe": null, "otherServi": null, "serviceUse": null, "width": null, "condition": null, "windDirect": null, "heliMarker": null, "nightLight": null, "helipadCon": null, "wireless": null, "fiber": null, "cable": null, "otherInter": null, "hasEvacuat": "true", "designedWi": null, "hasDisaste": null, "hasDrinkin": null, "hasFocalPe": "false", "focalPerso": null, "focalPer_1": null, "focalPer_2": null, "focalPer_3": null, "focalPer_4": null, "hasHumanit": null, "hasToilet": null, "isDesigned": "false", "hasHelipad": "false", "numberOf_1": null, "hasSafetyE": null, "remarksOnB": null, "hasOpenSpa": "false", "areaOfOpen": null, "capacityOf": null, "hasDisas_1": null, "hasMedicin": "false", "hasBackupE": "true", "hasWashFac": null, "hfCode": null, "authority": "Non Government", "authorityL": null, "serviceSha": null, "specifyCom": null, "hasDisas_2": null, "specifyAwa": null, "providesDi": null, "specifyDis": null, "hasHealthC": null, "specifyD_1": null, "hasEmploye": null, "noOfEmpl_1": null, "isDrrRelat": null, "specifyWas": null, "hasSleepin": null, "noOfBeds": null, "noOfMats": null, "noOfCots": null, "hasElectri": null, "noOfSleepi": null, "typeOfAppa": null, "numberOfFi": null, "numberOf_2": null, "numberOfOt": null, "extraAppar": null, "ward": 3125, "province": null, "district": null, "municipali": null, "resourceTy": "health", "resource_t": "health", "district_i": 26, "district_n": "Dhading", "districtId": 26, "districtNa": "Dhading", "layer": "Dhading_Hospital", "path": "C:\\Users\\ASUS\\Desktop\\Bipad Portal (All Point Files)\\Health Only\\Dhading_Hospital.shp" }, "geometry": { "type": "Point", "coordinates": [ 84.704040661454201, 27.80573030585769 ] } },
{ "type": "Feature", "properties": { "id": 52254, "title": "Basic Health Care Center", "titleNe": "आधारभुत स्वास्थय सेवा केन्द्र", "descriptio": null, "dataSource": null, "dataSour_1": null, "dataSour_2": null, "lastModifi": "2023-01-10T16:47:53.991", "components": null, "localAddre": "Charaudi", "localAdd_1": null, "gr": null, "noOfEmploy": 4, "noOfMaleEm": "1", "noOfFemale": "3", "noOfOtherE": null, "noOfDiffer": null, "noOfDiff_1": null, "noOfDiff_2": null, "otherCompo": null, "ownership": "Local Government", "elevation": null, "otherOwner": null, "followsGui": null, "serviceTyp": "Allopathy", "operationa": "Functional", "hospitalBe": "Functional", "icuBed": null, "status": null, "capacityIn": null, "promoter": null, "totalArea": null, "currentLan": null, "remarks": null, "address": null, "emergencyL": null, "operatingD": null, "usableArea": null, "capacity": null, "useOfEvacu": null, "usedAsHeli": null, "isDrinking": null, "isToiletAv": null, "noOfToilet": null, "hasHandWas": null, "noOfHandWa": null, "hasFoodPre": null, "noOfFoodPr": null, "noOfMaleTo": null, "noOfFema_1": null, "noOfCommon": null, "noOfTaps": null, "otherFacil": null, "hasDisable": null, "specifyInf": "Ramp, toilet", "startTime": "10:00:00", "endTime": "17:00:00", "phoneNumbe": "+977-9863643555", "vehicleNum": null, "driverName": null, "driverCont": null, "driverAlte": null, "fireEngine": null, "fireBikeCo": null, "otherAppar": null, "ventilator": null, "hasChildIm": "true", "hasTdVacci": "true", "hasImnci": "true", "hasGrowthM": "true", "hasSafeMot": "true", "hasAntenat": "true", "hasPostnat": "true", "hasDeliver": "true", "hasBasicEm": "false", "hasCompreh": "false", "hasCompr_1": "false", "hasPostAbo": "false", "hasCondomP": "true", "hasIucd": "false", "hasImplant": "false", "hasVasecto": "false", "hasMinilap": "false", "hasOpd": "true", "hasGeneral": "true", "hasPediatr": "true", "hasObsAndG": "true", "hasDentalO": "false", "hasSurgery": "false", "hasGastroi": "true", "hasCardiac": "false", "hasMental": "true", "hasRespira": "true", "hasNephrol": "true", "hasEnt": "true", "hasDermato": "true", "hasEndocri": "true", "hasOncolog": "true", "hasNeurolo": "true", "hasOphthal": "true", "hasTreatem": "true", "hasTreat_1": "true", "hasTreat_2": "true", "hasTreat_3": "true", "hasTreat_4": "true", "hasTreat_5": "true", "hasLaborat": "true", "hasTestHiv": "true", "hasTestMal": "true", "hasTestTb": "true", "hasTestKal": "false", "hasUrineRe": "true", "hasStoolRe": "true", "hasGener_1": "true", "hasCulture": "false", "hasHormone": "false", "hasLeprosy": "false", "hasTestCov": "false", "hasTestC_1": "true", "hasVolunte": "true", "hasPmtct": "true", "hasAntiRet": "false", "hasDental": "false", "hasInPatie": "true", "hasRadiolo": "false", "hasXRay": "false", "hasXRayWit": "false", "hasUltraso": "false", "hasEchocar": "false", "hasEcg": "false", "hasTrademi": "false", "hasCtScan": "false", "hasMri": "false", "hasEndosco": "false", "hasColonos": "false", "hasSurgica": "false", "hasCaesari": "false", "hasGastr_1": "false", "hasTraumaS": "false", "hasCardi_1": "false", "hasNeuroSu": "false", "hasPlastic": "false", "hasSpecial": "false", "hasIcu": "false", "hasNicu": "false", "hasCcu": "false", "hasMicu": "false", "hasSncu": "false", "hasPicu": "false", "hasCardi_2": "false", "hasPhysiot": "false", "hasAmbulan": "false", "hasExtende": "false", "hasGeriatr": "false", "hasPharmac": "false", "hasOcmc": "false", "hasHealthI": "false", "hasSsu": "false", "hasAyurved": "false", "hasCovidCl": "false", "hasEmergen": "true", "hasOperati": "false", "hasBloodDo": "false", "hasFreeTre": "false", "hasFreeT_1": "false", "hasFreeT_2": "false", "hasFreeT_3": "false", "hasFreeT_4": "false", "hasFreeT_5": "false", "hasFreeT_6": "false", "hasFreeT_7": "false", "hasFreeT_8": "false", "hasFreeT_9": "false", "hasInterne": null, "registrati": "2075/10/15", "lastRenewa": null, "dateOfVali": null, "isVerified": false, "verficatio": null, "isApproved": false, "website": null, "emailAddre": null, "localAdd_2": null, "picture": "https://bipadportal.gov.np/mediafiles/resources/health/1663661834109.jpg", "dateOfOper": null, "remarksOnO": "Summer:10-5\nWinter:10-4", "operatedBy": null, "religion": null, "otherRelig": null, "drinkingWa": null, "scale": null, "structure": null, "toilet": null, "type": "Basic Health Care Center", "areaOfAirp": null, "kindOfVehi": null, "otherTypeW": null, "numberOfTr": null, "hasDisab_1": true, "nameAndNoO": null, "subtype": null, "otherType": null, "classroomC": null, "isMotorabl": null, "noOfLanes": null, "length": null, "noOfRoom": null, "noOfBed": null, "noOfStuden": null, "noOfMaleSt": null, "noOfFema_2": null, "noOfOtherS": null, "operatorTy": "Other", "otherOpera": null, "area": null, "altitude": null, "bank": null, "building": null, "hasTechnic": null, "isElectric": null, "isPermanen": null, "level": null, "moneyExcha": null, "atm": null, "noOfDiff_3": null, "noOfDiff_4": null, "noOfDiff_5": null, "noOfStud_1": null, "noOfStud_2": null, "noOfStud_3": null, "noOfStud_4": null, "operationT": null, "bedCount": 2, "specializa": "Birthing center", "outdoorSer": null, "indoorServ": null, "familyPlan": "true", "startingDa": null, "surfaceTyp": null, "surfaceLev": null, "otherSurfa": null, "otherSur_1": null, "hasRoadAcc": null, "storageFac": null, "internetFa": null, "tankBuildD": null, "technicalS": null, "technica_1": null, "placementO": null, "sourceOfWa": null, "noOfServic": null, "isWaterSup": null, "towersName": null, "coverageRa": null, "frequency": null, "isp": null, "hasInter_1": true, "vaccinatio": "true", "birthingCe": null, "hasOtherSe": null, "otherServi": null, "serviceUse": null, "width": null, "condition": null, "windDirect": null, "heliMarker": null, "nightLight": null, "helipadCon": null, "wireless": null, "fiber": null, "cable": null, "otherInter": null, "hasEvacuat": "false", "designedWi": null, "hasDisaste": null, "hasDrinkin": null, "hasFocalPe": "false", "focalPerso": null, "focalPer_1": null, "focalPer_2": null, "focalPer_3": null, "focalPer_4": null, "hasHumanit": null, "hasToilet": null, "isDesigned": "true", "hasHelipad": "false", "numberOf_1": null, "hasSafetyE": null, "remarksOnB": null, "hasOpenSpa": "false", "areaOfOpen": null, "capacityOf": null, "hasDisas_1": null, "hasMedicin": "false", "hasBackupE": "true", "hasWashFac": null, "hfCode": null, "authority": "Government", "authorityL": "Local", "serviceSha": null, "specifyCom": null, "hasDisas_2": null, "specifyAwa": null, "providesDi": null, "specifyDis": null, "hasHealthC": null, "specifyD_1": null, "hasEmploye": null, "noOfEmpl_1": null, "isDrrRelat": null, "specifyWas": null, "hasSleepin": null, "noOfBeds": null, "noOfMats": null, "noOfCots": null, "hasElectri": null, "noOfSleepi": null, "typeOfAppa": null, "numberOfFi": null, "numberOf_2": null, "numberOfOt": null, "extraAppar": null, "ward": 3082, "province": null, "district": null, "municipali": null, "resourceTy": "health", "resource_t": "health", "district_i": 26, "district_n": "Dhading", "districtId": 26, "districtNa": "Dhading", "layer": "Dhading_Hospital", "path": "C:\\Users\\ASUS\\Desktop\\Bipad Portal (All Point Files)\\Health Only\\Dhading_Hospital.shp" }, "geometry": { "type": "Point", "coordinates": [ 84.749075286090374, 27.80338832068669 ] } },
{ "type": "Feature", "properties": { "id": 52258, "title": "Pashupati Medical Hall", "titleNe": "पशुपति मेडिकल हल", "descriptio": null, "dataSource": null, "dataSour_1": null, "dataSour_2": null, "lastModifi": "2023-01-10T16:47:55.529", "components": null, "localAddre": "Malekhu", "localAdd_1": null, "gr": null, "noOfEmploy": null, "noOfMaleEm": null, "noOfFemale": null, "noOfOtherE": null, "noOfDiffer": null, "noOfDiff_1": null, "noOfDiff_2": null, "otherCompo": null, "ownership": "Private Enterprises", "elevation": null, "otherOwner": null, "followsGui": null, "serviceTyp": "Allopathy", "operationa": "Functional", "hospitalBe": null, "icuBed": null, "status": null, "capacityIn": null, "promoter": null, "totalArea": null, "currentLan": null, "remarks": null, "address": null, "emergencyL": null, "operatingD": null, "usableArea": null, "capacity": null, "useOfEvacu": null, "usedAsHeli": null, "isDrinking": null, "isToiletAv": null, "noOfToilet": null, "hasHandWas": null, "noOfHandWa": null, "hasFoodPre": null, "noOfFoodPr": null, "noOfMaleTo": null, "noOfFema_1": null, "noOfCommon": null, "noOfTaps": null, "otherFacil": null, "hasDisable": null, "specifyInf": null, "startTime": "07:00:00", "endTime": "20:00:00", "phoneNumbe": "+977-9841121532", "vehicleNum": null, "driverName": null, "driverCont": null, "driverAlte": null, "fireEngine": null, "fireBikeCo": null, "otherAppar": null, "ventilator": null, "hasChildIm": "false", "hasTdVacci": "false", "hasImnci": "false", "hasGrowthM": "false", "hasSafeMot": "false", "hasAntenat": "false", "hasPostnat": "false", "hasDeliver": "false", "hasBasicEm": "false", "hasCompreh": "false", "hasCompr_1": "false", "hasPostAbo": "false", "hasCondomP": "true", "hasIucd": "false", "hasImplant": "false", "hasVasecto": "false", "hasMinilap": "false", "hasOpd": "false", "hasGeneral": "false", "hasPediatr": "false", "hasObsAndG": "false", "hasDentalO": "false", "hasSurgery": "false", "hasGastroi": "false", "hasCardiac": "false", "hasMental": "false", "hasRespira": "false", "hasNephrol": "false", "hasEnt": "false", "hasDermato": "false", "hasEndocri": "false", "hasOncolog": "false", "hasNeurolo": "false", "hasOphthal": "false", "hasTreatem": "false", "hasTreat_1": "false", "hasTreat_2": "false", "hasTreat_3": "false", "hasTreat_4": "false", "hasTreat_5": "false", "hasLaborat": "false", "hasTestHiv": "false", "hasTestMal": "false", "hasTestTb": "false", "hasTestKal": "false", "hasUrineRe": "false", "hasStoolRe": "false", "hasGener_1": "false", "hasCulture": "false", "hasHormone": "false", "hasLeprosy": "false", "hasTestCov": "false", "hasTestC_1": "false", "hasVolunte": "false", "hasPmtct": "false", "hasAntiRet": "false", "hasDental": "false", "hasInPatie": "false", "hasRadiolo": "false", "hasXRay": "false", "hasXRayWit": "false", "hasUltraso": "false", "hasEchocar": "false", "hasEcg": "false", "hasTrademi": "false", "hasCtScan": "false", "hasMri": "false", "hasEndosco": "false", "hasColonos": "false", "hasSurgica": "false", "hasCaesari": "false", "hasGastr_1": "false", "hasTraumaS": "false", "hasCardi_1": "false", "hasNeuroSu": "false", "hasPlastic": "false", "hasSpecial": "false", "hasIcu": "false", "hasNicu": "false", "hasCcu": "false", "hasMicu": "false", "hasSncu": "false", "hasPicu": "false", "hasCardi_2": "false", "hasPhysiot": "false", "hasAmbulan": "false", "hasExtende": "false", "hasGeriatr": "false", "hasPharmac": "true", "hasOcmc": "false", "hasHealthI": "false", "hasSsu": "false", "hasAyurved": "false", "hasCovidCl": "false", "hasEmergen": "false", "hasOperati": "false", "hasBloodDo": "false", "hasFreeTre": "false", "hasFreeT_1": "false", "hasFreeT_2": "false", "hasFreeT_3": "false", "hasFreeT_4": "false", "hasFreeT_5": "false", "hasFreeT_6": "false", "hasFreeT_7": "false", "hasFreeT_8": "false", "hasFreeT_9": "false", "hasInterne": null, "registrati": "2059/05/20", "lastRenewa": "2079/04/10", "dateOfVali": "2080/04/10", "isVerified": false, "verficatio": null, "isApproved": false, "website": null, "emailAddre": null, "localAdd_2": null, "picture": "https://bipadportal.gov.np/mediafiles/resources/health/1666245226963.jpg", "dateOfOper": null, "remarksOnO": null, "operatedBy": null, "religion": null, "otherRelig": null, "drinkingWa": null, "scale": null, "structure": null, "toilet": null, "type": "Pharmacy", "areaOfAirp": null, "kindOfVehi": null, "otherTypeW": null, "numberOfTr": null, "hasDisab_1": false, "nameAndNoO": null, "subtype": null, "otherType": null, "classroomC": null, "isMotorabl": null, "noOfLanes": null, "length": null, "noOfRoom": null, "noOfBed": null, "noOfStuden": null, "noOfMaleSt": null, "noOfFema_2": null, "noOfOtherS": null, "operatorTy": "Other", "otherOpera": null, "area": null, "altitude": null, "bank": null, "building": null, "hasTechnic": null, "isElectric": null, "isPermanen": null, "level": null, "moneyExcha": null, "atm": null, "noOfDiff_3": null, "noOfDiff_4": null, "noOfDiff_5": null, "noOfStud_1": null, "noOfStud_2": null, "noOfStud_3": null, "noOfStud_4": null, "operationT": null, "bedCount": null, "specializa": "Pharmacy", "outdoorSer": null, "indoorServ": null, "familyPlan": "true", "startingDa": null, "surfaceTyp": null, "surfaceLev": null, "otherSurfa": null, "otherSur_1": null, "hasRoadAcc": null, "storageFac": null, "internetFa": null, "tankBuildD": null, "technicalS": null, "technica_1": null, "placementO": null, "sourceOfWa": null, "noOfServic": null, "isWaterSup": null, "towersName": null, "coverageRa": null, "frequency": null, "isp": null, "hasInter_1": true, "vaccinatio": "false", "birthingCe": null, "hasOtherSe": null, "otherServi": null, "serviceUse": null, "width": null, "condition": null, "windDirect": null, "heliMarker": null, "nightLight": null, "helipadCon": null, "wireless": null, "fiber": null, "cable": null, "otherInter": null, "hasEvacuat": "false", "designedWi": null, "hasDisaste": null, "hasDrinkin": null, "hasFocalPe": "false", "focalPerso": null, "focalPer_1": null, "focalPer_2": null, "focalPer_3": null, "focalPer_4": null, "hasHumanit": null, "hasToilet": null, "isDesigned": "false", "hasHelipad": "false", "numberOf_1": null, "hasSafetyE": null, "remarksOnB": null, "hasOpenSpa": "false", "areaOfOpen": null, "capacityOf": null, "hasDisas_1": null, "hasMedicin": "false", "hasBackupE": "false", "hasWashFac": null, "hfCode": null, "authority": "Non Government", "authorityL": "Local", "serviceSha": null, "specifyCom": null, "hasDisas_2": null, "specifyAwa": null, "providesDi": null, "specifyDis": null, "hasHealthC": null, "specifyD_1": null, "hasEmploye": null, "noOfEmpl_1": null, "isDrrRelat": null, "specifyWas": null, "hasSleepin": null, "noOfBeds": null, "noOfMats": null, "noOfCots": null, "hasElectri": null, "noOfSleepi": null, "typeOfAppa": null, "numberOfFi": null, "numberOf_2": null, "numberOfOt": null, "extraAppar": null, "ward": 3114, "province": null, "district": null, "municipali": null, "resourceTy": "health", "resource_t": "health", "district_i": 26, "district_n": "Dhading", "districtId": 26, "districtNa": "Dhading", "layer": "Dhading_Hospital", "path": "C:\\Users\\ASUS\\Desktop\\Bipad Portal (All Point Files)\\Health Only\\Dhading_Hospital.shp" }, "geometry": { "type": "Point", "coordinates": [ 84.833172596991048, 27.810974900212351 ] } },
{ "type": "Feature", "properties": { "id": 52259, "title": "Highway Community Hospital", "titleNe": "राजमार्ग सामुदायिक अस्पताल", "descriptio": null, "dataSource": null, "dataSour_1": null, "dataSour_2": null, "lastModifi": "2023-01-10T16:47:55.863", "components": null, "localAddre": "Malekhu", "localAdd_1": null, "gr": null, "noOfEmploy": 15, "noOfMaleEm": "8", "noOfFemale": "7", "noOfOtherE": null, "noOfDiffer": null, "noOfDiff_1": null, "noOfDiff_2": null, "otherCompo": null, "ownership": "Humanitarian Organization", "elevation": null, "otherOwner": null, "followsGui": null, "serviceTyp": "Allopathy", "operationa": "Functional", "hospitalBe": "Functional", "icuBed": null, "status": null, "capacityIn": null, "promoter": null, "totalArea": null, "currentLan": null, "remarks": null, "address": null, "emergencyL": null, "operatingD": null, "usableArea": null, "capacity": null, "useOfEvacu": null, "usedAsHeli": null, "isDrinking": null, "isToiletAv": null, "noOfToilet": null, "hasHandWas": null, "noOfHandWa": null, "hasFoodPre": null, "noOfFoodPr": null, "noOfMaleTo": null, "noOfFema_1": null, "noOfCommon": null, "noOfTaps": null, "otherFacil": null, "hasDisable": null, "specifyInf": "Ramp", "startTime": "00:00:00", "endTime": "00:00:00", "phoneNumbe": "+977-9851039084,010-400077", "vehicleNum": null, "driverName": null, "driverCont": null, "driverAlte": null, "fireEngine": null, "fireBikeCo": null, "otherAppar": null, "ventilator": null, "hasChildIm": "true", "hasTdVacci": "true", "hasImnci": "false", "hasGrowthM": "false", "hasSafeMot": "true", "hasAntenat": "true", "hasPostnat": "true", "hasDeliver": "true", "hasBasicEm": "false", "hasCompreh": "false", "hasCompr_1": "false", "hasPostAbo": "false", "hasCondomP": "true", "hasIucd": "false", "hasImplant": "false", "hasVasecto": "false", "hasMinilap": "false", "hasOpd": "true", "hasGeneral": "true", "hasPediatr": "true", "hasObsAndG": "true", "hasDentalO": "true", "hasSurgery": "true", "hasGastroi": "true", "hasCardiac": "true", "hasMental": "true", "hasRespira": "false", "hasNephrol": "false", "hasEnt": "true", "hasDermato": "true", "hasEndocri": "false", "hasOncolog": "false", "hasNeurolo": "false", "hasOphthal": "true", "hasTreatem": "true", "hasTreat_1": "true", "hasTreat_2": "false", "hasTreat_3": "true", "hasTreat_4": "true", "hasTreat_5": "true", "hasLaborat": "true", "hasTestHiv": "true", "hasTestMal": "true", "hasTestTb": "true", "hasTestKal": "false", "hasUrineRe": "true", "hasStoolRe": "true", "hasGener_1": "true", "hasCulture": "true", "hasHormone": "true", "hasLeprosy": "true", "hasTestCov": "true", "hasTestC_1": "true", "hasVolunte": "true", "hasPmtct": "true", "hasAntiRet": "true", "hasDental": "true", "hasInPatie": "true", "hasRadiolo": "true", "hasXRay": "true", "hasXRayWit": "true", "hasUltraso": "true", "hasEchocar": "false", "hasEcg": "true", "hasTrademi": "false", "hasCtScan": "false", "hasMri": "false", "hasEndosco": "false", "hasColonos": "false", "hasSurgica": "true", "hasCaesari": "false", "hasGastr_1": "false", "hasTraumaS": "true", "hasCardi_1": "false", "hasNeuroSu": "false", "hasPlastic": "false", "hasSpecial": "false", "hasIcu": "false", "hasNicu": "false", "hasCcu": "false", "hasMicu": "false", "hasSncu": "false", "hasPicu": "false", "hasCardi_2": "false", "hasPhysiot": "false", "hasAmbulan": "true", "hasExtende": "true", "hasGeriatr": "false", "hasPharmac": "true", "hasOcmc": "false", "hasHealthI": "false", "hasSsu": "false", "hasAyurved": "false", "hasCovidCl": "true", "hasEmergen": "true", "hasOperati": "false", "hasBloodDo": "true", "hasFreeTre": "false", "hasFreeT_1": "false", "hasFreeT_2": "false", "hasFreeT_3": "true", "hasFreeT_4": "false", "hasFreeT_5": "false", "hasFreeT_6": "false", "hasFreeT_7": "false", "hasFreeT_8": "false", "hasFreeT_9": "false", "hasInterne": null, "registrati": "2062/08/02", "lastRenewa": "2079/08/22", "dateOfVali": "2080/08/22", "isVerified": false, "verficatio": null, "isApproved": false, "website": "www.rajmargahospital.com", "emailAddre": "rajmargahospital076@gmail.com", "localAdd_2": null, "picture": "https://bipadportal.gov.np/mediafiles/resources/health/1666246658523.jpg", "dateOfOper": null, "remarksOnO": null, "operatedBy": null, "religion": null, "otherRelig": null, "drinkingWa": null, "scale": null, "structure": null, "toilet": null, "type": "General Hospital", "areaOfAirp": null, "kindOfVehi": null, "otherTypeW": null, "numberOfTr": null, "hasDisab_1": true, "nameAndNoO": null, "subtype": null, "otherType": null, "classroomC": null, "isMotorabl": null, "noOfLanes": null, "length": null, "noOfRoom": null, "noOfBed": null, "noOfStuden": null, "noOfMaleSt": null, "noOfFema_2": null, "noOfOtherS": null, "operatorTy": "Other", "otherOpera": null, "area": null, "altitude": null, "bank": null, "building": null, "hasTechnic": null, "isElectric": null, "isPermanen": null, "level": null, "moneyExcha": null, "atm": null, "noOfDiff_3": null, "noOfDiff_4": null, "noOfDiff_5": null, "noOfStud_1": null, "noOfStud_2": null, "noOfStud_3": null, "noOfStud_4": null, "operationT": null, "bedCount": 25, "specializa": "General services", "outdoorSer": null, "indoorServ": null, "familyPlan": "true", "startingDa": null, "surfaceTyp": null, "surfaceLev": null, "otherSurfa": null, "otherSur_1": null, "hasRoadAcc": null, "storageFac": null, "internetFa": null, "tankBuildD": null, "technicalS": null, "technica_1": null, "placementO": null, "sourceOfWa": null, "noOfServic": null, "isWaterSup": null, "towersName": null, "coverageRa": null, "frequency": null, "isp": null, "hasInter_1": true, "vaccinatio": "true", "birthingCe": null, "hasOtherSe": null, "otherServi": null, "serviceUse": null, "width": null, "condition": null, "windDirect": null, "heliMarker": null, "nightLight": null, "helipadCon": null, "wireless": null, "fiber": null, "cable": null, "otherInter": null, "hasEvacuat": "true", "designedWi": null, "hasDisaste": null, "hasDrinkin": null, "hasFocalPe": "true", "focalPerso": "+977-9851039084", "focalPer_1": "Keshav makaju", "focalPer_2": null, "focalPer_3": null, "focalPer_4": null, "hasHumanit": null, "hasToilet": null, "isDesigned": "true", "hasHelipad": "false", "numberOf_1": null, "hasSafetyE": null, "remarksOnB": null, "hasOpenSpa": "true", "areaOfOpen": "2.0 ropani", "capacityOf": null, "hasDisas_1": null, "hasMedicin": "true", "hasBackupE": "true", "hasWashFac": null, "hfCode": null, "authority": "Non Government", "authorityL": "Local", "serviceSha": null, "specifyCom": null, "hasDisas_2": null, "specifyAwa": null, "providesDi": null, "specifyDis": null, "hasHealthC": null, "specifyD_1": null, "hasEmploye": null, "noOfEmpl_1": null, "isDrrRelat": null, "specifyWas": null, "hasSleepin": null, "noOfBeds": null, "noOfMats": null, "noOfCots": null, "hasElectri": null, "noOfSleepi": null, "typeOfAppa": null, "numberOfFi": null, "numberOf_2": null, "numberOfOt": null, "extraAppar": null, "ward": 3114, "province": null, "district": null, "municipali": null, "resourceTy": "health", "resource_t": "health", "district_i": 26, "district_n": "Dhading", "districtId": 26, "districtNa": "Dhading", "layer": "Dhading_Hospital", "path": "C:\\Users\\ASUS\\Desktop\\Bipad Portal (All Point Files)\\Health Only\\Dhading_Hospital.shp" }, "geometry": { "type": "Point", "coordinates": [ 84.83379352837801, 27.811124953865161 ] } },
{ "type": "Feature", "properties": { "id": 11042, "title": "Nuwakot Hospital Pvt Ltd", "titleNe": null, "descriptio": null, "dataSource": null, "dataSour_1": null, "dataSour_2": null, "lastModifi": "2022-02-25T18:56:32.719", "components": null, "localAddre": null, "localAdd_1": null, "gr": null, "noOfEmploy": null, "noOfMaleEm": null, "noOfFemale": null, "noOfOtherE": null, "noOfDiffer": null, "noOfDiff_1": null, "noOfDiff_2": null, "otherCompo": null, "ownership": null, "elevation": null, "otherOwner": null, "followsGui": null, "serviceTyp": null, "operationa": null, "hospitalBe": null, "icuBed": null, "status": null, "capacityIn": null, "promoter": null, "totalArea": null, "currentLan": null, "remarks": null, "address": null, "emergencyL": null, "operatingD": null, "usableArea": null, "capacity": null, "useOfEvacu": null, "usedAsHeli": null, "isDrinking": null, "isToiletAv": null, "noOfToilet": null, "hasHandWas": null, "noOfHandWa": null, "hasFoodPre": null, "noOfFoodPr": null, "noOfMaleTo": null, "noOfFema_1": null, "noOfCommon": null, "noOfTaps": null, "otherFacil": null, "hasDisable": false, "specifyInf": null, "startTime": null, "endTime": null, "phoneNumbe": null, "vehicleNum": null, "driverName": null, "driverCont": null, "driverAlte": null, "fireEngine": null, "fireBikeCo": null, "otherAppar": null, "ventilator": null, "hasChildIm": null, "hasTdVacci": null, "hasImnci": null, "hasGrowthM": null, "hasSafeMot": null, "hasAntenat": null, "hasPostnat": null, "hasDeliver": null, "hasBasicEm": null, "hasCompreh": null, "hasCompr_1": null, "hasPostAbo": null, "hasCondomP": null, "hasIucd": null, "hasImplant": null, "hasVasecto": null, "hasMinilap": null, "hasOpd": null, "hasGeneral": null, "hasPediatr": null, "hasObsAndG": null, "hasDentalO": null, "hasSurgery": null, "hasGastroi": null, "hasCardiac": null, "hasMental": null, "hasRespira": null, "hasNephrol": null, "hasEnt": null, "hasDermato": null, "hasEndocri": null, "hasOncolog": null, "hasNeurolo": null, "hasOphthal": null, "hasTreatem": null, "hasTreat_1": null, "hasTreat_2": null, "hasTreat_3": null, "hasTreat_4": null, "hasTreat_5": null, "hasLaborat": null, "hasTestHiv": null, "hasTestMal": null, "hasTestTb": null, "hasTestKal": null, "hasUrineRe": null, "hasStoolRe": null, "hasGener_1": null, "hasCulture": null, "hasHormone": null, "hasLeprosy": null, "hasTestCov": null, "hasTestC_1": null, "hasVolunte": null, "hasPmtct": null, "hasAntiRet": null, "hasDental": null, "hasInPatie": null, "hasRadiolo": null, "hasXRay": null, "hasXRayWit": null, "hasUltraso": null, "hasEchocar": null, "hasEcg": null, "hasTrademi": null, "hasCtScan": null, "hasMri": null, "hasEndosco": null, "hasColonos": null, "hasSurgica": null, "hasCaesari": null, "hasGastr_1": null, "hasTraumaS": null, "hasCardi_1": null, "hasNeuroSu": null, "hasPlastic": null, "hasSpecial": null, "hasIcu": null, "hasNicu": null, "hasCcu": null, "hasMicu": null, "hasSncu": null, "hasPicu": null, "hasCardi_2": null, "hasPhysiot": null, "hasAmbulan": null, "hasExtende": null, "hasGeriatr": null, "hasPharmac": null, "hasOcmc": null, "hasHealthI": null, "hasSsu": null, "hasAyurved": null, "hasCovidCl": null, "hasEmergen": null, "hasOperati": null, "hasBloodDo": null, "hasFreeTre": null, "hasFreeT_1": null, "hasFreeT_2": null, "hasFreeT_3": null, "hasFreeT_4": null, "hasFreeT_5": null, "hasFreeT_6": null, "hasFreeT_7": null, "hasFreeT_8": null, "hasFreeT_9": null, "hasInterne": null, "registrati": null, "lastRenewa": null, "dateOfVali": null, "isVerified": false, "verficatio": null, "isApproved": false, "website": null, "emailAddre": null, "localAdd_2": null, "picture": null, "dateOfOper": null, "remarksOnO": null, "operatedBy": null, "religion": null, "otherRelig": null, "drinkingWa": null, "scale": null, "structure": null, "toilet": null, "type": "Hospital", "areaOfAirp": null, "kindOfVehi": null, "otherTypeW": null, "numberOfTr": null, "hasDisab_1": null, "nameAndNoO": null, "subtype": null, "otherType": null, "classroomC": null, "isMotorabl": null, "noOfLanes": null, "length": null, "noOfRoom": null, "noOfBed": null, "noOfStuden": null, "noOfMaleSt": null, "noOfFema_2": null, "noOfOtherS": null, "operatorTy": null, "otherOpera": null, "area": null, "altitude": null, "bank": null, "building": null, "hasTechnic": null, "isElectric": null, "isPermanen": null, "level": null, "moneyExcha": null, "atm": null, "noOfDiff_3": null, "noOfDiff_4": null, "noOfDiff_5": null, "noOfStud_1": null, "noOfStud_2": null, "noOfStud_3": null, "noOfStud_4": null, "operationT": null, "bedCount": null, "specializa": null, "outdoorSer": null, "indoorServ": null, "familyPlan": null, "startingDa": null, "surfaceTyp": null, "surfaceLev": null, "otherSurfa": null, "otherSur_1": null, "hasRoadAcc": null, "storageFac": null, "internetFa": null, "tankBuildD": null, "technicalS": null, "technica_1": null, "placementO": null, "sourceOfWa": null, "noOfServic": null, "isWaterSup": null, "towersName": null, "coverageRa": null, "frequency": null, "isp": null, "hasInter_1": null, "vaccinatio": null, "birthingCe": null, "hasOtherSe": null, "otherServi": null, "serviceUse": null, "width": null, "condition": null, "windDirect": null, "heliMarker": null, "nightLight": null, "helipadCon": null, "wireless": null, "fiber": null, "cable": null, "otherInter": null, "hasEvacuat": null, "designedWi": null, "hasDisaste": null, "hasDrinkin": null, "hasFocalPe": null, "focalPerso": null, "focalPer_1": null, "focalPer_2": null, "focalPer_3": null, "focalPer_4": null, "hasHumanit": null, "hasToilet": null, "isDesigned": null, "hasHelipad": null, "numberOf_1": null, "hasSafetyE": null, "remarksOnB": null, "hasOpenSpa": null, "areaOfOpen": null, "capacityOf": null, "hasDisas_1": null, "hasMedicin": null, "hasBackupE": null, "hasWashFac": null, "hfCode": null, "authority": null, "authorityL": null, "serviceSha": null, "specifyCom": null, "hasDisas_2": null, "specifyAwa": null, "providesDi": null, "specifyDis": null, "hasHealthC": null, "specifyD_1": null, "hasEmploye": null, "noOfEmpl_1": null, "isDrrRelat": null, "specifyWas": null, "hasSleepin": null, "noOfBeds": null, "noOfMats": null, "noOfCots": null, "hasElectri": null, "noOfSleepi": null, "typeOfAppa": null, "numberOfFi": null, "numberOf_2": null, "numberOfOt": null, "extraAppar": null, "ward": 3629, "province": null, "district": null, "municipali": null, "resourceTy": "health", "resource_t": "health", "district_i": 25, "district_n": "Nuwakot", "districtId": 25, "districtNa": "Nuwakot", "layer": "Nuwakot_Hospital", "path": "C:\\Users\\ASUS\\Desktop\\Bipad Portal (All Point Files)\\Health Only\\Nuwakot_Hospital.shp" }, "geometry": { "type": "Point", "coordinates": [ 85.148232, 27.921761 ] } },
{ "type": "Feature", "properties": { "id": 11060, "title": "Syafrubesi HP", "titleNe": null, "descriptio": null, "dataSource": null, "dataSour_1": null, "dataSour_2": null, "lastModifi": "2022-02-25T18:56:32.498", "components": null, "localAddre": null, "localAdd_1": null, "gr": null, "noOfEmploy": null, "noOfMaleEm": null, "noOfFemale": null, "noOfOtherE": null, "noOfDiffer": null, "noOfDiff_1": null, "noOfDiff_2": null, "otherCompo": null, "ownership": null, "elevation": null, "otherOwner": null, "followsGui": null, "serviceTyp": null, "operationa": null, "hospitalBe": null, "icuBed": null, "status": null, "capacityIn": null, "promoter": null, "totalArea": null, "currentLan": null, "remarks": null, "address": null, "emergencyL": null, "operatingD": null, "usableArea": null, "capacity": null, "useOfEvacu": null, "usedAsHeli": null, "isDrinking": null, "isToiletAv": null, "noOfToilet": null, "hasHandWas": null, "noOfHandWa": null, "hasFoodPre": null, "noOfFoodPr": null, "noOfMaleTo": null, "noOfFema_1": null, "noOfCommon": null, "noOfTaps": null, "otherFacil": null, "hasDisable": false, "specifyInf": null, "startTime": null, "endTime": null, "phoneNumbe": null, "vehicleNum": null, "driverName": null, "driverCont": null, "driverAlte": null, "fireEngine": null, "fireBikeCo": null, "otherAppar": null, "ventilator": null, "hasChildIm": null, "hasTdVacci": null, "hasImnci": null, "hasGrowthM": null, "hasSafeMot": null, "hasAntenat": null, "hasPostnat": null, "hasDeliver": null, "hasBasicEm": null, "hasCompreh": null, "hasCompr_1": null, "hasPostAbo": null, "hasCondomP": null, "hasIucd": null, "hasImplant": null, "hasVasecto": null, "hasMinilap": null, "hasOpd": null, "hasGeneral": null, "hasPediatr": null, "hasObsAndG": null, "hasDentalO": null, "hasSurgery": null, "hasGastroi": null, "hasCardiac": null, "hasMental": null, "hasRespira": null, "hasNephrol": null, "hasEnt": null, "hasDermato": null, "hasEndocri": null, "hasOncolog": null, "hasNeurolo": null, "hasOphthal": null, "hasTreatem": null, "hasTreat_1": null, "hasTreat_2": null, "hasTreat_3": null, "hasTreat_4": null, "hasTreat_5": null, "hasLaborat": null, "hasTestHiv": null, "hasTestMal": null, "hasTestTb": null, "hasTestKal": null, "hasUrineRe": null, "hasStoolRe": null, "hasGener_1": null, "hasCulture": null, "hasHormone": null, "hasLeprosy": null, "hasTestCov": null, "hasTestC_1": null, "hasVolunte": null, "hasPmtct": null, "hasAntiRet": null, "hasDental": null, "hasInPatie": null, "hasRadiolo": null, "hasXRay": null, "hasXRayWit": null, "hasUltraso": null, "hasEchocar": null, "hasEcg": null, "hasTrademi": null, "hasCtScan": null, "hasMri": null, "hasEndosco": null, "hasColonos": null, "hasSurgica": null, "hasCaesari": null, "hasGastr_1": null, "hasTraumaS": null, "hasCardi_1": null, "hasNeuroSu": null, "hasPlastic": null, "hasSpecial": null, "hasIcu": null, "hasNicu": null, "hasCcu": null, "hasMicu": null, "hasSncu": null, "hasPicu": null, "hasCardi_2": null, "hasPhysiot": null, "hasAmbulan": null, "hasExtende": null, "hasGeriatr": null, "hasPharmac": null, "hasOcmc": null, "hasHealthI": null, "hasSsu": null, "hasAyurved": null, "hasCovidCl": null, "hasEmergen": null, "hasOperati": null, "hasBloodDo": null, "hasFreeTre": null, "hasFreeT_1": null, "hasFreeT_2": null, "hasFreeT_3": null, "hasFreeT_4": null, "hasFreeT_5": null, "hasFreeT_6": null, "hasFreeT_7": null, "hasFreeT_8": null, "hasFreeT_9": null, "hasInterne": null, "registrati": null, "lastRenewa": null, "dateOfVali": null, "isVerified": false, "verficatio": null, "isApproved": false, "website": null, "emailAddre": null, "localAdd_2": null, "picture": null, "dateOfOper": null, "remarksOnO": null, "operatedBy": null, "religion": null, "otherRelig": null, "drinkingWa": null, "scale": null, "structure": null, "toilet": null, "type": "Health Post", "areaOfAirp": null, "kindOfVehi": null, "otherTypeW": null, "numberOfTr": null, "hasDisab_1": null, "nameAndNoO": null, "subtype": null, "otherType": null, "classroomC": null, "isMotorabl": null, "noOfLanes": null, "length": null, "noOfRoom": null, "noOfBed": null, "noOfStuden": null, "noOfMaleSt": null, "noOfFema_2": null, "noOfOtherS": null, "operatorTy": null, "otherOpera": null, "area": null, "altitude": null, "bank": null, "building": null, "hasTechnic": null, "isElectric": null, "isPermanen": null, "level": null, "moneyExcha": null, "atm": null, "noOfDiff_3": null, "noOfDiff_4": null, "noOfDiff_5": null, "noOfStud_1": null, "noOfStud_2": null, "noOfStud_3": null, "noOfStud_4": null, "operationT": null, "bedCount": null, "specializa": null, "outdoorSer": null, "indoorServ": null, "familyPlan": null, "startingDa": null, "surfaceTyp": null, "surfaceLev": null, "otherSurfa": null, "otherSur_1": null, "hasRoadAcc": null, "storageFac": null, "internetFa": null, "tankBuildD": null, "technicalS": null, "technica_1": null, "placementO": null, "sourceOfWa": null, "noOfServic": null, "isWaterSup": null, "towersName": null, "coverageRa": null, "frequency": null, "isp": null, "hasInter_1": null, "vaccinatio": null, "birthingCe": null, "hasOtherSe": null, "otherServi": null, "serviceUse": null, "width": null, "condition": null, "windDirect": null, "heliMarker": null, "nightLight": null, "helipadCon": null, "wireless": null, "fiber": null, "cable": null, "otherInter": null, "hasEvacuat": null, "designedWi": null, "hasDisaste": null, "hasDrinkin": null, "hasFocalPe": null, "focalPerso": null, "focalPer_1": null, "focalPer_2": null, "focalPer_3": null, "focalPer_4": null, "hasHumanit": null, "hasToilet": null, "isDesigned": null, "hasHelipad": null, "numberOf_1": null, "hasSafetyE": null, "remarksOnB": null, "hasOpenSpa": null, "areaOfOpen": null, "capacityOf": null, "hasDisas_1": null, "hasMedicin": null, "hasBackupE": null, "hasWashFac": null, "hfCode": null, "authority": null, "authorityL": null, "serviceSha": null, "specifyCom": null, "hasDisas_2": null, "specifyAwa": null, "providesDi": null, "specifyDis": null, "hasHealthC": null, "specifyD_1": null, "hasEmploye": null, "noOfEmpl_1": null, "isDrrRelat": null, "specifyWas": null, "hasSleepin": null, "noOfBeds": null, "noOfMats": null, "noOfCots": null, "hasElectri": null, "noOfSleepi": null, "typeOfAppa": null, "numberOfFi": null, "numberOf_2": null, "numberOfOt": null, "extraAppar": null, "ward": 1429, "province": null, "district": null, "municipali": null, "resourceTy": "health", "resource_t": "health", "district_i": 23, "district_n": "Rasuwa", "districtId": 23, "districtNa": "Rasuwa", "layer": "Rasuwa_Hospital", "path": "C:\\Users\\ASUS\\Desktop\\Bipad Portal (All Point Files)\\Health Only\\Rasuwa_Hospital.shp" }, "geometry": { "type": "Point", "coordinates": [ 85.341232, 28.165251 ] } },
{ "type": "Feature", "properties": { "id": 11063, "title": "Timure HP", "titleNe": null, "descriptio": null, "dataSource": null, "dataSour_1": null, "dataSour_2": null, "lastModifi": "2022-02-25T18:56:32.455", "components": null, "localAddre": null, "localAdd_1": null, "gr": null, "noOfEmploy": null, "noOfMaleEm": null, "noOfFemale": null, "noOfOtherE": null, "noOfDiffer": null, "noOfDiff_1": null, "noOfDiff_2": null, "otherCompo": null, "ownership": null, "elevation": null, "otherOwner": null, "followsGui": null, "serviceTyp": null, "operationa": null, "hospitalBe": null, "icuBed": null, "status": null, "capacityIn": null, "promoter": null, "totalArea": null, "currentLan": null, "remarks": null, "address": null, "emergencyL": null, "operatingD": null, "usableArea": null, "capacity": null, "useOfEvacu": null, "usedAsHeli": null, "isDrinking": null, "isToiletAv": null, "noOfToilet": null, "hasHandWas": null, "noOfHandWa": null, "hasFoodPre": null, "noOfFoodPr": null, "noOfMaleTo": null, "noOfFema_1": null, "noOfCommon": null, "noOfTaps": null, "otherFacil": null, "hasDisable": false, "specifyInf": null, "startTime": null, "endTime": null, "phoneNumbe": null, "vehicleNum": null, "driverName": null, "driverCont": null, "driverAlte": null, "fireEngine": null, "fireBikeCo": null, "otherAppar": null, "ventilator": null, "hasChildIm": null, "hasTdVacci": null, "hasImnci": null, "hasGrowthM": null, "hasSafeMot": null, "hasAntenat": null, "hasPostnat": null, "hasDeliver": null, "hasBasicEm": null, "hasCompreh": null, "hasCompr_1": null, "hasPostAbo": null, "hasCondomP": null, "hasIucd": null, "hasImplant": null, "hasVasecto": null, "hasMinilap": null, "hasOpd": null, "hasGeneral": null, "hasPediatr": null, "hasObsAndG": null, "hasDentalO": null, "hasSurgery": null, "hasGastroi": null, "hasCardiac": null, "hasMental": null, "hasRespira": null, "hasNephrol": null, "hasEnt": null, "hasDermato": null, "hasEndocri": null, "hasOncolog": null, "hasNeurolo": null, "hasOphthal": null, "hasTreatem": null, "hasTreat_1": null, "hasTreat_2": null, "hasTreat_3": null, "hasTreat_4": null, "hasTreat_5": null, "hasLaborat": null, "hasTestHiv": null, "hasTestMal": null, "hasTestTb": null, "hasTestKal": null, "hasUrineRe": null, "hasStoolRe": null, "hasGener_1": null, "hasCulture": null, "hasHormone": null, "hasLeprosy": null, "hasTestCov": null, "hasTestC_1": null, "hasVolunte": null, "hasPmtct": null, "hasAntiRet": null, "hasDental": null, "hasInPatie": null, "hasRadiolo": null, "hasXRay": null, "hasXRayWit": null, "hasUltraso": null, "hasEchocar": null, "hasEcg": null, "hasTrademi": null, "hasCtScan": null, "hasMri": null, "hasEndosco": null, "hasColonos": null, "hasSurgica": null, "hasCaesari": null, "hasGastr_1": null, "hasTraumaS": null, "hasCardi_1": null, "hasNeuroSu": null, "hasPlastic": null, "hasSpecial": null, "hasIcu": null, "hasNicu": null, "hasCcu": null, "hasMicu": null, "hasSncu": null, "hasPicu": null, "hasCardi_2": null, "hasPhysiot": null, "hasAmbulan": null, "hasExtende": null, "hasGeriatr": null, "hasPharmac": null, "hasOcmc": null, "hasHealthI": null, "hasSsu": null, "hasAyurved": null, "hasCovidCl": null, "hasEmergen": null, "hasOperati": null, "hasBloodDo": null, "hasFreeTre": null, "hasFreeT_1": null, "hasFreeT_2": null, "hasFreeT_3": null, "hasFreeT_4": null, "hasFreeT_5": null, "hasFreeT_6": null, "hasFreeT_7": null, "hasFreeT_8": null, "hasFreeT_9": null, "hasInterne": null, "registrati": null, "lastRenewa": null, "dateOfVali": null, "isVerified": false, "verficatio": null, "isApproved": false, "website": null, "emailAddre": null, "localAdd_2": null, "picture": null, "dateOfOper": null, "remarksOnO": null, "operatedBy": null, "religion": null, "otherRelig": null, "drinkingWa": null, "scale": null, "structure": null, "toilet": null, "type": "Health Post", "areaOfAirp": null, "kindOfVehi": null, "otherTypeW": null, "numberOfTr": null, "hasDisab_1": null, "nameAndNoO": null, "subtype": null, "otherType": null, "classroomC": null, "isMotorabl": null, "noOfLanes": null, "length": null, "noOfRoom": null, "noOfBed": null, "noOfStuden": null, "noOfMaleSt": null, "noOfFema_2": null, "noOfOtherS": null, "operatorTy": null, "otherOpera": null, "area": null, "altitude": null, "bank": null, "building": null, "hasTechnic": null, "isElectric": null, "isPermanen": null, "level": null, "moneyExcha": null, "atm": null, "noOfDiff_3": null, "noOfDiff_4": null, "noOfDiff_5": null, "noOfStud_1": null, "noOfStud_2": null, "noOfStud_3": null, "noOfStud_4": null, "operationT": null, "bedCount": null, "specializa": null, "outdoorSer": null, "indoorServ": null, "familyPlan": null, "startingDa": null, "surfaceTyp": null, "surfaceLev": null, "otherSurfa": null, "otherSur_1": null, "hasRoadAcc": null, "storageFac": null, "internetFa": null, "tankBuildD": null, "technicalS": null, "technica_1": null, "placementO": null, "sourceOfWa": null, "noOfServic": null, "isWaterSup": null, "towersName": null, "coverageRa": null, "frequency": null, "isp": null, "hasInter_1": null, "vaccinatio": null, "birthingCe": null, "hasOtherSe": null, "otherServi": null, "serviceUse": null, "width": null, "condition": null, "windDirect": null, "heliMarker": null, "nightLight": null, "helipadCon": null, "wireless": null, "fiber": null, "cable": null, "otherInter": null, "hasEvacuat": null, "designedWi": null, "hasDisaste": null, "hasDrinkin": null, "hasFocalPe": null, "focalPerso": null, "focalPer_1": null, "focalPer_2": null, "focalPer_3": null, "focalPer_4": null, "hasHumanit": null, "hasToilet": null, "isDesigned": null, "hasHelipad": null, "numberOf_1": null, "hasSafetyE": null, "remarksOnB": null, "hasOpenSpa": null, "areaOfOpen": null, "capacityOf": null, "hasDisas_1": null, "hasMedicin": null, "hasBackupE": null, "hasWashFac": null, "hfCode": null, "authority": null, "authorityL": null, "serviceSha": null, "specifyCom": null, "hasDisas_2": null, "specifyAwa": null, "providesDi": null, "specifyDis": null, "hasHealthC": null, "specifyD_1": null, "hasEmploye": null, "noOfEmpl_1": null, "isDrrRelat": null, "specifyWas": null, "hasSleepin": null, "noOfBeds": null, "noOfMats": null, "noOfCots": null, "hasElectri": null, "noOfSleepi": null, "typeOfAppa": null, "numberOfFi": null, "numberOf_2": null, "numberOfOt": null, "extraAppar": null, "ward": 1430, "province": null, "district": null, "municipali": null, "resourceTy": "health", "resource_t": "health", "district_i": 23, "district_n": "Rasuwa", "districtId": 23, "districtNa": "Rasuwa", "layer": "Rasuwa_Hospital", "path": "C:\\Users\\ASUS\\Desktop\\Bipad Portal (All Point Files)\\Health Only\\Rasuwa_Hospital.shp" }, "geometry": { "type": "Point", "coordinates": [ 85.358902, 28.242241 ] } },
{ "type": "Feature", "properties": { "id": 12138, "title": "Panta Medical Hall", "titleNe": null, "descriptio": null, "dataSource": null, "dataSour_1": null, "dataSour_2": null, "lastModifi": "2022-02-25T18:56:21.487", "components": null, "localAddre": null, "localAdd_1": null, "gr": null, "noOfEmploy": null, "noOfMaleEm": null, "noOfFemale": null, "noOfOtherE": null, "noOfDiffer": null, "noOfDiff_1": null, "noOfDiff_2": null, "otherCompo": null, "ownership": null, "elevation": null, "otherOwner": null, "followsGui": null, "serviceTyp": null, "operationa": null, "hospitalBe": null, "icuBed": null, "status": null, "capacityIn": null, "promoter": null, "totalArea": null, "currentLan": null, "remarks": null, "address": null, "emergencyL": null, "operatingD": null, "usableArea": null, "capacity": null, "useOfEvacu": null, "usedAsHeli": null, "isDrinking": null, "isToiletAv": null, "noOfToilet": null, "hasHandWas": null, "noOfHandWa": null, "hasFoodPre": null, "noOfFoodPr": null, "noOfMaleTo": null, "noOfFema_1": null, "noOfCommon": null, "noOfTaps": null, "otherFacil": null, "hasDisable": false, "specifyInf": null, "startTime": null, "endTime": null, "phoneNumbe": null, "vehicleNum": null, "driverName": null, "driverCont": null, "driverAlte": null, "fireEngine": null, "fireBikeCo": null, "otherAppar": null, "ventilator": null, "hasChildIm": null, "hasTdVacci": null, "hasImnci": null, "hasGrowthM": null, "hasSafeMot": null, "hasAntenat": null, "hasPostnat": null, "hasDeliver": null, "hasBasicEm": null, "hasCompreh": null, "hasCompr_1": null, "hasPostAbo": null, "hasCondomP": null, "hasIucd": null, "hasImplant": null, "hasVasecto": null, "hasMinilap": null, "hasOpd": null, "hasGeneral": null, "hasPediatr": null, "hasObsAndG": null, "hasDentalO": null, "hasSurgery": null, "hasGastroi": null, "hasCardiac": null, "hasMental": null, "hasRespira": null, "hasNephrol": null, "hasEnt": null, "hasDermato": null, "hasEndocri": null, "hasOncolog": null, "hasNeurolo": null, "hasOphthal": null, "hasTreatem": null, "hasTreat_1": null, "hasTreat_2": null, "hasTreat_3": null, "hasTreat_4": null, "hasTreat_5": null, "hasLaborat": null, "hasTestHiv": null, "hasTestMal": null, "hasTestTb": null, "hasTestKal": null, "hasUrineRe": null, "hasStoolRe": null, "hasGener_1": null, "hasCulture": null, "hasHormone": null, "hasLeprosy": null, "hasTestCov": null, "hasTestC_1": null, "hasVolunte": null, "hasPmtct": null, "hasAntiRet": null, "hasDental": null, "hasInPatie": null, "hasRadiolo": null, "hasXRay": null, "hasXRayWit": null, "hasUltraso": null, "hasEchocar": null, "hasEcg": null, "hasTrademi": null, "hasCtScan": null, "hasMri": null, "hasEndosco": null, "hasColonos": null, "hasSurgica": null, "hasCaesari": null, "hasGastr_1": null, "hasTraumaS": null, "hasCardi_1": null, "hasNeuroSu": null, "hasPlastic": null, "hasSpecial": null, "hasIcu": null, "hasNicu": null, "hasCcu": null, "hasMicu": null, "hasSncu": null, "hasPicu": null, "hasCardi_2": null, "hasPhysiot": null, "hasAmbulan": null, "hasExtende": null, "hasGeriatr": null, "hasPharmac": null, "hasOcmc": null, "hasHealthI": null, "hasSsu": null, "hasAyurved": null, "hasCovidCl": null, "hasEmergen": null, "hasOperati": null, "hasBloodDo": null, "hasFreeTre": null, "hasFreeT_1": null, "hasFreeT_2": null, "hasFreeT_3": null, "hasFreeT_4": null, "hasFreeT_5": null, "hasFreeT_6": null, "hasFreeT_7": null, "hasFreeT_8": null, "hasFreeT_9": null, "hasInterne": null, "registrati": null, "lastRenewa": null, "dateOfVali": null, "isVerified": false, "verficatio": null, "isApproved": false, "website": null, "emailAddre": null, "localAdd_2": null, "picture": null, "dateOfOper": null, "remarksOnO": null, "operatedBy": null, "religion": null, "otherRelig": null, "drinkingWa": null, "scale": null, "structure": null, "toilet": null, "type": "Clinic", "areaOfAirp": null, "kindOfVehi": null, "otherTypeW": null, "numberOfTr": null, "hasDisab_1": null, "nameAndNoO": null, "subtype": null, "otherType": null, "classroomC": null, "isMotorabl": null, "noOfLanes": null, "length": null, "noOfRoom": null, "noOfBed": null, "noOfStuden": null, "noOfMaleSt": null, "noOfFema_2": null, "noOfOtherS": null, "operatorTy": null, "otherOpera": null, "area": null, "altitude": null, "bank": null, "building": null, "hasTechnic": null, "isElectric": null, "isPermanen": null, "level": null, "moneyExcha": null, "atm": null, "noOfDiff_3": null, "noOfDiff_4": null, "noOfDiff_5": null, "noOfStud_1": null, "noOfStud_2": null, "noOfStud_3": null, "noOfStud_4": null, "operationT": null, "bedCount": null, "specializa": null, "outdoorSer": null, "indoorServ": null, "familyPlan": null, "startingDa": null, "surfaceTyp": null, "surfaceLev": null, "otherSurfa": null, "otherSur_1": null, "hasRoadAcc": null, "storageFac": null, "internetFa": null, "tankBuildD": null, "technicalS": null, "technica_1": null, "placementO": null, "sourceOfWa": null, "noOfServic": null, "isWaterSup": null, "towersName": null, "coverageRa": null, "frequency": null, "isp": null, "hasInter_1": null, "vaccinatio": null, "birthingCe": null, "hasOtherSe": null, "otherServi": null, "serviceUse": null, "width": null, "condition": null, "windDirect": null, "heliMarker": null, "nightLight": null, "helipadCon": null, "wireless": null, "fiber": null, "cable": null, "otherInter": null, "hasEvacuat": null, "designedWi": null, "hasDisaste": null, "hasDrinkin": null, "hasFocalPe": null, "focalPerso": null, "focalPer_1": null, "focalPer_2": null, "focalPer_3": null, "focalPer_4": null, "hasHumanit": null, "hasToilet": null, "isDesigned": null, "hasHelipad": null, "numberOf_1": null, "hasSafetyE": null, "remarksOnB": null, "hasOpenSpa": null, "areaOfOpen": null, "capacityOf": null, "hasDisas_1": null, "hasMedicin": null, "hasBackupE": null, "hasWashFac": null, "hfCode": null, "authority": null, "authorityL": null, "serviceSha": null, "specifyCom": null, "hasDisas_2": null, "specifyAwa": null, "providesDi": null, "specifyDis": null, "hasHealthC": null, "specifyD_1": null, "hasEmploye": null, "noOfEmpl_1": null, "isDrrRelat": null, "specifyWas": null, "hasSleepin": null, "noOfBeds": null, "noOfMats": null, "noOfCots": null, "hasElectri": null, "noOfSleepi": null, "typeOfAppa": null, "numberOfFi": null, "numberOf_2": null, "numberOfOt": null, "extraAppar": null, "ward": 1429, "province": null, "district": null, "municipali": null, "resourceTy": "health", "resource_t": "health", "district_i": 23, "district_n": "Rasuwa", "districtId": 23, "districtNa": "Rasuwa", "layer": "Rasuwa_Hospital", "path": "C:\\Users\\ASUS\\Desktop\\Bipad Portal (All Point Files)\\Health Only\\Rasuwa_Hospital.shp" }, "geometry": { "type": "Point", "coordinates": [ 85.3367, 28.162001 ] } },
{ "type": "Feature", "properties": { "id": 55236, "title": "Syafrubesi Health Post Rasuwa", "titleNe": null, "descriptio": null, "dataSource": "nhfr_api", "dataSour_1": 2395, "dataSour_2": null, "lastModifi": "2026-08-09T12:25:29.180", "components": null, "localAddre": null, "localAdd_1": null, "gr": null, "noOfEmploy": null, "noOfMaleEm": null, "noOfFemale": null, "noOfOtherE": null, "noOfDiffer": null, "noOfDiff_1": null, "noOfDiff_2": null, "otherCompo": null, "ownership": "Local Government", "elevation": null, "otherOwner": null, "followsGui": null, "serviceTyp": null, "operationa": null, "hospitalBe": null, "icuBed": null, "status": null, "capacityIn": null, "promoter": null, "totalArea": null, "currentLan": null, "remarks": null, "address": null, "emergencyL": null, "operatingD": null, "usableArea": null, "capacity": null, "useOfEvacu": null, "usedAsHeli": null, "isDrinking": null, "isToiletAv": null, "noOfToilet": null, "hasHandWas": null, "noOfHandWa": null, "hasFoodPre": null, "noOfFoodPr": null, "noOfMaleTo": null, "noOfFema_1": null, "noOfCommon": null, "noOfTaps": null, "otherFacil": null, "hasDisable": false, "specifyInf": null, "startTime": null, "endTime": null, "phoneNumbe": "010541060", "vehicleNum": null, "driverName": null, "driverCont": null, "driverAlte": null, "fireEngine": null, "fireBikeCo": null, "otherAppar": null, "ventilator": null, "hasChildIm": null, "hasTdVacci": null, "hasImnci": null, "hasGrowthM": null, "hasSafeMot": null, "hasAntenat": null, "hasPostnat": null, "hasDeliver": null, "hasBasicEm": null, "hasCompreh": null, "hasCompr_1": null, "hasPostAbo": null, "hasCondomP": null, "hasIucd": null, "hasImplant": null, "hasVasecto": null, "hasMinilap": null, "hasOpd": null, "hasGeneral": null, "hasPediatr": null, "hasObsAndG": null, "hasDentalO": null, "hasSurgery": null, "hasGastroi": null, "hasCardiac": null, "hasMental": null, "hasRespira": null, "hasNephrol": null, "hasEnt": null, "hasDermato": null, "hasEndocri": null, "hasOncolog": null, "hasNeurolo": null, "hasOphthal": null, "hasTreatem": null, "hasTreat_1": null, "hasTreat_2": null, "hasTreat_3": null, "hasTreat_4": null, "hasTreat_5": null, "hasLaborat": null, "hasTestHiv": null, "hasTestMal": null, "hasTestTb": null, "hasTestKal": null, "hasUrineRe": null, "hasStoolRe": null, "hasGener_1": null, "hasCulture": null, "hasHormone": null, "hasLeprosy": null, "hasTestCov": null, "hasTestC_1": null, "hasVolunte": null, "hasPmtct": null, "hasAntiRet": null, "hasDental": null, "hasInPatie": null, "hasRadiolo": null, "hasXRay": null, "hasXRayWit": null, "hasUltraso": null, "hasEchocar": null, "hasEcg": null, "hasTrademi": null, "hasCtScan": null, "hasMri": null, "hasEndosco": null, "hasColonos": null, "hasSurgica": null, "hasCaesari": null, "hasGastr_1": null, "hasTraumaS": null, "hasCardi_1": null, "hasNeuroSu": null, "hasPlastic": null, "hasSpecial": null, "hasIcu": null, "hasNicu": null, "hasCcu": null, "hasMicu": null, "hasSncu": null, "hasPicu": null, "hasCardi_2": null, "hasPhysiot": null, "hasAmbulan": null, "hasExtende": null, "hasGeriatr": null, "hasPharmac": null, "hasOcmc": null, "hasHealthI": null, "hasSsu": null, "hasAyurved": null, "hasCovidCl": null, "hasEmergen": null, "hasOperati": null, "hasBloodDo": null, "hasFreeTre": null, "hasFreeT_1": null, "hasFreeT_2": null, "hasFreeT_3": null, "hasFreeT_4": null, "hasFreeT_5": null, "hasFreeT_6": null, "hasFreeT_7": null, "hasFreeT_8": null, "hasFreeT_9": null, "hasInterne": "true", "registrati": "03/12/2036", "lastRenewa": null, "dateOfVali": null, "isVerified": false, "verficatio": null, "isApproved": false, "website": null, "emailAddre": "syafruhp123@gmail.com", "localAdd_2": null, "picture": null, "dateOfOper": null, "remarksOnO": null, "operatedBy": null, "religion": null, "otherRelig": null, "drinkingWa": null, "scale": null, "structure": null, "toilet": null, "type": "Basic Health Service Centre", "areaOfAirp": null, "kindOfVehi": null, "otherTypeW": null, "numberOfTr": null, "hasDisab_1": null, "nameAndNoO": null, "subtype": null, "otherType": null, "classroomC": null, "isMotorabl": null, "noOfLanes": null, "length": null, "noOfRoom": null, "noOfBed": null, "noOfStuden": null, "noOfMaleSt": null, "noOfFema_2": null, "noOfOtherS": null, "operatorTy": "Government", "otherOpera": null, "area": null, "altitude": null, "bank": null, "building": null, "hasTechnic": null, "isElectric": null, "isPermanen": null, "level": null, "moneyExcha": null, "atm": null, "noOfDiff_3": null, "noOfDiff_4": null, "noOfDiff_5": null, "noOfStud_1": null, "noOfStud_2": null, "noOfStud_3": null, "noOfStud_4": null, "operationT": null, "bedCount": null, "specializa": null, "outdoorSer": null, "indoorServ": null, "familyPlan": null, "startingDa": null, "surfaceTyp": null, "surfaceLev": null, "otherSurfa": null, "otherSur_1": null, "hasRoadAcc": null, "storageFac": null, "internetFa": null, "tankBuildD": null, "technicalS": null, "technica_1": null, "placementO": null, "sourceOfWa": null, "noOfServic": null, "isWaterSup": null, "towersName": null, "coverageRa": null, "frequency": null, "isp": null, "hasInter_1": null, "vaccinatio": null, "birthingCe": null, "hasOtherSe": null, "otherServi": null, "serviceUse": null, "width": null, "condition": null, "windDirect": null, "heliMarker": null, "nightLight": null, "helipadCon": null, "wireless": null, "fiber": null, "cable": null, "otherInter": null, "hasEvacuat": null, "designedWi": null, "hasDisaste": null, "hasDrinkin": null, "hasFocalPe": null, "focalPerso": null, "focalPer_1": null, "focalPer_2": null, "focalPer_3": null, "focalPer_4": null, "hasHumanit": null, "hasToilet": null, "isDesigned": null, "hasHelipad": null, "numberOf_1": null, "hasSafetyE": null, "remarksOnB": null, "hasOpenSpa": null, "areaOfOpen": null, "capacityOf": null, "hasDisas_1": null, "hasMedicin": null, "hasBackupE": null, "hasWashFac": null, "hfCode": "3030100081", "authority": null, "authorityL": "Local", "serviceSha": null, "specifyCom": null, "hasDisas_2": null, "specifyAwa": null, "providesDi": null, "specifyDis": null, "hasHealthC": null, "specifyD_1": null, "hasEmploye": null, "noOfEmpl_1": null, "isDrrRelat": null, "specifyWas": null, "hasSleepin": null, "noOfBeds": null, "noOfMats": null, "noOfCots": null, "hasElectri": null, "noOfSleepi": null, "typeOfAppa": null, "numberOfFi": null, "numberOf_2": null, "numberOfOt": null, "extraAppar": null, "ward": 1429, "province": null, "district": null, "municipali": null, "resourceTy": "health", "resource_t": "health", "district_i": 23, "district_n": "Rasuwa", "districtId": 23, "districtNa": "Rasuwa", "layer": "Rasuwa_Hospital", "path": "C:\\Users\\ASUS\\Desktop\\Bipad Portal (All Point Files)\\Health Only\\Rasuwa_Hospital.shp" }, "geometry": { "type": "Point", "coordinates": [ 85.340912, 28.165067 ] } }
]
}
