{
"type": "FeatureCollection",
"name": "Potential_bridge",
"crs": { "type": "name", "properties": { "name": "urn:ogc:def:crs:OGC:1.3:CRS84" } },
"features": [
{ "type": "Feature", "properties": { "id": null, "Name": "M Bridge", "description": null, "timestamp": null, "begin": null, "end": null, "altitudeMode": null, "tessellate": -1, "extrude": 0, "visibility": -1, "drawOrder": null, "icon": null }, "geometry": { "type": "Point", "coordinates": [ 85.332455772896637, 28.157502844924242, 0.0 ] } },
{ "type": "Feature", "properties": { "id": null, "Name": "Suspension Bridge", "description": null, "timestamp": null, "begin": null, "end": null, "altitudeMode": null, "tessellate": -1, "extrude": 0, "visibility": -1, "drawOrder": null, "icon": null }, "geometry": { "type": "Point", "coordinates": [ 85.289023111436563, 28.11994455756188, 0.0 ] } },
{ "type": "Feature", "properties": { "id": null, "Name": "Bailey Bridge", "description": null, "timestamp": null, "begin": null, "end": null, "altitudeMode": null, "tessellate": -1, "extrude": 0, "visibility": -1, "drawOrder": null, "icon": null }, "geometry": { "type": "Point", "coordinates": [ 85.293569012165079, 28.124116712468719, 0.0 ] } },
{ "type": "Feature", "properties": { "id": null, "Name": "Suspension Bridge", "description": null, "timestamp": null, "begin": null, "end": null, "altitudeMode": null, "tessellate": -1, "extrude": 0, "visibility": -1, "drawOrder": null, "icon": null }, "geometry": { "type": "Point", "coordinates": [ 85.281109704792186, 28.112925492360041, 0.0 ] } },
{ "type": "Feature", "properties": { "id": null, "Name": "M Bridge", "description": null, "timestamp": null, "begin": null, "end": null, "altitudeMode": null, "tessellate": -1, "extrude": 0, "visibility": -1, "drawOrder": null, "icon": null }, "geometry": { "type": "Point", "coordinates": [ 85.27512885436046, 28.10835752796276, 0.0 ] } },
{ "type": "Feature", "properties": { "id": null, "Name": "Suspension Bridge", "description": null, "timestamp": null, "begin": null, "end": null, "altitudeMode": null, "tessellate": -1, "extrude": 0, "visibility": -1, "drawOrder": null, "icon": null }, "geometry": { "type": "Point", "coordinates": [ 85.233350954563392, 28.09023471362875, 0.0 ] } },
{ "type": "Feature", "properties": { "id": null, "Name": "Suspension Bridge", "description": null, "timestamp": null, "begin": null, "end": null, "altitudeMode": null, "tessellate": -1, "extrude": 0, "visibility": -1, "drawOrder": null, "icon": null }, "geometry": { "type": "Point", "coordinates": [ 85.214725085417484, 28.077090202069609, 0.0 ] } },
{ "type": "Feature", "properties": { "id": null, "Name": "Bailey Bridge", "description": null, "timestamp": null, "begin": null, "end": null, "altitudeMode": null, "tessellate": -1, "extrude": 0, "visibility": -1, "drawOrder": null, "icon": null }, "geometry": { "type": "Point", "coordinates": [ 85.212841931294136, 28.076047979233081, 0.0 ] } },
{ "type": "Feature", "properties": { "id": null, "Name": "Bailey Bridge", "description": null, "timestamp": null, "begin": null, "end": null, "altitudeMode": null, "tessellate": -1, "extrude": 0, "visibility": -1, "drawOrder": null, "icon": null }, "geometry": { "type": "Point", "coordinates": [ 85.207571195228752, 28.07193257761967, 0.0 ] } },
{ "type": "Feature", "properties": { "id": null, "Name": "M Bridge", "description": null, "timestamp": null, "begin": null, "end": null, "altitudeMode": null, "tessellate": -1, "extrude": 0, "visibility": -1, "drawOrder": null, "icon": null }, "geometry": { "type": "Point", "coordinates": [ 85.205989943651673, 28.06543249942607, 0.0 ] } },
{ "type": "Feature", "properties": { "id": null, "Name": "Suspension Bridge", "description": null, "timestamp": null, "begin": null, "end": null, "altitudeMode": null, "tessellate": -1, "extrude": 0, "visibility": -1, "drawOrder": null, "icon": null }, "geometry": { "type": "Point", "coordinates": [ 85.193931905507981, 28.03865691020453, 0.0 ] } },
{ "type": "Feature", "properties": { "id": null, "Name": "Suspension Bridge", "description": null, "timestamp": null, "begin": null, "end": null, "altitudeMode": null, "tessellate": -1, "extrude": 0, "visibility": -1, "drawOrder": null, "icon": null }, "geometry": { "type": "Point", "coordinates": [ 85.183527122729103, 28.008972092119059, 0.0 ] } },
{ "type": "Feature", "properties": { "id": null, "Name": "Motorable Bridge", "description": "?", "timestamp": null, "begin": null, "end": null, "altitudeMode": null, "tessellate": -1, "extrude": 0, "visibility": -1, "drawOrder": null, "icon": null }, "geometry": { "type": "Point", "coordinates": [ 85.175605933606789, 27.982879161177699, 0.0 ] } },
{ "type": "Feature", "properties": { "id": null, "Name": "Suspension Bridge", "description": null, "timestamp": null, "begin": null, "end": null, "altitudeMode": null, "tessellate": -1, "extrude": 0, "visibility": -1, "drawOrder": null, "icon": null }, "geometry": { "type": "Point", "coordinates": [ 85.179807571716694, 27.981784366683229, 0.0 ] } },
{ "type": "Feature", "properties": { "id": null, "Name": "Suspension Bridge", "description": null, "timestamp": null, "begin": null, "end": null, "altitudeMode": null, "tessellate": -1, "extrude": 0, "visibility": -1, "drawOrder": null, "icon": null }, "geometry": { "type": "Point", "coordinates": [ 85.181382363442594, 27.97904525980854, 0.0 ] } },
{ "type": "Feature", "properties": { "id": null, "Name": "Suspension Bridge", "description": null, "timestamp": null, "begin": null, "end": null, "altitudeMode": null, "tessellate": -1, "extrude": 0, "visibility": -1, "drawOrder": null, "icon": null }, "geometry": { "type": "Point", "coordinates": [ 85.18426894663385, 27.972521183146078, 0.0 ] } },
{ "type": "Feature", "properties": { "id": null, "Name": "M Bridge", "description": "?", "timestamp": null, "begin": null, "end": null, "altitudeMode": null, "tessellate": -1, "extrude": 0, "visibility": -1, "drawOrder": null, "icon": null }, "geometry": { "type": "Point", "coordinates": [ 85.18587257176199, 27.974145028712119, 0.0 ] } },
{ "type": "Feature", "properties": { "id": null, "Name": "M Bridge", "description": null, "timestamp": null, "begin": null, "end": null, "altitudeMode": null, "tessellate": -1, "extrude": 0, "visibility": -1, "drawOrder": null, "icon": null }, "geometry": { "type": "Point", "coordinates": [ 85.172877630516808, 27.963611828739971, 0.0 ] } },
{ "type": "Feature", "properties": { "id": null, "Name": "Water Diversion Bridge", "description": null, "timestamp": null, "begin": null, "end": null, "altitudeMode": null, "tessellate": -1, "extrude": 0, "visibility": -1, "drawOrder": null, "icon": null }, "geometry": { "type": "Point", "coordinates": [ 85.163779953249858, 27.95587301433487, 0.0 ] } },
{ "type": "Feature", "properties": { "id": null, "Name": "Water Diversion Bridge", "description": null, "timestamp": null, "begin": null, "end": null, "altitudeMode": null, "tessellate": -1, "extrude": 0, "visibility": -1, "drawOrder": null, "icon": null }, "geometry": { "type": "Point", "coordinates": [ 85.163006277821765, 27.948555743816009, 0.0 ] } },
{ "type": "Feature", "properties": { "id": null, "Name": "Suspension Bridge", "description": null, "timestamp": null, "begin": null, "end": null, "altitudeMode": null, "tessellate": -1, "extrude": 0, "visibility": -1, "drawOrder": null, "icon": null }, "geometry": { "type": "Point", "coordinates": [ 85.158246862142562, 27.93935663785637, 0.0 ] } },
{ "type": "Feature", "properties": { "id": null, "Name": "Suspension Bridge", "description": null, "timestamp": null, "begin": null, "end": null, "altitudeMode": null, "tessellate": -1, "extrude": 0, "visibility": -1, "drawOrder": null, "icon": null }, "geometry": { "type": "Point", "coordinates": [ 85.149850786060711, 27.9275175727782, 0.0 ] } },
{ "type": "Feature", "properties": { "id": null, "Name": "Bailey Bridge", "description": null, "timestamp": null, "begin": null, "end": null, "altitudeMode": null, "tessellate": -1, "extrude": 0, "visibility": -1, "drawOrder": null, "icon": null }, "geometry": { "type": "Point", "coordinates": [ 85.149457820666967, 27.921746274110021, 0.0 ] } },
{ "type": "Feature", "properties": { "id": null, "Name": "M Bridge", "description": null, "timestamp": null, "begin": null, "end": null, "altitudeMode": null, "tessellate": -1, "extrude": 0, "visibility": -1, "drawOrder": null, "icon": null }, "geometry": { "type": "Point", "coordinates": [ 85.138518346325782, 27.909500276826659, 0.0 ] } },
{ "type": "Feature", "properties": { "id": null, "Name": "M Bridge", "description": null, "timestamp": null, "begin": null, "end": null, "altitudeMode": null, "tessellate": -1, "extrude": 0, "visibility": -1, "drawOrder": null, "icon": null }, "geometry": { "type": "Point", "coordinates": [ 85.136210434783024, 27.892333458008959, 0.0 ] } },
{ "type": "Feature", "properties": { "id": null, "Name": "Suspension Bridge", "description": null, "timestamp": null, "begin": null, "end": null, "altitudeMode": null, "tessellate": -1, "extrude": 0, "visibility": -1, "drawOrder": null, "icon": null }, "geometry": { "type": "Point", "coordinates": [ 85.108095559806856, 27.860557676307781, 0.0 ] } },
{ "type": "Feature", "properties": { "id": null, "Name": "Bailey Bridge", "description": null, "timestamp": null, "begin": null, "end": null, "altitudeMode": null, "tessellate": -1, "extrude": 0, "visibility": -1, "drawOrder": null, "icon": null }, "geometry": { "type": "Point", "coordinates": [ 85.358299534383775, 28.239946527533519, 0.0 ] } },
{ "type": "Feature", "properties": { "id": null, "Name": "Suspension Bridge", "description": null, "timestamp": null, "begin": null, "end": null, "altitudeMode": null, "tessellate": -1, "extrude": 0, "visibility": -1, "drawOrder": null, "icon": null }, "geometry": { "type": "Point", "coordinates": [ 85.354287882715198, 28.210666353626799, 0.0 ] } },
{ "type": "Feature", "properties": { "id": null, "Name": "Suspension Bridge", "description": null, "timestamp": null, "begin": null, "end": null, "altitudeMode": null, "tessellate": -1, "extrude": 0, "visibility": -1, "drawOrder": null, "icon": null }, "geometry": { "type": "Point", "coordinates": [ 85.354065182251276, 28.208898654654831, 0.0 ] } },
{ "type": "Feature", "properties": { "id": null, "Name": "M Bridge", "description": null, "timestamp": null, "begin": null, "end": null, "altitudeMode": null, "tessellate": -1, "extrude": 0, "visibility": -1, "drawOrder": null, "icon": null }, "geometry": { "type": "Point", "coordinates": [ 85.343375362449009, 28.182792668150292, 0.0 ] } },
{ "type": "Feature", "properties": { "id": null, "Name": "M Bridge", "description": null, "timestamp": null, "begin": null, "end": null, "altitudeMode": null, "tessellate": -1, "extrude": 0, "visibility": -1, "drawOrder": null, "icon": null }, "geometry": { "type": "Point", "coordinates": [ 85.342208061452965, 28.181678396202191, 0.0 ] } },
{ "type": "Feature", "properties": { "id": null, "Name": "Suspension Bridge", "description": null, "timestamp": null, "begin": null, "end": null, "altitudeMode": null, "tessellate": -1, "extrude": 0, "visibility": -1, "drawOrder": null, "icon": null }, "geometry": { "type": "Point", "coordinates": [ 85.342694292995816, 28.16598737490018, 0.0 ] } },
{ "type": "Feature", "properties": { "id": null, "Name": "Motarable Bridge", "description": null, "timestamp": null, "begin": null, "end": null, "altitudeMode": null, "tessellate": -1, "extrude": 0, "visibility": -1, "drawOrder": null, "icon": null }, "geometry": { "type": "Point", "coordinates": [ 85.339970555837724, 28.16433934859457, 0.0 ] } },
{ "type": "Feature", "properties": { "id": null, "Name": "Border Point Bridge", "description": null, "timestamp": null, "begin": null, "end": null, "altitudeMode": null, "tessellate": -1, "extrude": 0, "visibility": -1, "drawOrder": null, "icon": null }, "geometry": { "type": "Point", "coordinates": [ 85.377955966703851, 28.278970193302211, 0.0 ] } },
{ "type": "Feature", "properties": { "id": null, "Name": "M Bridge", "description": null, "timestamp": null, "begin": null, "end": null, "altitudeMode": null, "tessellate": -1, "extrude": 0, "visibility": -1, "drawOrder": null, "icon": null }, "geometry": { "type": "Point", "coordinates": [ 85.098796613525948, 27.859449641669801, 0.0 ] } },
{ "type": "Feature", "properties": { "id": null, "Name": "Suspension Bridge", "description": null, "timestamp": null, "begin": null, "end": null, "altitudeMode": null, "tessellate": -1, "extrude": 0, "visibility": -1, "drawOrder": null, "icon": null }, "geometry": { "type": "Point", "coordinates": [ 85.086815074021814, 27.856654005032681, 0.0 ] } },
{ "type": "Feature", "properties": { "id": null, "Name": "Suspension Bridge", "description": null, "timestamp": null, "begin": null, "end": null, "altitudeMode": null, "tessellate": -1, "extrude": 0, "visibility": -1, "drawOrder": null, "icon": null }, "geometry": { "type": "Point", "coordinates": [ 85.081613783259343, 27.856459833159139, 0.0 ] } },
{ "type": "Feature", "properties": { "id": null, "Name": "Suspension Bridge", "description": null, "timestamp": null, "begin": null, "end": null, "altitudeMode": null, "tessellate": -1, "extrude": 0, "visibility": -1, "drawOrder": null, "icon": null }, "geometry": { "type": "Point", "coordinates": [ 85.071668562234123, 27.853828470635079, 0.0 ] } },
{ "type": "Feature", "properties": { "id": null, "Name": "Motarable Bridge", "description": "?", "timestamp": null, "begin": null, "end": null, "altitudeMode": null, "tessellate": -1, "extrude": 0, "visibility": -1, "drawOrder": null, "icon": null }, "geometry": { "type": "Point", "coordinates": [ 85.061979371687144, 27.85945155538829, 0.0 ] } },
{ "type": "Feature", "properties": { "id": null, "Name": "Suspension Bridge", "description": null, "timestamp": null, "begin": null, "end": null, "altitudeMode": null, "tessellate": -1, "extrude": 0, "visibility": -1, "drawOrder": null, "icon": null }, "geometry": { "type": "Point", "coordinates": [ 85.057997269249455, 27.857831356945319, 0.0 ] } },
{ "type": "Feature", "properties": { "id": null, "Name": "M Bridge", "description": null, "timestamp": null, "begin": null, "end": null, "altitudeMode": null, "tessellate": -1, "extrude": 0, "visibility": -1, "drawOrder": null, "icon": null }, "geometry": { "type": "Point", "coordinates": [ 85.041321146553202, 27.856035458407131, 0.0 ] } },
{ "type": "Feature", "properties": { "id": null, "Name": "Suspension Bridge", "description": null, "timestamp": null, "begin": null, "end": null, "altitudeMode": null, "tessellate": -1, "extrude": 0, "visibility": -1, "drawOrder": null, "icon": null }, "geometry": { "type": "Point", "coordinates": [ 85.042960420059472, 27.856416090751249, 0.0 ] } },
{ "type": "Feature", "properties": { "id": null, "Name": "Suspension Bridge", "description": null, "timestamp": null, "begin": null, "end": null, "altitudeMode": null, "tessellate": -1, "extrude": 0, "visibility": -1, "drawOrder": null, "icon": null }, "geometry": { "type": "Point", "coordinates": [ 85.027256401526685, 27.84815553665721, 0.0 ] } },
{ "type": "Feature", "properties": { "id": null, "Name": "Suspension Bridge", "description": null, "timestamp": null, "begin": null, "end": null, "altitudeMode": null, "tessellate": -1, "extrude": 0, "visibility": -1, "drawOrder": null, "icon": null }, "geometry": { "type": "Point", "coordinates": [ 85.022413893531876, 27.835668023573259, 0.0 ] } },
{ "type": "Feature", "properties": { "id": null, "Name": "M Bridge", "description": null, "timestamp": null, "begin": null, "end": null, "altitudeMode": null, "tessellate": -1, "extrude": 0, "visibility": -1, "drawOrder": null, "icon": null }, "geometry": { "type": "Point", "coordinates": [ 85.022195927709575, 27.832592463441379, 0.0 ] } },
{ "type": "Feature", "properties": { "id": null, "Name": "Suspension Bridge", "description": null, "timestamp": null, "begin": null, "end": null, "altitudeMode": null, "tessellate": -1, "extrude": 0, "visibility": -1, "drawOrder": null, "icon": null }, "geometry": { "type": "Point", "coordinates": [ 85.021697010620016, 27.831477282898909, 0.0 ] } },
{ "type": "Feature", "properties": { "id": null, "Name": "Suspension Bridge", "description": null, "timestamp": null, "begin": null, "end": null, "altitudeMode": null, "tessellate": -1, "extrude": 0, "visibility": -1, "drawOrder": null, "icon": null }, "geometry": { "type": "Point", "coordinates": [ 85.016884242017696, 27.822333214212801, 0.0 ] } },
{ "type": "Feature", "properties": { "id": null, "Name": "Suspension Bridge", "description": null, "timestamp": null, "begin": null, "end": null, "altitudeMode": null, "tessellate": -1, "extrude": 0, "visibility": -1, "drawOrder": null, "icon": null }, "geometry": { "type": "Point", "coordinates": [ 85.01306183667235, 27.809538714465681, 0.0 ] } },
{ "type": "Feature", "properties": { "id": null, "Name": "M Bridge", "description": "Not Damaged\n", "timestamp": null, "begin": null, "end": null, "altitudeMode": null, "tessellate": -1, "extrude": 0, "visibility": -1, "drawOrder": null, "icon": null }, "geometry": { "type": "Point", "coordinates": [ 85.002983115576825, 27.802396603560609, 0.0 ] } },
{ "type": "Feature", "properties": { "id": null, "Name": "Suspension Bridge", "description": null, "timestamp": null, "begin": null, "end": null, "altitudeMode": null, "tessellate": -1, "extrude": 0, "visibility": -1, "drawOrder": null, "icon": null }, "geometry": { "type": "Point", "coordinates": [ 85.001292814690558, 27.801826614341309, 0.0 ] } },
{ "type": "Feature", "properties": { "id": null, "Name": "Furke Khola Bridge(Motarable)", "description": "Washed away", "timestamp": null, "begin": null, "end": null, "altitudeMode": null, "tessellate": -1, "extrude": 0, "visibility": -1, "drawOrder": null, "icon": null }, "geometry": { "type": "Point", "coordinates": [ 84.843963486271321, 27.80265034686208, 0.0 ] } }
]
}
