{
"type": "FeatureCollection",
"name": "Bridge Polygon",
"crs": { "type": "name", "properties": { "name": "urn:ogc:def:crs:OGC:1.3:CRS84" } },
"features": [
{ "type": "Feature", "properties": { "Id": 0, "Remarks": "Suspension Bridge", "Width": 2.0 }, "geometry": { "type": "MultiPolygon", "coordinates": [ [ [ [ 85.361417232010595, 28.226250800867231 ], [ 85.361416538204438, 28.226232763093115 ], [ 85.36064773877294, 28.226255958274475 ], [ 85.360648432449523, 28.226273996047038 ], [ 85.361417232010595, 28.226250800867231 ] ] ] ] } },
{ "type": "Feature", "properties": { "Id": 0, "Remarks": "Suspension Bridge", "Width": 2.0 }, "geometry": { "type": "MultiPolygon", "coordinates": [ [ [ [ 85.355045834145386, 28.208890578040069 ], [ 85.353775038495485, 28.208756602040879 ], [ 85.353772630601654, 28.208774523781877 ], [ 85.355043426458408, 28.208908499811901 ], [ 85.355045834145386, 28.208890578040069 ] ] ] ] } },
{ "type": "Feature", "properties": { "Id": 0, "Remarks": "Suspension Bridge", "Width": 2.0 }, "geometry": { "type": "MultiPolygon", "coordinates": [ [ [ [ 85.307840899382157, 28.140359748517696 ], [ 85.307824681958792, 28.140348836078694 ], [ 85.306762563552567, 28.141589063153464 ], [ 85.306778781041274, 28.141599975719735 ], [ 85.307840899382157, 28.140359748517696 ] ] ] ] } },
{ "type": "Feature", "properties": { "Id": 0, "Remarks": "Suspension Bridge", "Width": 2.0 }, "geometry": { "type": "MultiPolygon", "coordinates": [ [ [ [ 85.19479401591957, 28.038617317120202 ], [ 85.194793463172843, 28.03859927630813 ], [ 85.193094841434885, 28.038640236496651 ], [ 85.193095393897451, 28.038658277302261 ], [ 85.19479401591957, 28.038617317120202 ] ] ] ] } },
{ "type": "Feature", "properties": { "Id": 0, "Remarks": "Suspension Bridge", "Width": 2.0 }, "geometry": { "type": "MultiPolygon", "coordinates": [ [ [ [ 85.179795398667608, 27.982516787693203 ], [ 85.179757714009526, 27.981364240246105 ], [ 85.17973739289171, 27.981364763876623 ], [ 85.179775077333076, 27.982517311319089 ], [ 85.179795398667608, 27.982516787693203 ] ] ] ] } },
{ "type": "Feature", "properties": { "Id": 0, "Remarks": "Suspension Bridge", "Width": 2.0 }, "geometry": { "type": "MultiPolygon", "coordinates": [ [ [ [ 85.182038722615843, 27.979348329596831 ], [ 85.180707455861324, 27.978799009201659 ], [ 85.180698887128926, 27.978815375213195 ], [ 85.18203015403121, 27.979364695697569 ], [ 85.182038722615843, 27.979348329596831 ] ] ] ] } },
{ "type": "Feature", "properties": { "Id": 0, "Remarks": "Suspension Bridge", "Width": 2.0 }, "geometry": { "type": "MultiPolygon", "coordinates": [ [ [ [ 85.185117326183558, 27.972455910165859 ], [ 85.185115305280746, 27.972437952005016 ], [ 85.183872873176625, 27.972548151448702 ], [ 85.183874893873408, 27.972566109617958 ], [ 85.185117326183558, 27.972455910165859 ] ] ] ] } },
{ "type": "Feature", "properties": { "Id": 0, "Remarks": "Suspension Bridge", "Width": 2.0 }, "geometry": { "type": "MultiPolygon", "coordinates": [ [ [ [ 85.17385069072678, 27.963631552322912 ], [ 85.173835215199404, 27.963619851492801 ], [ 85.173283710425821, 27.964194883920431 ], [ 85.173299185968347, 27.964206584812754 ], [ 85.17385069072678, 27.963631552322912 ] ] ] ] } },
{ "type": "Feature", "properties": { "Id": 0, "Remarks": "Suspension Bridge", "Width": 2.0 }, "geometry": { "type": "MultiPolygon", "coordinates": [ [ [ [ 85.158722372688672, 27.939150070148607 ], [ 85.158711297621906, 27.939134938413027 ], [ 85.157746756946068, 27.939691726231885 ], [ 85.157757831925736, 27.939706858040232 ], [ 85.158722372688672, 27.939150070148607 ] ] ] ] } },
{ "type": "Feature", "properties": { "Id": 0, "Remarks": "Suspension Bridge", "Width": 2.0 }, "geometry": { "type": "MultiPolygon", "coordinates": [ [ [ [ 85.150349013890022, 27.927742703160973 ], [ 85.149403084434098, 27.927210938802936 ], [ 85.149392217466357, 27.927226188339809 ], [ 85.150338146992809, 27.927757952775249 ], [ 85.150349013890022, 27.927742703160973 ] ] ] ] } },
{ "type": "Feature", "properties": { "Id": 0, "Remarks": "Suspension Bridge", "Width": 2.0 }, "geometry": { "type": "MultiPolygon", "coordinates": [ [ [ [ 85.10860879696169, 27.860169321971711 ], [ 85.108595194677321, 27.860155922021111 ], [ 85.107555100718571, 27.860989858159041 ], [ 85.10756870296629, 27.861003258209578 ], [ 85.10860879696169, 27.860169321971711 ] ] ] ] } },
{ "type": "Feature", "properties": { "Id": 0, "Remarks": "Suspension Bridge", "Width": 2.0 }, "geometry": { "type": "MultiPolygon", "coordinates": [ [ [ [ 85.087037443147821, 27.855777470901689 ], [ 85.087017429527961, 27.855774422761002 ], [ 85.086766689420216, 27.857074893984258 ], [ 85.086786703267478, 27.857077942172381 ], [ 85.087037443147821, 27.855777470901689 ] ] ] ] } },
{ "type": "Feature", "properties": { "Id": 0, "Remarks": "Suspension Bridge", "Width": 2.0 }, "geometry": { "type": "MultiPolygon", "coordinates": [ [ [ [ 85.082067131202152, 27.855685552596196 ], [ 85.082048867493015, 27.855677665851783 ], [ 85.081018604055814, 27.857562286250083 ], [ 85.081036867989184, 27.857570173141049 ], [ 85.082067131202152, 27.855685552596196 ] ] ] ] } },
{ "type": "Feature", "properties": { "Id": 0, "Remarks": "Suspension Bridge", "Width": 2.0 }, "geometry": { "type": "MultiPolygon", "coordinates": [ [ [ [ 85.072450039578001, 27.854985738217696 ], [ 85.07113016406889, 27.853106318076652 ], [ 85.071112939351806, 27.853115873872355 ], [ 85.07243281465847, 27.854995294166741 ], [ 85.072450039578001, 27.854985738217696 ] ] ] ] } },
{ "type": "Feature", "properties": { "Id": 0, "Remarks": "Suspension Bridge", "Width": 2.0 }, "geometry": { "type": "MultiPolygon", "coordinates": [ [ [ [ 85.058902967678691, 27.856654012982133 ], [ 85.058886362930579, 27.856643625877432 ], [ 85.056962855918599, 27.859072496535315 ], [ 85.056979460823925, 27.85908288387775 ], [ 85.058902967678691, 27.856654012982133 ] ] ] ] } },
{ "type": "Feature", "properties": { "Id": 0, "Remarks": "Suspension Bridge", "Width": 2.0 }, "geometry": { "type": "MultiPolygon", "coordinates": [ [ [ [ 85.04290014453575, 27.857144170086599 ], [ 85.042893037121573, 27.85595407465923 ], [ 85.042872732448572, 27.855954170451646 ], [ 85.042879839640705, 27.857144265868726 ], [ 85.04290014453575, 27.857144170086599 ] ] ] ] } },
{ "type": "Feature", "properties": { "Id": 0, "Remarks": "Suspension Bridge", "Width": 2.0 }, "geometry": { "type": "MultiPolygon", "coordinates": [ [ [ [ 85.028206681337778, 27.847231043006257 ], [ 85.02819131536431, 27.847219247446215 ], [ 85.026638434542321, 27.848817451899475 ], [ 85.02665380055052, 27.848829247632967 ], [ 85.028206681337778, 27.847231043006257 ] ] ] ] } },
{ "type": "Feature", "properties": { "Id": 0, "Remarks": "Suspension Bridge", "Width": 2.0 }, "geometry": { "type": "MultiPolygon", "coordinates": [ [ [ [ 85.02413283567067, 27.835237556150776 ], [ 85.024126113836715, 27.835220527529884 ], [ 85.02078910261271, 27.836261414369126 ], [ 85.020795823968186, 27.836278443126616 ], [ 85.02413283567067, 27.835237556150776 ] ] ] ] } },
{ "type": "Feature", "properties": { "Id": 0, "Remarks": "Suspension Bridge", "Width": 2.0 }, "geometry": { "type": "MultiPolygon", "coordinates": [ [ [ [ 85.022660987267017, 27.830911387419654 ], [ 85.022650321407085, 27.83089603248796 ], [ 85.020133187579063, 27.832277800381078 ], [ 85.020143853194142, 27.832293155493218 ], [ 85.022660987267017, 27.830911387419654 ] ] ] ] } },
{ "type": "Feature", "properties": { "Id": 0, "Remarks": "Suspension Bridge", "Width": 2.0 }, "geometry": { "type": "MultiPolygon", "coordinates": [ [ [ [ 85.019176944663499, 27.822210064307637 ], [ 85.019175453951661, 27.822192066460786 ], [ 85.015210478153165, 27.82245159266548 ], [ 85.015211968208433, 27.822469590520839 ], [ 85.019176944663499, 27.822210064307637 ] ] ] ] } },
{ "type": "Feature", "properties": { "Id": 0, "Remarks": "Suspension Bridge", "Width": 2.0 }, "geometry": { "type": "MultiPolygon", "coordinates": [ [ [ [ 85.013771897561753, 27.810309103685029 ], [ 85.012684003218055, 27.808968160901799 ], [ 85.012667543050384, 27.808978718750964 ], [ 85.013755437279997, 27.810319661656965 ], [ 85.013771897561753, 27.810309103685029 ] ] ] ] } },
{ "type": "Feature", "properties": { "Id": 0, "Remarks": "Suspension Bridge", "Width": 2.0 }, "geometry": { "type": "MultiPolygon", "coordinates": [ [ [ [ 85.001338195490575, 27.80265302550557 ], [ 85.001177832959996, 27.800463155717544 ], [ 85.001157581626018, 27.800464328379384 ], [ 85.001317943748859, 27.802654198169446 ], [ 85.001338195490575, 27.80265302550557 ] ] ] ] } },
{ "type": "Feature", "properties": { "Id": 0, "Remarks": "Suspension Bridge", "Width": 2.0 }, "geometry": { "type": "MultiPolygon", "coordinates": [ [ [ [ 84.991741880826794, 27.803863858211415 ], [ 84.989998238705752, 27.803458706442402 ], [ 84.989993107681016, 27.803476166519779 ], [ 84.991736750053377, 27.803881318366344 ], [ 84.991741880826794, 27.803863858211415 ] ] ] ] } },
{ "type": "Feature", "properties": { "Id": 0, "Remarks": "Suspension Bridge", "Width": 2.0 }, "geometry": { "type": "MultiPolygon", "coordinates": [ [ [ [ 84.975281370639948, 27.802123396878354 ], [ 84.974866689665845, 27.800686813994826 ], [ 84.974847032883119, 27.800691300711168 ], [ 84.975261713607608, 27.802127883640093 ], [ 84.975281370639948, 27.802123396878354 ] ] ] ] } },
{ "type": "Feature", "properties": { "Id": 0, "Remarks": "Suspension Bridge", "Width": 2.0 }, "geometry": { "type": "MultiPolygon", "coordinates": [ [ [ [ 84.97039132474697, 27.807387232142815 ], [ 84.968785580249289, 27.807224366330885 ], [ 84.968783280018556, 27.807242296226836 ], [ 84.970389024773098, 27.807405162078989 ], [ 84.97039132474697, 27.807387232142815 ] ] ] ] } },
{ "type": "Feature", "properties": { "Id": 0, "Remarks": "Suspension Bridge", "Width": 2.0 }, "geometry": { "type": "MultiPolygon", "coordinates": [ [ [ [ 84.96237092422048, 27.817210684180818 ], [ 84.961358540683904, 27.815765243687903 ], [ 84.961341311540835, 27.81577478302588 ], [ 84.962353694920566, 27.817220223635971 ], [ 84.96237092422048, 27.817210684180818 ] ] ] ] } },
{ "type": "Feature", "properties": { "Id": 0, "Remarks": "Suspension Bridge", "Width": 2.0 }, "geometry": { "type": "MultiPolygon", "coordinates": [ [ [ [ 84.955460193318743, 27.815978709671423 ], [ 84.95544296542387, 27.815969168604173 ], [ 84.954389644785778, 27.817472666581864 ], [ 84.954406872808207, 27.817482207786423 ], [ 84.955460193318743, 27.815978709671423 ] ] ] ] } },
{ "type": "Feature", "properties": { "Id": 0, "Remarks": "Suspension Bridge", "Width": 2.0 }, "geometry": { "type": "MultiPolygon", "coordinates": [ [ [ [ 84.945441334416145, 27.811257276696171 ], [ 84.945421579358637, 27.811253139275088 ], [ 84.944639908495446, 27.814203746315886 ], [ 84.944659664042533, 27.814207883874353 ], [ 84.945441334416145, 27.811257276696171 ] ] ] ] } },
{ "type": "Feature", "properties": { "Id": 0, "Remarks": "Suspension Bridge", "Width": 2.0 }, "geometry": { "type": "MultiPolygon", "coordinates": [ [ [ [ 84.942128367361036, 27.806847395204443 ], [ 84.942124116749483, 27.806829749504629 ], [ 84.939966616561676, 27.807240645704166 ], [ 84.93997086683126, 27.807258291451539 ], [ 84.942128367361036, 27.806847395204443 ] ] ] ] } },
{ "type": "Feature", "properties": { "Id": 0, "Remarks": "Suspension Bridge", "Width": 2.0 }, "geometry": { "type": "MultiPolygon", "coordinates": [ [ [ [ 84.904140803989748, 27.808216073758004 ], [ 84.904024825365539, 27.806100263504614 ], [ 84.904004555123521, 27.806101142022662 ], [ 84.904120533353151, 27.808216952271348 ], [ 84.904140803989748, 27.808216073758004 ] ] ] ] } },
{ "type": "Feature", "properties": { "Id": 0, "Remarks": "Suspension Bridge", "Width": 2.0 }, "geometry": { "type": "MultiPolygon", "coordinates": [ [ [ [ 84.880936818745482, 27.808827629941863 ], [ 84.880917873106284, 27.808821160785527 ], [ 84.880217244022532, 27.810443398593545 ], [ 84.88023618988845, 27.810449867857987 ], [ 84.880936818745482, 27.808827629941863 ] ] ] ] } },
{ "type": "Feature", "properties": { "Id": 0, "Remarks": "Suspension Bridge", "Width": 2.0 }, "geometry": { "type": "MultiPolygon", "coordinates": [ [ [ [ 84.872079982508822, 27.802324596802638 ], [ 84.872061597024071, 27.802316958198656 ], [ 84.871263239993297, 27.803836371359793 ], [ 84.871281625663229, 27.803844010079718 ], [ 84.872079982508822, 27.802324596802638 ] ] ] ] } },
{ "type": "Feature", "properties": { "Id": 0, "Remarks": "Suspension Bridge", "Width": 2.0 }, "geometry": { "type": "MultiPolygon", "coordinates": [ [ [ [ 84.854212188795131, 27.808979961072435 ], [ 84.853945657055462, 27.807330181298731 ], [ 84.853925569242236, 27.807332747168637 ], [ 84.854192100678844, 27.808982526963892 ], [ 84.854212188795131, 27.808979961072435 ] ] ] ] } },
{ "type": "Feature", "properties": { "Id": 0, "Remarks": "Suspension Bridge", "Width": 2.0 }, "geometry": { "type": "MultiPolygon", "coordinates": [ [ [ [ 84.835982563264082, 27.810270166928774 ], [ 84.834759096017876, 27.810225665745808 ], [ 84.834758266427158, 27.81024369561808 ], [ 84.835981733874235, 27.810288196819741 ], [ 84.835982563264082, 27.810270166928774 ] ] ] ] } },
{ "type": "Feature", "properties": { "Id": 0, "Remarks": "Suspension Bridge", "Width": 2.0 }, "geometry": { "type": "MultiPolygon", "coordinates": [ [ [ [ 84.823250234226265, 27.811285307522489 ], [ 84.821262777397223, 27.811000782893164 ], [ 84.821259551244808, 27.811018598257107 ], [ 84.823247008383362, 27.811303122950221 ], [ 84.823250234226265, 27.811285307522489 ] ] ] ] } },
{ "type": "Feature", "properties": { "Id": 0, "Remarks": "Suspension Bridge", "Width": 2.0 }, "geometry": { "type": "MultiPolygon", "coordinates": [ [ [ [ 84.80993052421401, 27.817672386845189 ], [ 84.808673197108007, 27.816475188900508 ], [ 84.808658363252732, 27.816487504066927 ], [ 84.809915690318277, 27.817684702143605 ], [ 84.80993052421401, 27.817672386845189 ] ] ] ] } },
{ "type": "Feature", "properties": { "Id": 0, "Remarks": "Suspension Bridge", "Width": 2.0 }, "geometry": { "type": "MultiPolygon", "coordinates": [ [ [ [ 84.794614115890013, 27.812666976012427 ], [ 84.794596615009226, 27.812657839849539 ], [ 84.793876984931941, 27.813747626008155 ], [ 84.793894485914024, 27.813756762267584 ], [ 84.794614115890013, 27.812666976012427 ] ] ] ] } },
{ "type": "Feature", "properties": { "Id": 0, "Remarks": "Suspension Bridge", "Width": 2.0 }, "geometry": { "type": "MultiPolygon", "coordinates": [ [ [ [ 84.773924341115958, 27.809376913686737 ], [ 84.77326523829457, 27.808189056761289 ], [ 84.77324703939037, 27.808197040508404 ], [ 84.773906142048986, 27.8093848975108 ], [ 84.773924341115958, 27.809376913686737 ] ] ] ] } },
{ "type": "Feature", "properties": { "Id": 0, "Remarks": "Suspension Bridge", "Width": 2.0 }, "geometry": { "type": "MultiPolygon", "coordinates": [ [ [ [ 84.756982827440666, 27.80850715048371 ], [ 84.756973427409093, 27.808491158829952 ], [ 84.75510489167867, 27.809359523785439 ], [ 84.75511429149222, 27.809375515552986 ], [ 84.756982827440666, 27.80850715048371 ] ] ] ] } },
{ "type": "Feature", "properties": { "Id": 0, "Remarks": "Suspension Bridge", "Width": 2.0 }, "geometry": { "type": "MultiPolygon", "coordinates": [ [ [ [ 84.750011556129564, 27.805776043161785 ], [ 84.749695580546472, 27.804530385073377 ], [ 84.749675785457967, 27.804534355294422 ], [ 84.749991760819796, 27.805780013414935 ], [ 84.750011556129564, 27.805776043161785 ] ] ] ] } },
{ "type": "Feature", "properties": { "Id": 0, "Remarks": "Suspension Bridge", "Width": 2.0 }, "geometry": { "type": "MultiPolygon", "coordinates": [ [ [ [ 84.738395893435325, 27.802785923496376 ], [ 84.73838542685769, 27.802770464994413 ], [ 84.736917150377494, 27.803556530397863 ], [ 84.736927616805858, 27.803571989001782 ], [ 84.738395893435325, 27.802785923496376 ] ] ] ] } },
{ "type": "Feature", "properties": { "Id": 0, "Remarks": "Suspension Bridge", "Width": 2.0 }, "geometry": { "type": "MultiPolygon", "coordinates": [ [ [ [ 84.729677627370435, 27.797627718215018 ], [ 84.727906823353393, 27.796535307638795 ], [ 84.727895257725521, 27.796550133394195 ], [ 84.729666061845052, 27.797642544124088 ], [ 84.729677627370435, 27.797627718215018 ] ] ] ] } },
{ "type": "Feature", "properties": { "Id": 0, "Remarks": "Suspension Bridge", "Width": 2.0 }, "geometry": { "type": "MultiPolygon", "coordinates": [ [ [ [ 84.715775471393357, 27.800966827199751 ], [ 84.715757394759663, 27.800958630085514 ], [ 84.714944827878966, 27.80237554791599 ], [ 84.714962904670287, 27.802383745145484 ], [ 84.715775471393357, 27.800966827199751 ] ] ] ] } },
{ "type": "Feature", "properties": { "Id": 0, "Remarks": "Suspension Bridge", "Width": 2.0 }, "geometry": { "type": "MultiPolygon", "coordinates": [ [ [ [ 84.700093084400692, 27.808902469355175 ], [ 84.699614648315858, 27.807286932529166 ], [ 84.699595024920356, 27.807291527260102 ], [ 84.700073460724326, 27.808907064136886 ], [ 84.700093084400692, 27.808902469355175 ] ] ] ] } },
{ "type": "Feature", "properties": { "Id": 0, "Remarks": "Suspension Bridge", "Width": 2.0 }, "geometry": { "type": "MultiPolygon", "coordinates": [ [ [ [ 84.690736282479591, 27.810443017887771 ], [ 84.690463944315667, 27.809185325276257 ], [ 84.690444017707321, 27.80918873667477 ], [ 84.690716355643957, 27.810446429311707 ], [ 84.690736282479591, 27.810443017887771 ] ] ] ] } },
{ "type": "Feature", "properties": { "Id": 0, "Remarks": "Suspension Bridge", "Width": 2.0 }, "geometry": { "type": "MultiPolygon", "coordinates": [ [ [ [ 84.677490306744147, 27.816014361691551 ], [ 84.676795709741484, 27.815205226354855 ], [ 84.676779578085984, 27.815216173666517 ], [ 84.677474175026205, 27.816025309080292 ], [ 84.677490306744147, 27.816014361691551 ] ] ] ] } },
{ "type": "Feature", "properties": { "Id": 0, "Remarks": "Suspension Bridge", "Width": 2.0 }, "geometry": { "type": "MultiPolygon", "coordinates": [ [ [ [ 84.668347172612513, 27.821798696978838 ], [ 84.668347298069932, 27.821780654013878 ], [ 84.667236926701634, 27.821774546817728 ], [ 84.667236801060554, 27.821792589770546 ], [ 84.668347172612513, 27.821798696978838 ] ] ] ] } },
{ "type": "Feature", "properties": { "Id": 0, "Remarks": "Suspension Bridge", "Width": 2.0 }, "geometry": { "type": "MultiPolygon", "coordinates": [ [ [ [ 84.652051802183294, 27.853042339138938 ], [ 84.651889370861426, 27.851988985801597 ], [ 84.651869258755369, 27.851991435841285 ], [ 84.652031689882577, 27.853044789190321 ], [ 84.652051802183294, 27.853042339138938 ] ] ] ] } },
{ "type": "Feature", "properties": { "Id": 0, "Remarks": "Suspension Bridge", "Width": 2.0 }, "geometry": { "type": "MultiPolygon", "coordinates": [ [ [ [ 84.642220209837433, 27.85986392012067 ], [ 84.642200058800128, 27.859861727580768 ], [ 84.642081772531057, 27.860720422858936 ], [ 84.642101923722322, 27.860722615425551 ], [ 84.642220209837433, 27.85986392012067 ] ] ] ] } },
{ "type": "Feature", "properties": { "Id": 0, "Remarks": "Suspension Bridge", "Width": 2.0 }, "geometry": { "type": "MultiPolygon", "coordinates": [ [ [ [ 84.639899146303335, 27.859190804919603 ], [ 84.639878886108065, 27.859189656852486 ], [ 84.639756446440245, 27.860896338008654 ], [ 84.639776706949164, 27.860897486112925 ], [ 84.639899146303335, 27.859190804919603 ] ] ] ] } },
{ "type": "Feature", "properties": { "Id": 0, "Remarks": "Suspension Bridge", "Width": 2.0 }, "geometry": { "type": "MultiPolygon", "coordinates": [ [ [ [ 84.632495115405504, 27.870198170957558 ], [ 84.631702067342218, 27.868678298965882 ], [ 84.631683648159296, 27.868685889017733 ], [ 84.632476696004019, 27.870205761101438 ], [ 84.632495115405504, 27.870198170957558 ] ] ] ] } },
{ "type": "Feature", "properties": { "Id": 0, "Remarks": "Suspension Bridge", "Width": 2.0 }, "geometry": { "type": "MultiPolygon", "coordinates": [ [ [ [ 84.608515313361195, 27.870624362584859 ], [ 84.608495129267467, 27.870622411886412 ], [ 84.608269447907247, 27.872466480447432 ], [ 84.608289632333964, 27.872468431199533 ], [ 84.608515313361195, 27.870624362584859 ] ] ] ] } },
{ "type": "Feature", "properties": { "Id": 0, "Remarks": "Suspension Bridge", "Width": 2.0 }, "geometry": { "type": "MultiPolygon", "coordinates": [ [ [ [ 84.59352738159555, 27.879064884813207 ], [ 84.592384997306695, 27.877905771514648 ], [ 84.59236972256177, 27.87791765838573 ], [ 84.593512106792573, 27.879076771806826 ], [ 84.59352738159555, 27.879064884813207 ] ] ] ] } },
{ "type": "Feature", "properties": { "Id": 0, "Remarks": "Suspension Bridge", "Width": 2.0 }, "geometry": { "type": "MultiPolygon", "coordinates": [ [ [ [ 84.561350526426551, 27.857532565873559 ], [ 84.561330243908643, 27.857531814930429 ], [ 84.561275708098179, 27.858695312649882 ], [ 84.561295990831297, 27.858696063614623 ], [ 84.561350526426551, 27.857532565873559 ] ] ] ] } },
{ "type": "Feature", "properties": { "Id": 0, "Remarks": "Suspension Bridge", "Width": 2.0 }, "geometry": { "type": "MultiPolygon", "coordinates": [ [ [ [ 85.354760974913873, 28.210476799088191 ], [ 85.354755820045852, 28.210459338066688 ], [ 85.353739969622765, 28.210694663792538 ], [ 85.353745124332676, 28.210712124845308 ], [ 85.354760974913873, 28.210476799088191 ] ] ] ] } },
{ "type": "Feature", "properties": { "Id": 0, "Remarks": "Suspension Bridge", "Width": 2.0 }, "geometry": { "type": "MultiPolygon", "coordinates": [ [ [ [ 85.343037643746328, 28.165654126442238 ], [ 85.343027405037986, 28.165638524847527 ], [ 85.342208689149118, 28.16606048628093 ], [ 85.342218927772194, 28.166076087932641 ], [ 85.343037643746328, 28.165654126442238 ] ] ] ] } },
{ "type": "Feature", "properties": { "Id": 0, "Remarks": "Suspension Bridge", "Width": 2.0 }, "geometry": { "type": "MultiPolygon", "coordinates": [ [ [ [ 85.2896354140195, 28.119399630375312 ], [ 85.289619090911202, 28.119388846429182 ], [ 85.288333739513405, 28.120918120810494 ], [ 85.28835006270765, 28.120928904912017 ], [ 85.2896354140195, 28.119399630375312 ] ] ] ] } },
{ "type": "Feature", "properties": { "Id": 0, "Remarks": "Suspension Bridge", "Width": 2.0 }, "geometry": { "type": "MultiPolygon", "coordinates": [ [ [ [ 85.281451062798823, 28.112760977405454 ], [ 85.281436758038993, 28.112748137498453 ], [ 85.2809317379471, 28.113190446256315 ], [ 85.280946042699554, 28.113203286215182 ], [ 85.281451062798823, 28.112760977405454 ] ] ] ] } },
{ "type": "Feature", "properties": { "Id": 0, "Remarks": "Suspension Bridge", "Width": 2.0 }, "geometry": { "type": "MultiPolygon", "coordinates": [ [ [ [ 85.294224556509661, 28.12349575187136 ], [ 85.294209712863619, 28.123483400668587 ], [ 85.293326817013167, 28.124317367723172 ], [ 85.293341660662222, 28.124329719020732 ], [ 85.294224556509661, 28.12349575187136 ] ] ] ] } },
{ "type": "Feature", "properties": { "Id": 0, "Remarks": "Suspension Bridge", "Width": 2.0 }, "geometry": { "type": "MultiPolygon", "coordinates": [ [ [ [ 85.233585333669211, 28.089629133541475 ], [ 85.233566281221059, 28.089622791064958 ], [ 85.233257055302374, 28.090353348740898 ], [ 85.233276107856426, 28.090359691264783 ], [ 85.233585333669211, 28.089629133541475 ] ] ] ] } },
{ "type": "Feature", "properties": { "Id": 0, "Remarks": "Suspension Bridge", "Width": 2.0 }, "geometry": { "type": "MultiPolygon", "coordinates": [ [ [ [ 85.215202529374764, 28.076513985262043 ], [ 85.215185660899095, 28.076503892302632 ], [ 85.214531851670145, 28.077363501885561 ], [ 85.214548720209677, 28.077373594927543 ], [ 85.215202529374764, 28.076513985262043 ] ] ] ] } },
{ "type": "Feature", "properties": { "Id": 0, "Remarks": "Suspension Bridge", "Width": 2.0 }, "geometry": { "type": "MultiPolygon", "coordinates": [ [ [ [ 85.213202062757162, 28.075594071052979 ], [ 85.213185229952714, 28.075583931564935 ], [ 85.212689987104184, 28.076230716906515 ], [ 85.212706819955926, 28.076240856456909 ], [ 85.213202062757162, 28.075594071052979 ] ] ] ] } },
{ "type": "Feature", "properties": { "Id": 0, "Remarks": "Suspension Bridge", "Width": 2.0 }, "geometry": { "type": "MultiPolygon", "coordinates": [ [ [ [ 85.207660849345302, 28.072009704269231 ], [ 85.20725682415015, 28.071690873856973 ], [ 85.207243299661556, 28.071704357405615 ], [ 85.207647324862577, 28.072023187857607 ], [ 85.207660849345302, 28.072009704269231 ] ] ] ] } },
{ "type": "Feature", "properties": { "Id": 0, "Remarks": "Suspension Bridge", "Width": 2.0 }, "geometry": { "type": "MultiPolygon", "coordinates": [ [ [ [ 85.184095580964254, 28.008985578758686 ], [ 85.184094714135838, 28.008967547695807 ], [ 85.183124290899784, 28.009004291211347 ], [ 85.183125157566039, 28.009022322272703 ], [ 85.184095580964254, 28.008985578758686 ] ] ] ] } },
{ "type": "Feature", "properties": { "Id": 0, "Remarks": "Water Diversion Bridge", "Width": 2.0 }, "geometry": { "type": "MultiPolygon", "coordinates": [ [ [ [ 85.163844334460393, 27.948701711871532 ], [ 85.162222063327604, 27.948453707479274 ], [ 85.162218615179611, 27.948471493271708 ], [ 85.163840886565609, 27.948719497716318 ], [ 85.163844334460393, 27.948701711871532 ] ] ] ] } },
{ "type": "Feature", "properties": { "Id": 0, "Remarks": "RCC Bridge", "Width": 10.0 }, "geometry": { "type": "MultiPolygon", "coordinates": [ [ [ [ 85.358776597019983, 28.23985192230603 ], [ 85.358774532145375, 28.239761699908048 ], [ 85.357982995220027, 28.239775904842958 ], [ 85.357985059427236, 28.239866127224829 ], [ 85.358776597019983, 28.23985192230603 ] ] ] ] } },
{ "type": "Feature", "properties": { "Id": 0, "Remarks": "RCC Bridge", "Width": 10.0 }, "geometry": { "type": "MultiPolygon", "coordinates": [ [ [ [ 85.353361719796624, 28.20273497190156 ], [ 85.353328170016439, 28.202649765655249 ], [ 85.352778375162856, 28.202819660024652 ], [ 85.35281192454525, 28.202904866387705 ], [ 85.353361719796624, 28.20273497190156 ] ] ] ] } },
{ "type": "Feature", "properties": { "Id": 0, "Remarks": "RCC Bridge", "Width": 10.0 }, "geometry": { "type": "MultiPolygon", "coordinates": [ [ [ [ 85.343951933985366, 28.182173339468079 ], [ 85.343913582729172, 28.182089741010834 ], [ 85.343045909054723, 28.182402251800887 ], [ 85.343084259721024, 28.182485850473771 ], [ 85.343951933985366, 28.182173339468079 ] ] ] ] } },
{ "type": "Feature", "properties": { "Id": 0, "Remarks": "RCC Bridge", "Width": 10.0 }, "geometry": { "type": "MultiPolygon", "coordinates": [ [ [ [ 85.332622602264493, 28.157043817668637 ], [ 85.332522496764383, 28.157027325068213 ], [ 85.332398107979373, 28.157620365912297 ], [ 85.332498214002584, 28.157636858625072 ], [ 85.332622602264493, 28.157043817668637 ] ] ] ] } },
{ "type": "Feature", "properties": { "Id": 0, "Remarks": "RCC Bridge", "Width": 10.0 }, "geometry": { "type": "MultiPolygon", "coordinates": [ [ [ [ 85.206580331241256, 28.065345074329915 ], [ 85.206102094333161, 28.065018409570229 ], [ 85.206040028302837, 28.065089905823715 ], [ 85.206518265314472, 28.065416570802473 ], [ 85.206580331241256, 28.065345074329915 ] ] ] ] } },
{ "type": "Feature", "properties": { "Id": 0, "Remarks": "RCC Bridge", "Width": 10.0 }, "geometry": { "type": "MultiPolygon", "coordinates": [ [ [ [ 85.185278541060271, 27.995201102430364 ], [ 85.185216773008747, 27.995129430832112 ], [ 85.184527771131286, 27.995597267737189 ], [ 85.184589538956715, 27.995668939631656 ], [ 85.185278541060271, 27.995201102430364 ] ] ] ] } },
{ "type": "Feature", "properties": { "Id": 0, "Remarks": "RCC Bridge", "Width": 10.0 }, "geometry": { "type": "MultiPolygon", "coordinates": [ [ [ [ 85.173113817354235, 27.963101111155808 ], [ 85.173016626513515, 27.963074730261749 ], [ 85.172670650399382, 27.964079574445485 ], [ 85.172767842027469, 27.964105955619043 ], [ 85.173113817354235, 27.963101111155808 ] ] ] ] } },
{ "type": "Feature", "properties": { "Id": 0, "Remarks": "RCC Bridge", "Width": 10.0 }, "geometry": { "type": "MultiPolygon", "coordinates": [ [ [ [ 85.149623083457072, 27.921478404593159 ], [ 85.14952525850336, 27.921454063060473 ], [ 85.149340778616008, 27.922038998043607 ], [ 85.149438604039347, 27.922063339728766 ], [ 85.149623083457072, 27.921478404593159 ] ] ] ] } },
{ "type": "Feature", "properties": { "Id": 0, "Remarks": "RCC Bridge", "Width": 10.0 }, "geometry": { "type": "MultiPolygon", "coordinates": [ [ [ [ 85.148151299402898, 27.920843010661383 ], [ 85.14805231860862, 27.920822689789059 ], [ 85.147875010818879, 27.921504082969093 ], [ 85.147973992185499, 27.92152440399526 ], [ 85.148151299402898, 27.920843010661383 ] ] ] ] } },
{ "type": "Feature", "properties": { "Id": 0, "Remarks": "RCC Bridge", "Width": 10.0 }, "geometry": { "type": "MultiPolygon", "coordinates": [ [ [ [ 85.139156760639821, 27.90986383430775 ], [ 85.138132520488455, 27.909158633724928 ], [ 85.138070293038027, 27.90922995609299 ], [ 85.139094533401149, 27.909935157144854 ], [ 85.139156760639821, 27.90986383430775 ] ] ] ] } },
{ "type": "Feature", "properties": { "Id": 0, "Remarks": "RCC Bridge", "Width": 10.0 }, "geometry": { "type": "MultiPolygon", "coordinates": [ [ [ [ 85.137009279163252, 27.892376937207171 ], [ 85.135844377588299, 27.892143061830026 ], [ 85.135821991556526, 27.892231079427852 ], [ 85.136986894003087, 27.892464955034917 ], [ 85.137009279163252, 27.892376937207171 ] ] ] ] } },
{ "type": "Feature", "properties": { "Id": 0, "Remarks": "RCC Bridge", "Width": 10.0 }, "geometry": { "type": "MultiPolygon", "coordinates": [ [ [ [ 85.117004004037625, 27.869668985147939 ], [ 85.116926441079158, 27.86961074803601 ], [ 85.115630265976478, 27.870974045881802 ], [ 85.1157078291223, 27.871032283726009 ], [ 85.117004004037625, 27.869668985147939 ] ] ] ] } },
{ "type": "Feature", "properties": { "Id": 0, "Remarks": "RCC Bridge", "Width": 10.0 }, "geometry": { "type": "MultiPolygon", "coordinates": [ [ [ [ 85.099225481167224, 27.860221768210415 ], [ 85.098381454613076, 27.858542319832445 ], [ 85.098288751521324, 27.858579119721846 ], [ 85.09913277685952, 27.860258568602287 ], [ 85.099225481167224, 27.860221768210415 ] ] ] ] } },
{ "type": "Feature", "properties": { "Id": 0, "Remarks": "RCC Bridge", "Width": 10.0 }, "geometry": { "type": "MultiPolygon", "coordinates": [ [ [ [ 85.062735350131675, 27.860245536611593 ], [ 85.061330234969105, 27.858807451324303 ], [ 85.06125357565756, 27.858866614613476 ], [ 85.062658690471153, 27.860304700658045 ], [ 85.062735350131675, 27.860245536611593 ] ] ] ] } },
{ "type": "Feature", "properties": { "Id": 0, "Remarks": "RCC Bridge", "Width": 10.0 }, "geometry": { "type": "MultiPolygon", "coordinates": [ [ [ [ 85.041890573543071, 27.855372544846968 ], [ 85.041811955694882, 27.855315451782015 ], [ 85.04071533015383, 27.856508300905105 ], [ 85.040793948207437, 27.856565394600835 ], [ 85.041890573543071, 27.855372544846968 ] ] ] ] } },
{ "type": "Feature", "properties": { "Id": 0, "Remarks": "RCC Bridge", "Width": 10.0 }, "geometry": { "type": "MultiPolygon", "coordinates": [ [ [ [ 85.023022127956395, 27.83232726267553 ], [ 85.022983146058493, 27.832243949548456 ], [ 85.021019422541386, 27.832970057398583 ], [ 85.021058403125352, 27.833053371008347 ], [ 85.023022127956395, 27.83232726267553 ] ] ] ] } },
{ "type": "Feature", "properties": { "Id": 0, "Remarks": "RCC Bridge", "Width": 10.0 }, "geometry": { "type": "MultiPolygon", "coordinates": [ [ [ [ 85.003495026763673, 27.801864285557738 ], [ 85.003410767541467, 27.80181400623383 ], [ 85.002481847604471, 27.803044922711567 ], [ 85.002566107274163, 27.803095202621531 ], [ 85.003495026763673, 27.801864285557738 ] ] ] ] } },
{ "type": "Feature", "properties": { "Id": 0, "Remarks": "RCC Bridge", "Width": 10.0 }, "geometry": { "type": "MultiPolygon", "coordinates": [ [ [ [ 84.991116850054894, 27.804664324558757 ], [ 84.989758379546601, 27.803724998277097 ], [ 84.989696088736267, 27.803796228501426 ], [ 84.991054559513643, 27.804735555405607 ], [ 84.991116850054894, 27.804664324558757 ] ] ] ] } },
{ "type": "Feature", "properties": { "Id": 0, "Remarks": "RCC Bridge", "Width": 10.0 }, "geometry": { "type": "MultiPolygon", "coordinates": [ [ [ [ 84.965978540137783, 27.812202743312092 ], [ 84.964573845697785, 27.811521900302242 ], [ 84.964525274493994, 27.811601124322525 ], [ 84.965929969584508, 27.8122819678577 ], [ 84.965978540137783, 27.812202743312092 ] ] ] ] } },
{ "type": "Feature", "properties": { "Id": 0, "Remarks": "RCC Bridge", "Width": 10.0 }, "geometry": { "type": "MultiPolygon", "coordinates": [ [ [ [ 84.924636561729571, 27.797160818362414 ], [ 84.924540750675249, 27.797131121091354 ], [ 84.924076422051911, 27.798315758130681 ], [ 84.924172233975597, 27.798345455768906 ], [ 84.924636561729571, 27.797160818362414 ] ] ] ] } },
{ "type": "Feature", "properties": { "Id": 0, "Remarks": "RCC Bridge", "Width": 10.0 }, "geometry": { "type": "MultiPolygon", "coordinates": [ [ [ [ 84.902637201168858, 27.805750572940063 ], [ 84.90254895318769, 27.805706035901778 ], [ 84.90144964403153, 27.807428269084632 ], [ 84.90153789285948, 27.807472806867395 ], [ 84.902637201168858, 27.805750572940063 ] ] ] ] } },
{ "type": "Feature", "properties": { "Id": 0, "Remarks": "RCC Bridge", "Width": 10.0 }, "geometry": { "type": "MultiPolygon", "coordinates": [ [ [ [ 84.844540917926494, 27.801888989529889 ], [ 84.84445314979348, 27.801843719033709 ], [ 84.843756742604526, 27.802911317434237 ], [ 84.843844511244228, 27.802956588399027 ], [ 84.844540917926494, 27.801888989529889 ] ] ] ] } },
{ "type": "Feature", "properties": { "Id": 0, "Remarks": "RCC Bridge", "Width": 10.0 }, "geometry": { "type": "MultiPolygon", "coordinates": [ [ [ [ 84.778157808299923, 27.810093222214253 ], [ 84.778106955992442, 27.810015148264657 ], [ 84.776543747033827, 27.810820110951681 ], [ 84.776594598512901, 27.810898185425891 ], [ 84.778157808299923, 27.810093222214253 ] ] ] ] } },
{ "type": "Feature", "properties": { "Id": 0, "Remarks": "RCC Bridge", "Width": 10.0 }, "geometry": { "type": "MultiPolygon", "coordinates": [ [ [ [ 84.662730456873959, 27.8448118763935 ], [ 84.661297041612841, 27.84425546113934 ], [ 84.661256422667051, 27.844338137115333 ], [ 84.662689838743717, 27.844894552839531 ], [ 84.662730456873959, 27.8448118763935 ] ] ] ] } },
{ "type": "Feature", "properties": { "Id": 0, "Remarks": "RCC Bridge", "Width": 10.0 }, "geometry": { "type": "MultiPolygon", "coordinates": [ [ [ [ 84.641137927044412, 27.859420966587187 ], [ 84.64103849132087, 27.859402835191379 ], [ 84.640774766386272, 27.860545238107132 ], [ 84.640874203080145, 27.86056336975199 ], [ 84.641137927044412, 27.859420966587187 ] ] ] ] } },
{ "type": "Feature", "properties": { "Id": 0, "Remarks": "RCC Bridge", "Width": 10.0 }, "geometry": { "type": "MultiPolygon", "coordinates": [ [ [ [ 84.558320331737946, 27.854464789554399 ], [ 84.558289810154989, 27.854378754483967 ], [ 84.556576050133785, 27.854859011157473 ], [ 84.556606570435463, 27.854945046524509 ], [ 84.558320331737946, 27.854464789554399 ] ] ] ] } },
{ "type": "Feature", "properties": { "Id": 0, "Remarks": "RCC Bridge", "Width": 10.0 }, "geometry": { "type": "MultiPolygon", "coordinates": [ [ [ [ 84.558027525580897, 27.853939935742758 ], [ 84.558008255046332, 27.853851366144937 ], [ 84.556457835670315, 27.854117837636274 ], [ 84.556477104955405, 27.854206407370533 ], [ 84.558027525580897, 27.853939935742758 ] ] ] ] } },
{ "type": "Feature", "properties": { "Id": 0, "Remarks": "RCC Bridge", "Width": 10.0 }, "geometry": { "type": "MultiPolygon", "coordinates": [ [ [ [ 85.378297160661276, 28.278221419674836 ], [ 85.378200786453206, 28.278192015776899 ], [ 85.377852531673028, 28.279086537165973 ], [ 85.377948906565251, 28.279115941335302 ], [ 85.378297160661276, 28.278221419674836 ] ] ] ] } },
{ "type": "Feature", "properties": { "Id": 0, "Remarks": "RCC Bridge", "Width": 10.0 }, "geometry": { "type": "MultiPolygon", "coordinates": [ [ [ [ 85.340217452652666, 28.163929511489105 ], [ 85.340122842666744, 28.16389614278663 ], [ 85.339865202938128, 28.164469848680746 ], [ 85.339959813329713, 28.164503217576655 ], [ 85.340217452652666, 28.163929511489105 ] ] ] ] } },
{ "type": "Feature", "properties": { "Id": 0, "Remarks": "RCC Bridge", "Width": 10.0 }, "geometry": { "type": "MultiPolygon", "coordinates": [ [ [ [ 85.175674315049889, 27.982536778215337 ], [ 85.17557295797404, 27.982529940791256 ], [ 85.175512693937861, 27.983233948352353 ], [ 85.175614051663374, 27.983240785851088 ], [ 85.175674315049889, 27.982536778215337 ] ] ] ] } },
{ "type": "Feature", "properties": { "Id": 0, "Remarks": "RCC Bridge", "Width": 10.0 }, "geometry": { "type": "MultiPolygon", "coordinates": [ [ [ [ 85.164129704174798, 27.95515212802648 ], [ 85.164036254680468, 27.955116671351863 ], [ 85.163477379837204, 27.956278051266402 ], [ 85.163570830103808, 27.956313508354029 ], [ 85.164129704174798, 27.95515212802648 ] ] ] ] } },
{ "type": "Feature", "properties": { "Id": 0, "Remarks": "Water Diversion Bridge", "Width": 2.0 }, "geometry": { "type": "MultiPolygon", "coordinates": [ [ [ [ 85.163851230246053, 27.948666140181476 ], [ 85.162228959619654, 27.948418135893895 ], [ 85.162211718879732, 27.948507064855963 ], [ 85.163833990772162, 27.948755069405291 ], [ 85.163851230246053, 27.948666140181476 ] ] ] ] } },
{ "type": "Feature", "properties": { "Id": 0, "Remarks": "RCC Bridge", "Width": 10.0 }, "geometry": { "type": "MultiPolygon", "coordinates": [ [ [ [ 85.34244254387022, 28.181766859807883 ], [ 85.342073984720642, 28.181257456953968 ], [ 85.341988246715715, 28.181306159984111 ], [ 85.342356805600915, 28.181815563055348 ], [ 85.34244254387022, 28.181766859807883 ] ] ] ] } },
{ "type": "Feature", "properties": { "Id": 0, "Remarks": "RCC Bridge", "Width": 10.0 }, "geometry": { "type": "MultiPolygon", "coordinates": [ [ [ [ 85.275410856386387, 28.108003593140225 ], [ 85.275320802025888, 28.107961555505703 ], [ 85.275010689332134, 28.108483859374864 ], [ 85.27510074398522, 28.108525897224084 ], [ 85.275410856386387, 28.108003593140225 ] ] ] ] } },
{ "type": "Feature", "properties": { "Id": 0, "Remarks": "RCC Bridge", "Width": 10.0 }, "geometry": { "type": "MultiPolygon", "coordinates": [ [ [ [ 85.186057342827311, 27.973860805464732 ], [ 85.185961038722382, 27.973831947929845 ], [ 85.185635035155386, 27.974689455408868 ], [ 85.185731339908415, 27.974718313200423 ], [ 85.186057342827311, 27.973860805464732 ] ] ] ] } }
]
}
