{
"type": "FeatureCollection",
"name": "Health_within_500m",
"crs": { "type": "name", "properties": { "name": "urn:ogc:def:crs:OGC:1.3:CRS84" } },
"features": [
{ "type": "Feature", "properties": { "id": 2395, "hf_code": 3030100081, "hf_name": "SYAFRUBESI HEALTH POST RASUWA", "facility_type": "Government", "level": "Basic Health Service Centre", "ownership": "Local Government", "province": "Bagmati Pradesh", "district": "Rasuwa", "municipality": " Gosaikunda Rural Municipality", "ward": 5, "operational_status": "Functional", "contact_person": "khambu bohara", "contact_mobile": "9861227760", "telephone": "010541060", "email": "syafruhp123@gmail.com", "website": "", "ambulance": "", "oxygen": "", "pharmacy": "", "insurance": "", "established_date": "03/12/2036", "hmis_code": "ceSf4Es3SpC" }, "geometry": { "type": "Point", "coordinates": [ 85.340912, 28.165067 ] } },
{ "type": "Feature", "properties": { "id": 2405, "hf_code": 3030300021, "hf_name": "BOGATITAR COMMUNITY HEALTH UNIT", "facility_type": "Government", "level": "Basic Health Service Centre", "ownership": "Local Government", "province": "Bagmati Pradesh", "district": "Rasuwa", "municipality": " Uttargaya Rural Municipality", "ward": 5, "operational_status": "Functional", "contact_person": "Melnurani Ghale", "contact_mobile": "9866417150", "telephone": "9863194747", "email": "bogatitarchu1@gmail.com", "website": "", "ambulance": "", "oxygen": "yes", "pharmacy": "", "insurance": "", "established_date": "01/08/2073", "hmis_code": "mbGREK0dI2E" }, "geometry": { "type": "Point", "coordinates": [ 85.186064, 27.978459 ] } },
{ "type": "Feature", "properties": { "id": 2489, "hf_code": 3041000051, "hf_name": "GAJURI PHC", "facility_type": "Government", "level": "Basic Health Service Centre", "ownership": "Local Government", "province": "Bagmati Pradesh", "district": "Dhading", "municipality": " Gajuri Rural Municipality", "ward": 1, "operational_status": "Functional", "contact_person": "Sudip Pandey", "contact_mobile": "9843703751", "telephone": "", "email": "phcgajuri@gmail.com", "website": "", "ambulance": "yes", "oxygen": "yes", "pharmacy": "no", "insurance": "yes", "established_date": "01/04/2050", "hmis_code": "jfvfjM78dPp" }, "geometry": { "type": "Point", "coordinates": [ 84.8800354, 27.80631256 ] } },
{ "type": "Feature", "properties": { "id": 2490, "hf_code": 3041000062, "hf_name": "GAJURI HOSPITAL", "facility_type": "Non-Government", "level": "Basic Hospital (5 to 15 beds)", "ownership": "Private Enterprise", "province": "Bagmati Pradesh", "district": "Dhading", "municipality": " Gajuri Rural Municipality", "ward": 1, "operational_status": "Functional", "contact_person": "HARI BAHADUR KARKI", "contact_mobile": "9845089394", "telephone": "010402329", "email": "gajuriaspatal20640810@gmail.com", "website": "", "ambulance": "yes", "oxygen": "yes", "pharmacy": "yes", "insurance": "no", "established_date": "09/05/2066", "hmis_code": "uaj7JNQy05o" }, "geometry": { "type": "Point", "coordinates": [ 84.8793869, 27.80519104 ] } },
{ "type": "Feature", "properties": { "id": 2491, "hf_code": 3041100011, "hf_name": "BAIRENI AAYURVED DISPENSERY", "facility_type": "Government", "level": "Basic Ayurveda Service Centre", "ownership": "Local Government", "province": "Bagmati Pradesh", "district": "Dhading", "municipality": " Galchhi Rural Municipality", "ward": 5, "operational_status": "Functional", "contact_person": "Narayan Prasad Poudel", "contact_mobile": "9851069502", "telephone": "", "email": "ayurveda.galchhimun@gmail.con", "website": "", "ambulance": "no", "oxygen": "yes", "pharmacy": "yes", "insurance": "no", "established_date": "28/03/2057", "hmis_code": "" }, "geometry": { "type": "Point", "coordinates": [ 84.9883, 27.8011 ] } },
{ "type": "Feature", "properties": { "id": 2492, "hf_code": 3041100021, "hf_name": "BAIRENI HOSPITAL", "facility_type": "Government", "level": "Basic Hospital (5 to 15 beds)", "ownership": "Local Government", "province": "Bagmati Pradesh", "district": "Dhading", "municipality": " Galchhi Rural Municipality", "ward": 6, "operational_status": "Functional", "contact_person": "Indra Bahadur Sijapati", "contact_mobile": "984409377", "telephone": "010-590500", "email": "bairenihospital@gmail.com", "website": "", "ambulance": "yes", "oxygen": "yes", "pharmacy": "yes", "insurance": "yes", "established_date": "01/04/2036", "hmis_code": "yWzPdU5rr0i" }, "geometry": { "type": "Point", "coordinates": [ 84.9883, 27.8011 ] } },
{ "type": "Feature", "properties": { "id": 2532, "hf_code": 3050400071, "hf_name": "COMMUNITY HEALTH UNIT 12", "facility_type": "Government", "level": "Basic Health Service Centre", "ownership": "Local Government", "province": "Bagmati Pradesh", "district": "Nuwakot", "municipality": " Bidur Municipality", "ward": 12, "operational_status": "Functional", "contact_person": "PRATIKSHA DEVKOTA", "contact_mobile": "9860319374", "telephone": "", "email": "pratikshadevkota8@gmail.com", "website": "", "ambulance": "no", "oxygen": "no", "pharmacy": "", "insurance": "", "established_date": "", "hmis_code": "" }, "geometry": { "type": "Point", "coordinates": [ 85.135065, 27.906108 ] } },
{ "type": "Feature", "properties": { "id": 4365, "hf_code": 3130300031, "hf_name": "ICHCHHAKAMANA BASIC HOSPITAL", "facility_type": "Government", "level": "Basic Hospital (5 to 15 beds)", "ownership": "Local Government", "province": "Bagmati Pradesh", "district": "Chitawan", "municipality": " Ichchha Kamana Rural Municipality", "ward": 4, "operational_status": "Functional", "contact_person": "DR.renu silwal ", "contact_mobile": "9840243773", "telephone": "9840243773", "email": "", "website": "", "ambulance": "yes", "oxygen": "yes", "pharmacy": "", "insurance": "", "established_date": "", "hmis_code": "duZvuzt9rU2" }, "geometry": { "type": "Point", "coordinates": [ 84.6269989, 27.87035561 ] } },
{ "type": "Feature", "properties": { "id": 4367, "hf_code": 3130300051, "hf_name": "PAMDANDA HP_CHITAWAN", "facility_type": "Government", "level": "Health Post", "ownership": "Local Government", "province": "Bagmati Pradesh", "district": "Chitawan", "municipality": " Ichchha Kamana Rural Municipality", "ward": 5, "operational_status": "Functional", "contact_person": null, "contact_mobile": null, "telephone": "", "email": "", "website": "", "ambulance": null, "oxygen": null, "pharmacy": null, "insurance": null, "established_date": "", "hmis_code": "Va9Xr655DaG" }, "geometry": { "type": "Point", "coordinates": [ 84.56170654, 27.8546772 ] } },
{ "type": "Feature", "properties": { "id": 4386, "hf_code": 3130400191, "hf_name": "DALETAR AAYURVED DISPENSARY", "facility_type": "Government", "level": "Basic Ayurveda Service Centre", "ownership": "Local Government", "province": "Bagmati Pradesh", "district": "Chitawan", "municipality": " Bharatpur Metropolitan City", "ward": 29, "operational_status": "Functional", "contact_person": "Uma Aacharya ", "contact_mobile": "", "telephone": "", "email": "", "website": "", "ambulance": "", "oxygen": "", "pharmacy": "", "insurance": "", "established_date": "02/03/2072", "hmis_code": "" }, "geometry": { "type": "Point", "coordinates": [ 84.469761, 27.768678 ] } },
{ "type": "Feature", "properties": { "id": 4396, "hf_code": 3130400291, "hf_name": "KABILAS HEALTH POST", "facility_type": "Government", "level": "Basic Health Service Centre", "ownership": "Local Government", "province": "Bagmati Pradesh", "district": "Chitawan", "municipality": " Bharatpur Metropolitan City", "ward": 29, "operational_status": "Functional", "contact_person": "Indra Bilash Dhakal", "contact_mobile": "9855075176", "telephone": "", "email": "", "website": "", "ambulance": "no", "oxygen": "no", "pharmacy": "no", "insurance": "no", "established_date": "", "hmis_code": "xZQiCm3P1C9" }, "geometry": { "type": "Point", "coordinates": [ 84.47053528, 27.76779747 ] } },
{ "type": "Feature", "properties": { "id": 9922, "hf_code": 3030300061, "hf_name": "MAILUNG COMMUNITY HEALTH UNIT", "facility_type": "Government", "level": "Basic Health Service Centre", "ownership": "Local Government", "province": "Bagmati Pradesh", "district": "Rasuwa", "municipality": " Uttargaya Rural Municipality", "ward": 1, "operational_status": "Functional", "contact_person": "Sharada Acharya", "contact_mobile": "9860122883", "telephone": "", "email": "", "website": "", "ambulance": "", "oxygen": "", "pharmacy": "", "insurance": "", "established_date": "", "hmis_code": "GELrJeaWUuF" }, "geometry": { "type": "Point", "coordinates": [ 85.2069, 28.053699 ] } },
{ "type": "Feature", "properties": { "id": 11279, "hf_code": 3050400271, "hf_name": "URBAN HEALTH CENTER 1", "facility_type": "Government", "level": "Basic Health Service Centre", "ownership": "Local Government", "province": "Bagmati Pradesh", "district": "Nuwakot", "municipality": " Bidur Municipality", "ward": 1, "operational_status": "Functional", "contact_person": "Arpana lama", "contact_mobile": "9745345604", "telephone": "", "email": "arpanalama2012@gmail.com", "website": "", "ambulance": "no", "oxygen": "no", "pharmacy": "", "insurance": "", "established_date": "02/01/2078", "hmis_code": "" }, "geometry": { "type": "Point", "coordinates": [ 85.155278, 27.923747 ] } },
{ "type": "Feature", "properties": { "id": 11283, "hf_code": 3050400291, "hf_name": "URBAN HEALTH CENTER-4", "facility_type": "Government", "level": "Basic Health Service Centre", "ownership": "Local Government", "province": "Bagmati Pradesh", "district": "Nuwakot", "municipality": " Bidur Municipality", "ward": 4, "operational_status": "Functional", "contact_person": "Sangita Bhandari ", "contact_mobile": "9841671925", "telephone": "", "email": "sbhandarirawal@gmail.com", "website": "", "ambulance": "no", "oxygen": "no", "pharmacy": "", "insurance": "", "established_date": "01/04/2078", "hmis_code": "" }, "geometry": { "type": "Point", "coordinates": [ 85.141591, 27.898507 ] } },
{ "type": "Feature", "properties": { "id": 11286, "hf_code": 3050400311, "hf_name": "URBAN HEALTH CENTER-10", "facility_type": "Government", "level": "Basic Health Service Centre", "ownership": "Local Government", "province": "Bagmati Pradesh", "district": "Nuwakot", "municipality": " Bidur Municipality", "ward": 10, "operational_status": "Functional", "contact_person": "Prabin Pyakurel", "contact_mobile": "9841671877", "telephone": "", "email": "urbanhealthbidur10@gmail.com", "website": "", "ambulance": "no", "oxygen": "no", "pharmacy": "", "insurance": "", "established_date": "", "hmis_code": "" }, "geometry": { "type": "Point", "coordinates": [ 85.15796, 27.934017 ] } },
{ "type": "Feature", "properties": { "id": 11452, "hf_code": 3041100071, "hf_name": "DUMRICHAUR BASIC HEALTH SERVICE CENTER", "facility_type": "Government", "level": "Basic Health Service Centre", "ownership": "Local Government", "province": "Bagmati Pradesh", "district": "Dhading", "municipality": " Galchhi Rural Municipality", "ward": 1, "operational_status": "Functional", "contact_person": "Anita Dahal", "contact_mobile": "9843902471", "telephone": "", "email": "bhsc1.galchhimun@gmail.com", "website": "", "ambulance": "no", "oxygen": "yes", "pharmacy": "no", "insurance": "no", "established_date": "01/04/2077", "hmis_code": "" }, "geometry": { "type": "Point", "coordinates": [ 84.87993622, 27.80630493 ] } },
{ "type": "Feature", "properties": { "id": 14339, "hf_code": 3040800061, "hf_name": "SALANG GHAT BHSC", "facility_type": "Government", "level": "Basic Health Service Centre", "ownership": "Local Government", "province": "Bagmati Pradesh", "district": "Dhading", "municipality": " Siddhalek Rural Municipality", "ward": 4, "operational_status": "Functional", "contact_person": "आषा श्रेष्ठ", "contact_mobile": "9840652797", "telephone": "", "email": "", "website": "", "ambulance": "no", "oxygen": "yes", "pharmacy": "no", "insurance": "no", "established_date": "02/01/2076", "hmis_code": "" }, "geometry": { "type": "Point", "coordinates": [ 84.8136673, 27.81579018 ] } },
{ "type": "Feature", "properties": { "id": 14343, "hf_code": 3040800071, "hf_name": "AADAMTAR BHSC", "facility_type": "Government", "level": "Basic Health Service Centre", "ownership": "Local Government", "province": "Bagmati Pradesh", "district": "Dhading", "municipality": " Siddhalek Rural Municipality", "ward": 7, "operational_status": "Functional", "contact_person": "अस्मिता तिवारी", "contact_mobile": "9864177715", "telephone": "", "email": "", "website": "", "ambulance": "no", "oxygen": "yes", "pharmacy": "no", "insurance": "no", "established_date": "02/01/2076", "hmis_code": "" }, "geometry": { "type": "Point", "coordinates": [ 84.93582916, 27.80938339 ] } },
{ "type": "Feature", "properties": { "id": 14364, "hf_code": 3041000092, "hf_name": "MALEKHU TEACHING HOSPITAL", "facility_type": "Non-Government", "level": "Basic Hospital (5 to 15 beds)", "ownership": "Private Enterprise", "province": "Bagmati Pradesh", "district": "Dhading", "municipality": " Gajuri Rural Municipality", "ward": 2, "operational_status": "Functional", "contact_person": "Nirajan Kadel", "contact_mobile": "9851076868", "telephone": "010400171", "email": "", "website": "", "ambulance": "no", "oxygen": "yes", "pharmacy": "yes", "insurance": "no", "established_date": "14/10/2077", "hmis_code": "" }, "geometry": { "type": "Point", "coordinates": [ 84.8351593, 27.8058033 ] } },
{ "type": "Feature", "properties": { "id": 16739, "hf_code": 3050700101, "hf_name": "BASIC HEALTH UNIT,DARSHANTAAR", "facility_type": "Government", "level": "Basic Health Service Centre", "ownership": "Local Government", "province": "Bagmati Pradesh", "district": "Nuwakot", "municipality": " Tarakeshwor Rural Municipality", "ward": 4, "operational_status": "Functional", "contact_person": "Durga Devi Adhikari", "contact_mobile": "9849266517", "telephone": "", "email": "", "website": "", "ambulance": "no", "oxygen": "no", "pharmacy": "", "insurance": "", "established_date": "32/04/2080", "hmis_code": "" }, "geometry": { "type": "Point", "coordinates": [ 85.05, 27.85 ] } }
]
}
