{
"type": "FeatureCollection",
"name": "nepal_health_facility_registry",
"features": [
{ "type": "Feature", "properties": { "NHFR Registry ID": 2395, "Health Facility Code": 3030100081, "Facility Name": "SYAFRUBESI HEALTH POST RASUWA", "Alternative Facility Name": null, "Province": "Bagmati Pradesh", "District": "Rasuwa", "Municipality": "Gosaikunda Rural Municipality", "Ward": 5.0, "Facility Type": "Government", "Facility Level": "Basic Health Service Centre", "Previous Facility Level": "Health Post", "Health System Type": "Allopathy", "Authority Level": "Local", "Ownership": "Local Government", "Operational Status": "Functional", "HMIS Code": "ceSf4Es3SpC", "Established Date": "03/12/2036", "Contact Person": "khambu bohara", "Contact Person Mobile": "9861227760", "Telephone": "010541060", "Email": "syafruhp123@gmail.com", "Website": null, "Internet Available": "Yes", "Oxygen Available": null, "Oxygen Plant Capacity": null, "Oxygen Cylinders": null, "Oxygen Concentrators": null, "Ambulance Available": null, "Ambulance Category": null, "Ambulance Contact": null, "Emergency Health Services": null, "Pharmacy": null, "ICU Capacity Reported": null, "ICU Capacity Functional": null, "Ventilator Capacity Reported": null, "Ventilator Capacity Functional": null, "HDU Capacity Reported": null, "HDU Capacity Functional": null, "NICU Capacity Reported": null, "NICU Capacity Functional": null }, "geometry": { "type": "Point", "coordinates": [ 85.340912, 28.165067 ] } },
{ "type": "Feature", "properties": { "NHFR Registry ID": 2606, "Health Facility Code": 3051200061, "Facility Name": "KAKANI PHC _NUWAKOT", "Alternative Facility Name": null, "Province": "Bagmati Pradesh", "District": "Nuwakot", "Municipality": "Kakani Rural Municipality", "Ward": 4.0, "Facility Type": "Government", "Facility Level": "Basic Health Service Centre", "Previous Facility Level": "Primary Health Center", "Health System Type": "Allopathy", "Authority Level": "Local", "Ownership": "Local Government", "Operational Status": "Functional", "HMIS Code": "EWOLuVowQlb", "Established Date": "25/01/2045", "Contact Person": "Bidyananda yadav", "Contact Person Mobile": "9863889988", "Telephone": "9863889988", "Email": "phckakani@gmail.com", "Website": "phckakani@gmail.com", "Internet Available": "Yes", "Oxygen Available": "Yes", "Oxygen Plant Capacity": null, "Oxygen Cylinders": "2", "Oxygen Concentrators": "3", "Ambulance Available": "Yes", "Ambulance Category": "B", "Ambulance Contact": "9762452699", "Emergency Health Services": null, "Pharmacy": null, "ICU Capacity Reported": null, "ICU Capacity Functional": null, "Ventilator Capacity Reported": null, "Ventilator Capacity Functional": null, "HDU Capacity Reported": null, "HDU Capacity Functional": null, "NICU Capacity Reported": null, "NICU Capacity Functional": null }, "geometry": { "type": "Point", "coordinates": [ 85.1425, 27.9172 ] } },
{ "type": "Feature", "properties": { "NHFR Registry ID": 4365, "Health Facility Code": 3130300031, "Facility Name": "ICHCHHAKAMANA BASIC HOSPITAL", "Alternative Facility Name": null, "Province": "Bagmati Pradesh", "District": "Chitwan", "Municipality": "Ichchha Kamana Rural Municipality", "Ward": 4.0, "Facility Type": "Government", "Facility Level": "Basic Hospital (5 to 15 beds)", "Previous Facility Level": "Health Post", "Health System Type": "Allopathy", "Authority Level": "Local", "Ownership": "Local Government", "Operational Status": "Functional", "HMIS Code": "duZvuzt9rU2", "Established Date": null, "Contact Person": "DR.renu silwal", "Contact Person Mobile": "9840243773", "Telephone": "9840243773", "Email": null, "Website": null, "Internet Available": "Yes", "Oxygen Available": "Yes", "Oxygen Plant Capacity": null, "Oxygen Cylinders": "13", "Oxygen Concentrators": "5", "Ambulance Available": "Yes", "Ambulance Category": "C", "Ambulance Contact": "9840243773", "Emergency Health Services": null, "Pharmacy": null, "ICU Capacity Reported": null, "ICU Capacity Functional": null, "Ventilator Capacity Reported": null, "Ventilator Capacity Functional": null, "HDU Capacity Reported": null, "HDU Capacity Functional": null, "NICU Capacity Reported": null, "NICU Capacity Functional": null }, "geometry": { "type": "Point", "coordinates": [ 84.6269989, 27.87035561 ] } },
{ "type": "Feature", "properties": { "NHFR Registry ID": 9922, "Health Facility Code": 3030300061, "Facility Name": "MAILUNG COMMUNITY HEALTH UNIT", "Alternative Facility Name": null, "Province": "Bagmati Pradesh", "District": "Rasuwa", "Municipality": "Uttargaya Rural Municipality", "Ward": 1.0, "Facility Type": "Government", "Facility Level": "Basic Health Service Centre", "Previous Facility Level": "Community Health Unit", "Health System Type": "Allopathy", "Authority Level": "Local", "Ownership": "Local Government", "Operational Status": "Functional", "HMIS Code": "GELrJeaWUuF", "Established Date": null, "Contact Person": "Sharada Acharya", "Contact Person Mobile": "9860122883", "Telephone": null, "Email": null, "Website": null, "Internet Available": "Yes", "Oxygen Available": null, "Oxygen Plant Capacity": null, "Oxygen Cylinders": null, "Oxygen Concentrators": null, "Ambulance Available": null, "Ambulance Category": null, "Ambulance Contact": null, "Emergency Health Services": null, "Pharmacy": null, "ICU Capacity Reported": null, "ICU Capacity Functional": null, "Ventilator Capacity Reported": null, "Ventilator Capacity Functional": null, "HDU Capacity Reported": null, "HDU Capacity Functional": null, "NICU Capacity Reported": null, "NICU Capacity Functional": null }, "geometry": { "type": "Point", "coordinates": [ 85.2069, 28.053699 ] } },
{ "type": "Feature", "properties": { "NHFR Registry ID": 11286, "Health Facility Code": 3050400311, "Facility Name": "URBAN HEALTH CENTER-10", "Alternative Facility Name": null, "Province": "Bagmati Pradesh", "District": "Nuwakot", "Municipality": "Bidur Municipality", "Ward": 10.0, "Facility Type": "Government", "Facility Level": "Basic Health Service Centre", "Previous Facility Level": "Community Health Unit", "Health System Type": "Allopathy", "Authority Level": "Local", "Ownership": "Local Government", "Operational Status": "Functional", "HMIS Code": null, "Established Date": null, "Contact Person": "Prabin Pyakurel", "Contact Person Mobile": "9841671877", "Telephone": null, "Email": "urbanhealthbidur10@gmail.com", "Website": null, "Internet Available": "Yes", "Oxygen Available": "No", "Oxygen Plant Capacity": null, "Oxygen Cylinders": null, "Oxygen Concentrators": null, "Ambulance Available": "No", "Ambulance Category": null, "Ambulance Contact": null, "Emergency Health Services": null, "Pharmacy": null, "ICU Capacity Reported": null, "ICU Capacity Functional": null, "Ventilator Capacity Reported": null, "Ventilator Capacity Functional": null, "HDU Capacity Reported": null, "HDU Capacity Functional": null, "NICU Capacity Reported": null, "NICU Capacity Functional": null }, "geometry": { "type": "Point", "coordinates": [ 85.15796, 27.934017 ] } },
{ "type": "Feature", "properties": { "NHFR Registry ID": 14364, "Health Facility Code": 3041000092, "Facility Name": "MALEKHU TEACHING HOSPITAL", "Alternative Facility Name": null, "Province": "Bagmati Pradesh", "District": "Dhading", "Municipality": "Gajuri Rural Municipality", "Ward": 2.0, "Facility Type": "Non-Government", "Facility Level": "Basic Hospital (5 to 15 beds)", "Previous Facility Level": "--", "Health System Type": "Allopathy", "Authority Level": "Local", "Ownership": "Private Enterprise", "Operational Status": "Functional", "HMIS Code": null, "Established Date": "14/10/2077", "Contact Person": "Nirajan Kadel", "Contact Person Mobile": "9851076868", "Telephone": "010400171", "Email": null, "Website": null, "Internet Available": "Yes", "Oxygen Available": "Yes", "Oxygen Plant Capacity": null, "Oxygen Cylinders": "15", "Oxygen Concentrators": null, "Ambulance Available": "No", "Ambulance Category": null, "Ambulance Contact": null, "Emergency Health Services": "No", "Pharmacy": "Yes", "ICU Capacity Reported": 0.0, "ICU Capacity Functional": 0.0, "Ventilator Capacity Reported": 0.0, "Ventilator Capacity Functional": 0.0, "HDU Capacity Reported": 0.0, "HDU Capacity Functional": 0.0, "NICU Capacity Reported": 0.0, "NICU Capacity Functional": 0.0 }, "geometry": { "type": "Point", "coordinates": [ 84.8351593, 27.8058033 ] } }
]
}
