{
"type": "FeatureCollection",
"name": "Helipad",
"crs": { "type": "name", "properties": { "name": "urn:ogc:def:crs:OGC:1.3:CRS84" } },
"features": [
{ "type": "Feature", "properties": { "id": null, "Name": "Nepal Army Helipad, Galchhi-6, Galchhi", "description": null, "x": 84.994560773700002, "y": 27.801648517, "OBJECTID": 1514, "new_ward_n": 6.0, "GaPa_NaP_1": "Galchi", "Type_GN": "Gaunpalika", "type_en": "Rural Municipality", "DISTRICT": "DHADING", "hlcit_code": "524 3 30 4 010", "munid": 323.0, "districtid": 30.0, "state": 3.0 }, "geometry": { "type": "MultiPoint", "coordinates": [ [ 84.994560773660851, 27.801648516965521, 0.0 ] ] } },
{ "type": "Feature", "properties": { "id": null, "Name": "Nepal Army Helipad, Gajuri-1, Gajuri", "description": null, "x": 84.882051007200005, "y": 27.8059003119, "OBJECTID": 1530, "new_ward_n": 1.0, "GaPa_NaP_1": "Gajuri", "Type_GN": "Gaunpalika", "type_en": "Rural Municipality", "DISTRICT": "DHADING", "hlcit_code": "524 3 30 4 009", "munid": 322.0, "districtid": 30.0, "state": 3.0 }, "geometry": { "type": "MultiPoint", "coordinates": [ [ 84.882051007248265, 27.805900311949859, 0.0 ] ] } },
{ "type": "Feature", "properties": { "id": null, "Name": "APF Helipad, Ichchhyakamana-4, Kuringhat", "description": null, "x": 84.626982524, "y": 27.867968874700001, "OBJECTID": 1640, "new_ward_n": 4.0, "GaPa_NaP_1": "Ichchhyakamana", "Type_GN": "Gaunpalika", "type_en": "Rural Municipality", "DISTRICT": "CHITAWAN", "hlcit_code": "524 3 35 4 001", "munid": 396.0, "districtid": 35.0, "state": 3.0 }, "geometry": { "type": "MultiPoint", "coordinates": [ [ 84.626982524024299, 27.867968874663841, 0.0 ] ] } },
{ "type": "Feature", "properties": { "id": null, "Name": "Kurintar Heliport, Ichchhyakamana-4, Cablecar", "description": null, "x": 84.589753874699994, "y": 27.87858165, "OBJECTID": 1640, "new_ward_n": 4.0, "GaPa_NaP_1": "Ichchhyakamana", "Type_GN": "Gaunpalika", "type_en": "Rural Municipality", "DISTRICT": "CHITAWAN", "hlcit_code": "524 3 35 4 001", "munid": 396.0, "districtid": 35.0, "state": 3.0 }, "geometry": { "type": "MultiPoint", "coordinates": [ [ 84.589753874741561, 27.878581650023211, 0.0 ] ] } },
{ "type": "Feature", "properties": { "id": null, "Name": "Bidur-12, Mandredhunga", "description": null, "x": 85.133201020200005, "y": 27.887009892999998, "OBJECTID": 5958, "new_ward_n": 12.0, "GaPa_NaP_1": "Bidur", "Type_GN": "Nagarpalika", "type_en": "Urban Municipality", "DISTRICT": "NUWAKOT", "hlcit_code": "524 3 28 3 001", "munid": 302.0, "districtid": 28.0, "state": 3.0 }, "geometry": { "type": "MultiPoint", "coordinates": [ [ 85.133201020210961, 27.887009892992221, 0.0 ] ] } },
{ "type": "Feature", "properties": { "id": null, "Name": "Nepal Army Helipad, Bidur-2, Damki", "description": null, "x": 85.1455282883, "y": 27.906662427800001, "OBJECTID": 5950, "new_ward_n": 2.0, "GaPa_NaP_1": "Bidur", "Type_GN": "Nagarpalika", "type_en": "Urban Municipality", "DISTRICT": "NUWAKOT", "hlcit_code": "524 3 28 3 001", "munid": 302.0, "districtid": 28.0, "state": 3.0 }, "geometry": { "type": "MultiPoint", "coordinates": [ [ 85.145528288299957, 27.906662427828831, 0.0 ] ] } },
{ "type": "Feature", "properties": { "id": null, "Name": "Kalika-2, Kalikasthan", "description": null, "x": 85.206623144199995, "y": 27.9978977932, "OBJECTID": 2086, "new_ward_n": 2.0, "GaPa_NaP_1": "Kalika", "Type_GN": "Gaunpalika", "type_en": "Rural Municipality", "DISTRICT": "RASUWA", "hlcit_code": "524 3 29 4 004", "munid": 316.0, "districtid": 29.0, "state": 3.0 }, "geometry": { "type": "MultiPoint", "coordinates": [ [ 85.206623144242769, 27.997897793248629, 0.0 ] ] } },
{ "type": "Feature", "properties": { "id": null, "Name": "Uttargaya-1, Mailung Dobhan", "description": null, "x": 85.206598400299995, "y": 28.073364700399999, "OBJECTID": 2081, "new_ward_n": 1.0, "GaPa_NaP_1": "Uttargaya", "Type_GN": "Gaunpalika", "type_en": "Rural Municipality", "DISTRICT": "RASUWA", "hlcit_code": "524 3 29 4 003", "munid": 319.0, "districtid": 29.0, "state": 3.0 }, "geometry": { "type": "MultiPoint", "coordinates": [ [ 85.206598400296002, 28.07336470042064, 0.0 ] ] } },
{ "type": "Feature", "properties": { "id": null, "Name": "Gosaikunda-6, Dhunche", "description": null, "x": 85.294571682699996, "y": 28.1114566215, "OBJECTID": 2101, "new_ward_n": 6.0, "GaPa_NaP_1": "Gosaikunda", "Type_GN": "Gaunpalika", "type_en": "Rural Municipality", "DISTRICT": "RASUWA", "hlcit_code": "524 3 29 4 002", "munid": 315.0, "districtid": 29.0, "state": 3.0 }, "geometry": { "type": "MultiPoint", "coordinates": [ [ 85.294571682737015, 28.1114566215259, 0.0 ] ] } },
{ "type": "Feature", "properties": { "id": null, "Name": "Gosaikunda-5, Shyaphrubesi", "description": null, "x": 85.341815195799995, "y": 28.167032233800001, "OBJECTID": 2103, "new_ward_n": 5.0, "GaPa_NaP_1": "Gosaikunda", "Type_GN": "Gaunpalika", "type_en": "Rural Municipality", "DISTRICT": "RASUWA", "hlcit_code": "524 3 29 4 002", "munid": 315.0, "districtid": 29.0, "state": 3.0 }, "geometry": { "type": "MultiPoint", "coordinates": [ [ 85.341815195814704, 28.16703223375066, 0.0 ] ] } },
{ "type": "Feature", "properties": { "id": null, "Name": "Nuwakot Campus Helipad, Bidur-4, Battar", "description": null, "x": 85.14468838000001, "y": 27.898396587099999, "OBJECTID": 5951, "new_ward_n": 4.0, "GaPa_NaP_1": "Bidur", "Type_GN": "Nagarpalika", "type_en": "Urban Municipality", "DISTRICT": "NUWAKOT", "hlcit_code": "524 3 28 3 001", "munid": 302.0, "districtid": 28.0, "state": 3.0 }, "geometry": { "type": "MultiPoint", "coordinates": [ [ 85.144688379964791, 27.898396587132801, 0.0 ] ] } },
{ "type": "Feature", "properties": { "id": null, "Name": "Nepali Army Helipad, Bidur-4, Damki", "description": null, "x": 85.143704216800003, "y": 27.9054702631, "OBJECTID": 5951, "new_ward_n": 4.0, "GaPa_NaP_1": "Bidur", "Type_GN": "Nagarpalika", "type_en": "Urban Municipality", "DISTRICT": "NUWAKOT", "hlcit_code": "524 3 28 3 001", "munid": 302.0, "districtid": 28.0, "state": 3.0 }, "geometry": { "type": "MultiPoint", "coordinates": [ [ 85.143704216776243, 27.90547026314222, 0.0 ] ] } },
{ "type": "Feature", "properties": { "id": null, "Name": "Gosaikunda-5, Narkkoti", "description": null, "x": 85.331849294700007, "y": 28.162274079100001, "OBJECTID": 2103, "new_ward_n": 5.0, "GaPa_NaP_1": "Gosaikunda", "Type_GN": "Gaunpalika", "type_en": "Rural Municipality", "DISTRICT": "RASUWA", "hlcit_code": "524 3 29 4 002", "munid": 315.0, "districtid": 29.0, "state": 3.0 }, "geometry": { "type": "MultiPoint", "coordinates": [ [ 85.33184929470923, 28.162274079085549, 0.0 ] ] } },
{ "type": "Feature", "properties": { "id": null, "Name": "Bidur-7, Akkare Bajar", "description": null, "x": 85.1693835178, "y": 27.964440482400001, "OBJECTID": 6018, "new_ward_n": 7.0, "GaPa_NaP_1": "Bidur", "Type_GN": "Nagarpalika", "type_en": "Urban Municipality", "DISTRICT": "NUWAKOT", "hlcit_code": "524 3 28 3 001", "munid": 302.0, "districtid": 28.0, "state": 3.0 }, "geometry": { "type": "MultiPoint", "coordinates": [ [ 85.169383517835101, 27.964440482442349, 0.0 ] ] } },
{ "type": "Feature", "properties": { "id": null, "Name": "Bidur-10, Gairikharka", "description": null, "x": 85.166525655800001, "y": 27.951155734, "OBJECTID": 5971, "new_ward_n": 10.0, "GaPa_NaP_1": "Bidur", "Type_GN": "Nagarpalika", "type_en": "Urban Municipality", "DISTRICT": "NUWAKOT", "hlcit_code": "524 3 28 3 001", "munid": 302.0, "districtid": 28.0, "state": 3.0 }, "geometry": { "type": "MultiPoint", "coordinates": [ [ 85.166525655834405, 27.951155734049959, 0.0 ] ] } },
{ "type": "Feature", "properties": { "id": null, "Name": "Bidur-1, Rimalghat", "description": null, "x": 85.157237674499996, "y": 27.9339734255, "OBJECTID": 5949, "new_ward_n": 1.0, "GaPa_NaP_1": "Bidur", "Type_GN": "Nagarpalika", "type_en": "Urban Municipality", "DISTRICT": "NUWAKOT", "hlcit_code": "524 3 28 3 001", "munid": 302.0, "districtid": 28.0, "state": 3.0 }, "geometry": { "type": "MultiPoint", "coordinates": [ [ 85.157237674479191, 27.933973425533239, 0.0 ] ] } },
{ "type": "Feature", "properties": { "id": null, "Name": "Tarkeshwar-4, Darshantar", "description": null, "x": 85.052881256199996, "y": 27.8591848248, "OBJECTID": 5956, "new_ward_n": 4.0, "GaPa_NaP_1": "Tarkeshwar", "Type_GN": "Gaunpalika", "type_en": "Rural Municipality", "DISTRICT": "NUWAKOT", "hlcit_code": "524 3 28 4 003", "munid": 312.0, "districtid": 28.0, "state": 3.0 }, "geometry": { "type": "MultiPoint", "coordinates": [ [ 85.052881256165122, 27.859184824819859, 0.0 ] ] } },
{ "type": "Feature", "properties": { "id": null, "Name": "Siddhalek-7, Sindurtar", "description": null, "x": 84.911131390500003, "y": 27.806255501900001, "OBJECTID": 1554, "new_ward_n": 7.0, "GaPa_NaP_1": "Siddhalek", "Type_GN": "Gaunpalika", "type_en": "Rural Municipality", "DISTRICT": "DHADING", "hlcit_code": "524 3 30 4 007", "munid": 330.0, "districtid": 30.0, "state": 3.0 }, "geometry": { "type": "MultiPoint", "coordinates": [ [ 84.911131390501353, 27.80625550188995, 0.0 ] ] } },
{ "type": "Feature", "properties": { "id": null, "Name": "Gajuri-5, Galaudu Khola", "description": null, "x": 84.893561755700006, "y": 27.807129605099998, "OBJECTID": 1590, "new_ward_n": 5.0, "GaPa_NaP_1": "Gajuri", "Type_GN": "Gaunpalika", "type_en": "Rural Municipality", "DISTRICT": "DHADING", "hlcit_code": "524 3 30 4 009", "munid": 322.0, "districtid": 30.0, "state": 3.0 }, "geometry": { "type": "MultiPoint", "coordinates": [ [ 84.893561755670532, 27.80712960514721, 0.0 ] ] } }
]
}
