{
"type": "FeatureCollection",
"name": "settlements_clip_combined_buffer100m",
"crs": { "type": "name", "properties": { "name": "urn:ogc:def:crs:EPSG::32645" } },
"features": [
{ "type": "Feature", "properties": { "OBJECTID": 120, "SETTL_NAME": "Dhusatar", "SETTL_NA_1": null, "SHEET_NO": null }, "geometry": { "type": "Point", "coordinates": [ 277823.273599999956787, 3077007.131899999454618 ] } },
{ "type": "Feature", "properties": { "OBJECTID": 108, "SETTL_NAME": "Chaukitar", "SETTL_NA_1": null, "SHEET_NO": null }, "geometry": { "type": "Point", "coordinates": [ 273140.017500000074506, 3077841.973799999803305 ] } },
{ "type": "Feature", "properties": { "OBJECTID": 163, "SETTL_NAME": "Badarebajar", "SETTL_NA_1": "Baḍare bajār", "SHEET_NO": null }, "geometry": { "type": "Point", "coordinates": [ 280717.736499999649823, 3077853.566700000315905 ] } },
{ "type": "Feature", "properties": { "OBJECTID": 344, "SETTL_NAME": "Galchhi Bajar", "SETTL_NA_1": "Galchī Bajār", "SHEET_NO": null }, "geometry": { "type": "Point", "coordinates": [ 303008.872899999842048, 3076651.4331 ] } },
{ "type": "Feature", "properties": { "OBJECTID": 174, "SETTL_NAME": "Chalise", "SETTL_NA_1": "Chālīse", "SHEET_NO": null }, "geometry": { "type": "Point", "coordinates": [ 290058.945299999788404, 3076949.066600000485778 ] } },
{ "type": "Feature", "properties": { "OBJECTID": 169, "SETTL_NAME": "Gobretar", "SETTL_NA_1": "Gobreṭār", "SHEET_NO": null }, "geometry": { "type": "Point", "coordinates": [ 289581.968299999833107, 3077360.615800000727177 ] } },
{ "type": "Feature", "properties": { "OBJECTID": 118, "SETTL_NAME": "Khatritar", "SETTL_NA_1": null, "SHEET_NO": null }, "geometry": { "type": "Point", "coordinates": [ 277499.981100000441074, 3077227.64750000089407 ] } },
{ "type": "Feature", "properties": { "OBJECTID": 119, "SETTL_NAME": "Kalatar", "SETTL_NA_1": null, "SHEET_NO": null }, "geometry": { "type": "Point", "coordinates": [ 274576.781600000336766, 3077286.565199999138713 ] } },
{ "type": "Feature", "properties": { "OBJECTID": 114, "SETTL_NAME": "Dhobadighat", "SETTL_NA_1": null, "SHEET_NO": null }, "geometry": { "type": "Point", "coordinates": [ 277089.968299999833107, 3077625.380000000819564 ] } },
{ "type": "Feature", "properties": { "OBJECTID": 164, "SETTL_NAME": "Ghumaune", "SETTL_NA_1": "Ghumaune", "SHEET_NO": null }, "geometry": { "type": "Point", "coordinates": [ 285019.005099999718368, 3077660.927699999883771 ] } },
{ "type": "Feature", "properties": { "OBJECTID": 112, "SETTL_NAME": "Pudaliphat", "SETTL_NA_1": null, "SHEET_NO": null }, "geometry": { "type": "Point", "coordinates": [ 275101.285699999891222, 3077683.982300000265241 ] } },
{ "type": "Feature", "properties": { "OBJECTID": 158, "SETTL_NAME": "Malekhu", "SETTL_NA_1": "Maleku", "SHEET_NO": null }, "geometry": { "type": "Point", "coordinates": [ 286225.109699999913573, 3077919.070000000298023 ] } },
{ "type": "Feature", "properties": { "OBJECTID": 156, "SETTL_NAME": "Bishaltar", "SETTL_NA_1": "Bishālṭār", "SHEET_NO": null }, "geometry": { "type": "Point", "coordinates": [ 280224.434600000269711, 3078084.466399999335408 ] } },
{ "type": "Feature", "properties": { "OBJECTID": 155, "SETTL_NAME": "Arubāstār", "SETTL_NA_1": "Arubāstār", "SHEET_NO": null }, "geometry": { "type": "Point", "coordinates": [ 285104.537499999627471, 3078142.031199999153614 ] } },
{ "type": "Feature", "properties": { "OBJECTID": 147, "SETTL_NAME": "Benighat", "SETTL_NA_1": "Benighāṭ", "SHEET_NO": null }, "geometry": { "type": "Point", "coordinates": [ 281574.089999999850988, 3078381.624800000339746 ] } },
{ "type": "Feature", "properties": { "OBJECTID": 334, "SETTL_NAME": "Keureni", "SETTL_NA_1": "Keurenī", "SHEET_NO": null }, "geometry": { "type": "Point", "coordinates": [ 305011.315799999982119, 3079467.013299999758601 ] } },
{ "type": "Feature", "properties": { "OBJECTID": 151, "SETTL_NAME": "Richoktar", "SETTL_NA_1": "Richokṭār", "SHEET_NO": null }, "geometry": { "type": "Point", "coordinates": [ 286032.578200000338256, 3078176.374099999666214 ] } },
{ "type": "Feature", "properties": { "OBJECTID": 187, "SETTL_NAME": "Belkhu", "SETTL_NA_1": "Belkhu", "SHEET_NO": null }, "geometry": { "type": "Point", "coordinates": [ 298477.675999999977648, 3078322.63289999961853 ] } },
{ "type": "Feature", "properties": { "OBJECTID": 144, "SETTL_NAME": "Salanghat", "SETTL_NA_1": "Salanghāṭ", "SHEET_NO": null }, "geometry": { "type": "Point", "coordinates": [ 283891.35840000025928, 3078592.601199999451637 ] } },
{ "type": "Feature", "properties": { "OBJECTID": 329, "SETTL_NAME": "Baguwa", "SETTL_NA_1": "Baguwā", "SHEET_NO": null }, "geometry": { "type": "Point", "coordinates": [ 304903.098899999633431, 3080236.928300000727177 ] } },
{ "type": "Feature", "properties": { "OBJECTID": 328, "SETTL_NAME": "Pimaltar", "SETTL_NA_1": "Pimalṭār", "SHEET_NO": null }, "geometry": { "type": "Point", "coordinates": [ 304963.813699999824166, 3080827.651000000536442 ] } },
{ "type": "Feature", "properties": { "OBJECTID": 317, "SETTL_NAME": "Chanaute", "SETTL_NA_1": "Chanauṭe", "SHEET_NO": null }, "geometry": { "type": "Point", "coordinates": [ 310512.134600000455976, 3082176.394300000742078 ] } },
{ "type": "Feature", "properties": { "OBJECTID": 318, "SETTL_NAME": "Birtaphat", "SETTL_NA_1": "Birtāphāṭ", "SHEET_NO": null }, "geometry": { "type": "Point", "coordinates": [ 305809.518000000156462, 3082288.224300000816584 ] } },
{ "type": "Feature", "properties": { "OBJECTID": 314, "SETTL_NAME": "Gairigaun", "SETTL_NA_1": "Gairigāūn", "SHEET_NO": null }, "geometry": { "type": "Point", "coordinates": [ 307261.083499999716878, 3082362.738500000908971 ] } },
{ "type": "Feature", "properties": { "OBJECTID": 308, "SETTL_NAME": "Mahadevphant", "SETTL_NA_1": "Mahādevphānṭ", "SHEET_NO": null }, "geometry": { "type": "Point", "coordinates": [ 309181.619300000369549, 3082765.132099999114871 ] } },
{ "type": "Feature", "properties": { "OBJECTID": 304, "SETTL_NAME": "Besithok", "SETTL_NA_1": "Besīthok", "SHEET_NO": null }, "geometry": { "type": "Point", "coordinates": [ 313953.835900000296533, 3082794.121799999848008 ] } },
{ "type": "Feature", "properties": { "OBJECTID": 306, "SETTL_NAME": "Dhodbesi", "SETTL_NA_1": "Dhoḍbesī", "SHEET_NO": null }, "geometry": { "type": "Point", "coordinates": [ 306654.370699999853969, 3082883.5077 ] } },
{ "type": "Feature", "properties": { "OBJECTID": 302, "SETTL_NAME": "Kashitar", "SETTL_NA_1": "Kāshiṭār", "SHEET_NO": null }, "geometry": { "type": "Point", "coordinates": [ 312438.755499999970198, 3082956.992599999532104 ] } },
{ "type": "Feature", "properties": { "OBJECTID": 79, "SETTL_NAME": "Buttar", "SETTL_NA_1": null, "SHEET_NO": null }, "geometry": { "type": "Point", "coordinates": [ 267749.582499999552965, 3084072.498400000855327 ] } },
{ "type": "Feature", "properties": { "OBJECTID": 50, "SETTL_NAME": "Thokuwatar", "SETTL_NA_1": null, "SHEET_NO": null }, "geometry": { "type": "Point", "coordinates": [ 264444.217600000090897, 3085433.002299999818206 ] } },
{ "type": "Feature", "properties": { "OBJECTID": 45, "SETTL_NAME": "Kurintar", "SETTL_NA_1": null, "SHEET_NO": "278403A" }, "geometry": { "type": "Point", "coordinates": [ 265130.797100000083447, 3085937.675799999386072 ] } },
{ "type": "Feature", "properties": { "OBJECTID": 299, "SETTL_NAME": "Devighat", "SETTL_NA_1": "Devighāṭ", "SHEET_NO": null }, "geometry": { "type": "Point", "coordinates": [ 314082.430800000205636, 3083274.111700000241399 ] } },
{ "type": "Feature", "properties": { "OBJECTID": 298, "SETTL_NAME": "Kumaltar", "SETTL_NA_1": "Kumalṭār", "SHEET_NO": null }, "geometry": { "type": "Point", "coordinates": [ 311893.036199999973178, 3083358.216900000348687 ] } },
{ "type": "Feature", "properties": { "OBJECTID": 287, "SETTL_NAME": "Bhorletar", "SETTL_NA_1": "Bhorleṭār", "SHEET_NO": null }, "geometry": { "type": "Point", "coordinates": [ 315390.308899999596179, 3085186.880799999460578 ] } },
{ "type": "Feature", "properties": { "OBJECTID": 289, "SETTL_NAME": "Buhanibesi", "SETTL_NA_1": "Buhānībesī", "SHEET_NO": null }, "geometry": { "type": "Point", "coordinates": [ 314842.176300000399351, 3084738.4276 ] } },
{ "type": "Feature", "properties": { "OBJECTID": 277, "SETTL_NAME": "Devighat Koloni", "SETTL_NA_1": "Devighāṭ Kolonī", "SHEET_NO": null }, "geometry": { "type": "Point", "coordinates": [ 316617.496700000017881, 3087140.601700000464916 ] } },
{ "type": "Feature", "properties": { "OBJECTID": 267, "SETTL_NAME": "Dhunge Bajar", "SETTL_NA_1": "Ḍhuṅge Bajār", "SHEET_NO": null }, "geometry": { "type": "Point", "coordinates": [ 317631.409699999727309, 3089696.42369999922812 ] } },
{ "type": "Feature", "properties": { "OBJECTID": 265, "SETTL_NAME": "Bandre", "SETTL_NA_1": "Bāndre", "SHEET_NO": null }, "geometry": { "type": "Point", "coordinates": [ 318136.451200000010431, 3089904.3432 ] } },
{ "type": "Feature", "properties": { "OBJECTID": 264, "SETTL_NAME": "Trishuli Bajar", "SETTL_NA_1": "Trishulī Bajār", "SHEET_NO": null }, "geometry": { "type": "Point", "coordinates": [ 318070.852300000376999, 3090150.7653 ] } },
{ "type": "Feature", "properties": { "OBJECTID": 252, "SETTL_NAME": "Distiltyank Bajar", "SETTL_NA_1": "Disṭiṭyāṅk Bajār", "SHEET_NO": null }, "geometry": { "type": "Point", "coordinates": [ 319039.290599999949336, 3092622.134400000795722 ] } },
{ "type": "Feature", "properties": { "OBJECTID": 249, "SETTL_NAME": "Angutar", "SETTL_NA_1": "Aṅguṭār", "SHEET_NO": null }, "geometry": { "type": "Point", "coordinates": [ 319132.124800000339746, 3093291.773499999195337 ] } },
{ "type": "Feature", "properties": { "OBJECTID": 245, "SETTL_NAME": "Bhainse", "SETTL_NA_1": "Bhainse", "SHEET_NO": null }, "geometry": { "type": "Point", "coordinates": [ 320336.368700000457466, 3094465.746600000187755 ] } },
{ "type": "Feature", "properties": { "OBJECTID": 243, "SETTL_NAME": "Chhipitar", "SETTL_NA_1": "Chhipiṭār", "SHEET_NO": null }, "geometry": { "type": "Point", "coordinates": [ 320622.621199999935925, 3094931.32909999974072 ] } },
{ "type": "Feature", "properties": { "OBJECTID": 241, "SETTL_NAME": "Agitar", "SETTL_NA_1": "Āgīṭār", "SHEET_NO": null }, "geometry": { "type": "Point", "coordinates": [ 321057.946899999864399, 3095042.164000000804663 ] } },
{ "type": "Feature", "properties": { "OBJECTID": 240, "SETTL_NAME": "Satbise", "SETTL_NA_1": "Sātbise", "SHEET_NO": null }, "geometry": { "type": "Point", "coordinates": [ 321524.688799999654293, 3095302.011399999260902 ] } },
{ "type": "Feature", "properties": { "OBJECTID": 237, "SETTL_NAME": "Betrawati", "SETTL_NA_1": "Betrāwatī", "SHEET_NO": null }, "geometry": { "type": "Point", "coordinates": [ 321623.440499999560416, 3095573.398900000378489 ] } },
{ "type": "Feature", "properties": { "OBJECTID": 238, "SETTL_NAME": "Karmetar", "SETTL_NA_1": "Karmeṭār", "SHEET_NO": null }, "geometry": { "type": "Point", "coordinates": [ 321062.111700000241399, 3095583.189799999818206 ] } },
{ "type": "Feature", "properties": { "OBJECTID": 231, "SETTL_NAME": "Sole Bajar", "SETTL_NA_1": "Sole Bajār", "SHEET_NO": null }, "geometry": { "type": "Point", "coordinates": [ 320880.699300000444055, 3096445.851500000804663 ] } },
{ "type": "Feature", "properties": { "OBJECTID": 229, "SETTL_NAME": "Jagatedanda", "SETTL_NA_1": "Jagateḍānḍā", "SHEET_NO": null }, "geometry": { "type": "Point", "coordinates": [ 320926.114099999889731, 3096754.8092 ] } },
{ "type": "Feature", "properties": { "OBJECTID": 227, "SETTL_NAME": "Choktar", "SETTL_NA_1": "Chokṭār", "SHEET_NO": null }, "geometry": { "type": "Point", "coordinates": [ 321402.976700000464916, 3097263.460699999704957 ] } },
{ "type": "Feature", "properties": { "OBJECTID": 371, "SETTL_NAME": "Gigang", "SETTL_NA_1": "Gigāṅ", "SHEET_NO": null }, "geometry": { "type": "Point", "coordinates": [ 329265.868400000035763, 3108993.52930000051856 ] } },
{ "type": "Feature", "properties": { "OBJECTID": 379, "SETTL_NAME": "Syāphrubesīdhuṇgribajār", "SETTL_NA_1": "Syāphrubesīdhuṇgribajār", "SHEET_NO": null }, "geometry": { "type": "Point", "coordinates": [ 337153.789800000376999, 3116541.940700000151992 ] } },
{ "type": "Feature", "properties": { "OBJECTID": 377, "SETTL_NAME": "Wangal", "SETTL_NA_1": "Wāṅgāl", "SHEET_NO": null }, "geometry": { "type": "Point", "coordinates": [ 337408.780299999751151, 3118043.178300000727177 ] } },
{ "type": "Feature", "properties": { "OBJECTID": 347, "SETTL_NAME": "Timure(sedang)", "SETTL_NA_1": "Ṭimure(sedān)", "SHEET_NO": null }, "geometry": { "type": "Point", "coordinates": [ 339650.762500000186265, 3126484.833200000226498 ] } },
{ "type": "Feature", "properties": { "OBJECTID": 352, "SETTL_NAME": "Ghattekholagaun", "SETTL_NA_1": "Ghaṭṭekholāgāũ", "SHEET_NO": null }, "geometry": { "type": "Point", "coordinates": [ 340399.125300000421703, 3127556.537100000306964 ] } },
{ "type": "Feature", "properties": { "OBJECTID": 351, "SETTL_NAME": "Bedang", "SETTL_NA_1": "Bedāṅ", "SHEET_NO": null }, "geometry": { "type": "Point", "coordinates": [ 340719.435499999672174, 3128345.5976 ] } },
{ "type": "Feature", "properties": { "OBJECTID": 350, "SETTL_NAME": "Rasuwagadhi", "SETTL_NA_1": "Rasuwāgaḍhī", "SHEET_NO": null }, "geometry": { "type": "Point", "coordinates": [ 340665.025500000454485, 3128880.7007 ] } }
]
}
