{
"type": "FeatureCollection",
"name": "ntc_towers_in_flood_extent_buffer100m",
"crs": { "type": "name", "properties": { "name": "urn:ogc:def:crs:OGC:1.3:CRS84" } },
"features": [
{ "type": "Feature", "properties": { "Site ID": "CDR1057", "Site Name": "CDR1057_MalekhuBazarMicro", "District": "DHADING", "Latitude": 27.807692, "Longitude": 84.851069 }, "geometry": { "type": "Point", "coordinates": [ 84.851069, 27.807692 ] } },
{ "type": "Feature", "properties": { "Site ID": "CDR1065", "Site Name": "CDR1065_CHILIME KHOLA_3G", "District": "RASUWA", "Latitude": 28.18094, "Longitude": 85.3418 }, "geometry": { "type": "Point", "coordinates": [ 85.3418, 28.18094 ] } },
{ "type": "Feature", "properties": { "Site ID": "CDR390", "Site Name": "TRISULI BAZAR", "District": "NUWAKOT", "Latitude": 27.92111, "Longitude": 85.15031 }, "geometry": { "type": "Point", "coordinates": [ 85.15031, 27.92111 ] } },
{ "type": "Feature", "properties": { "Site ID": "CDR957", "Site Name": "CDR957_Trishuli 3B", "District": "NUWAKOT", "Latitude": 27.995951, "Longitude": 85.183459 }, "geometry": { "type": "Point", "coordinates": [ 85.183459, 27.995951 ] } }
]
}
