<?xml version="1.0" encoding="UTF-8"?>
<kml xmlns="http://www.opengis.net/kml/2.2" xmlns:gx="http://www.google.com/kml/ext/2.2" xmlns:kml="http://www.opengis.net/kml/2.2" xmlns:atom="http://www.w3.org/2005/Atom">
<Document>
	<name>hydropower_damage_status_ar_31aug2026.shp</name>
	<atom:link rel="app" href="https://www.google.com/earth/about/versions/#earth-pro" title="Google Earth Pro 7.3.7.1155"></atom:link>
	<Schema name="hydropower_damage_status_ar_31aug2026" id="S_hydropower_damage_status_ar_31aug2026_SS">
		<SimpleField type="long" name="id_2">
			<displayName>&lt;b&gt;id&lt;/b&gt;</displayName>
		</SimpleField>
		<SimpleField type="string" name="Name">
			<displayName>&lt;b&gt;Name&lt;/b&gt;</displayName>
		</SimpleField>
		<SimpleField type="string" name="Damage_Sta">
			<displayName>&lt;b&gt;Damage_Sta&lt;/b&gt;</displayName>
		</SimpleField>
	</Schema>
	<Style id="falseColor">
		<BalloonStyle>
			<text><![CDATA[<table border="0">
  <tr><td><b>id</b></td><td>$[hydropower_damage_status_ar_31aug2026/id_2]</td></tr>
  <tr><td><b>Name</b></td><td>$[hydropower_damage_status_ar_31aug2026/Name]</td></tr>
  <tr><td><b>Damage_Sta</b></td><td>$[hydropower_damage_status_ar_31aug2026/Damage_Sta]</td></tr>
</table>
]]></text>
		</BalloonStyle>
		<PolyStyle>
			<colorMode>random</colorMode>
		</PolyStyle>
	</Style>
	<Folder id="layer 0">
		<name>hydropower_damage_status_ar_31aug2026</name>
		<Placemark>
			<name>Langtang Khola Hydroelectric Project</name>
			<styleUrl>#falseColor</styleUrl>
			<Style id="inline">
				<IconStyle>
					<color>ffffffff</color>
					<colorMode>normal</colorMode>
				</IconStyle>
				<LineStyle>
					<color>ffffffff</color>
					<colorMode>normal</colorMode>
				</LineStyle>
				<PolyStyle>
					<color>ffffffff</color>
					<colorMode>normal</colorMode>
				</PolyStyle>
			</Style>
			<ExtendedData>
				<SchemaData schemaUrl="#S_hydropower_damage_status_ar_31aug2026_SS">
					<SimpleData name="id_2">1</SimpleData>
					<SimpleData name="Name">Langtang Khola Hydroelectric Project</SimpleData>
					<SimpleData name="Damage_Sta">Fully damaged</SimpleData>
				</SchemaData>
			</ExtendedData>
			<Polygon>
				<outerBoundaryIs>
					<LinearRing>
						<coordinates>
							85.33977126937361,28.16324899716705,0 85.34001554245346,28.16338131175198,0 85.34015803508339,28.16343559465859,0 85.34048033984151,28.16327274593872,0 85.34082639337134,28.16334738493531,0 85.3412877980777,28.16344916538526,0 85.34182384178077,28.16350005561021,0 85.34233274403043,28.16364933360346,0 85.34238363425538,28.16380878964175,0 85.34223435626218,28.16398860176998,0 85.34200704659065,28.16417180657986,0 85.34170849060412,28.16425323093979,0 85.34153546383924,28.16430751384644,0 85.34119958835441,28.16439572356973,0 85.34085353482466,28.1644059016147,0 85.34050748129484,28.16435501138974,0 85.34024963748833,28.16429394311978,0 85.33998500831846,28.16419555535153,0 85.33964574015199,28.16405306272159,0 85.33957788651868,28.1640123505416,0 85.33948967679544,28.16391396277335,0 85.33940825243546,28.16374772137175,0 85.33939128902718,28.16351362633691,0 85.33950664020375,28.16307597040214,0 85.33977126937361,28.16324899716705,0 
						</coordinates>
					</LinearRing>
				</outerBoundaryIs>
			</Polygon>
		</Placemark>
		<Placemark>
			<name>Rasuwagadhi Hydropower Project</name>
			<styleUrl>#falseColor</styleUrl>
			<Style id="inline">
				<IconStyle>
					<color>ffffffff</color>
					<colorMode>normal</colorMode>
				</IconStyle>
				<LineStyle>
					<color>ffffffff</color>
					<colorMode>normal</colorMode>
				</LineStyle>
				<PolyStyle>
					<color>ffffffff</color>
					<colorMode>normal</colorMode>
				</PolyStyle>
			</Style>
			<ExtendedData>
				<SchemaData schemaUrl="#S_hydropower_damage_status_ar_31aug2026_SS">
					<SimpleData name="id_2">1</SimpleData>
					<SimpleData name="Name">Rasuwagadhi Hydropower Project</SimpleData>
					<SimpleData name="Damage_Sta">Fully damaged</SimpleData>
				</SchemaData>
			</ExtendedData>
			<Polygon>
				<outerBoundaryIs>
					<LinearRing>
						<coordinates>
							85.37610689000262,28.26891915663706,0 85.37636812649077,28.26858667383393,0 85.37672096538391,28.26818294471583,0 85.37689399214884,28.26811169840087,0 85.37732825540195,28.26850864215565,0 85.37779305278997,28.26913628826362,0 85.37811196486643,28.26950948324674,0 85.37825445749637,28.26975375632658,0 85.37842409157963,28.27017444885299,0 85.37838337939961,28.27069692182936,0 85.37850551593952,28.27126010698571,0 85.37868872074945,28.27194542868198,0 85.37877693047274,28.27236612120844,0 85.37872264756608,28.27288180882149,0 85.37842409157963,28.27370962314765,0 85.37834945258301,28.27416424249071,0 85.37828838431301,28.27464600328712,0 85.37809160877646,28.27537203716334,0 85.37781340887994,28.27617949539957,0 85.37776591133668,28.27666804155926,0 85.37790840396654,28.27695302681913,0 85.37821374531643,28.27753656806546,0 85.37832231112968,28.27797083131853,0 85.37847158912292,28.2786561530148,0 85.37853265739285,28.27902256263461,0 85.37893977919265,28.2791582699012,0 85.37953010580232,28.27957217706426,0 85.38020185677193,28.2799250159574,0 85.38072432974825,28.28029142557721,0 85.38119930518131,28.28066462056028,0 85.38193890978424,28.28153314706644,0 85.38204747559753,28.28188598595962,0 85.38191176833095,28.28213025903946,0 85.38124680272462,28.28235417602933,0 85.38080236142657,28.28204544199783,0 85.38004918609698,28.28157725192812,0 85.37930279613079,28.28109209845009,0 85.37902459623423,28.28096317654682,0 85.37865479393281,28.28084104000686,0 85.37832231112964,28.28078675710024,0 85.37811196486643,28.28069854737696,0 85.37783376496992,28.28084782537021,0 85.37769127234002,28.28077997173689,0 85.37754199434677,28.28108531308674,0 85.37729432858528,28.28132619348493,0 85.37696184578211,28.28168921042304,0 85.37642919476077,28.28226596630605,0 85.37593386323773,28.28243560038931,0 85.37569637552116,28.28231346384935,0 85.37540799757971,28.28178759819133,0 85.37563530725116,28.2812990520316,0 85.37604582173265,28.28097335459178,0 85.37624938263251,28.28064087178866,0 85.37655472398235,28.28003697445236,0 85.37676846292722,28.27968752824087,0 85.37696184578211,28.27913452112952,0 85.37695506041875,28.27881900173467,0 85.37662597029733,28.27836777507328,0 85.37666668247726,28.27809636054015,0 85.37659543616233,28.27784190941526,0 85.37657168739067,28.27757388756375,0 85.37645972889571,28.27732282912055,0 85.37636812649077,28.27706159263239,0 85.37637830453578,28.27660358060765,0 85.3765038337574,28.27619985148955,0 85.37659882884395,28.27587754673143,0 85.37679221169888,28.27553827856494,0 85.37681935315221,28.27531096889338,0 85.37683970924218,28.27504973240518,0 85.37676846292722,28.27486313491364,0 85.37660561420735,28.27473082032871,0 85.37632741431082,28.27464261060543,0 85.37622902654253,28.27460529110713,0 85.37616795827257,28.27446958384055,0 85.37631384358417,28.27428298634901,0 85.37641223135246,28.2740115718158,0 85.37648687034904,28.27385211577759,0 85.37649704839409,28.27362141342437,0 85.37644615816909,28.27298358927139,0 85.37645633621406,28.27272913814654,0 85.37645633621406,28.2723186236651,0 85.3763986606258,28.27176222387209,0 85.3764529435324,28.2716197312422,0 85.37650722643906,28.27129742648404,0 85.376659897114,28.27109725826584,0 85.376558116664,28.27097172904422,0 85.37631723626582,28.27105993876751,0 85.37613063877428,28.27098529977089,0 85.37608992659433,28.27095137295425,0 85.37604582173265,28.27078852423434,0 85.37624938263251,28.26961465637834,0 85.37610689000262,28.26891915663706,0 
						</coordinates>
					</LinearRing>
				</outerBoundaryIs>
			</Polygon>
		</Placemark>
		<Placemark>
			<name>Chilime Hydropower Project</name>
			<styleUrl>#falseColor</styleUrl>
			<Style id="inline">
				<IconStyle>
					<color>ffffffff</color>
					<colorMode>normal</colorMode>
				</IconStyle>
				<LineStyle>
					<color>ffffffff</color>
					<colorMode>normal</colorMode>
				</LineStyle>
				<PolyStyle>
					<color>ffffffff</color>
					<colorMode>normal</colorMode>
				</PolyStyle>
			</Style>
			<ExtendedData>
				<SchemaData schemaUrl="#S_hydropower_damage_status_ar_31aug2026_SS">
					<SimpleData name="id_2">1</SimpleData>
					<SimpleData name="Name">Chilime Hydropower Project</SimpleData>
					<SimpleData name="Damage_Sta">Fully damaged</SimpleData>
				</SchemaData>
			</ExtendedData>
			<Polygon>
				<outerBoundaryIs>
					<LinearRing>
						<coordinates>
							85.34294342672992,28.17943802590062,0 85.34297056818325,28.17968229898047,0 85.34291628527659,28.17989943060703,0 85.34299770963661,28.18034726458677,0 85.34322841198978,28.18113436673299,0 85.34340483143636,28.18158220071273,0 85.34356768015623,28.18201646396581,0 85.34381195323611,28.18261357593879,0 85.3437440996028,28.18302069773854,0 85.34341840216302,28.1831292635518,0 85.3428348609167,28.18274928320541,0 85.3421563245837,28.18266785884544,0 85.34188491005057,28.18265428811878,0 85.34143707607079,28.18270857102543,0 85.34082639337117,28.1828714197453,0 85.33987644250504,28.18322425863844,0 85.33900791599889,28.18337353663168,0 85.33831580893927,28.18329211227175,0 85.3377865505996,28.18312926355184,0 85.33735228734652,28.18261357593879,0 85.33709444353998,28.18184004451923,0 85.3376779847863,28.1817586201593,0 85.33876364291898,28.18186718597256,0 85.3391707647188,28.1818671859726,0 85.33989001323171,28.18174504943264,0 85.34036498866477,28.18139221053953,0 85.34093495918444,28.18091723510647,0 85.34154564188405,28.18025226950017,0 85.34192562223052,28.17935660154065,0 85.34294342672992,28.17943802590062,0 
						</coordinates>
					</LinearRing>
				</outerBoundaryIs>
			</Polygon>
		</Placemark>
		<Placemark>
			<name>Mailun Khola Hydropower Project</name>
			<styleUrl>#falseColor</styleUrl>
			<Style id="inline">
				<IconStyle>
					<color>ffffffff</color>
					<colorMode>normal</colorMode>
				</IconStyle>
				<LineStyle>
					<color>ffffffff</color>
					<colorMode>normal</colorMode>
				</LineStyle>
				<PolyStyle>
					<color>ffffffff</color>
					<colorMode>normal</colorMode>
				</PolyStyle>
			</Style>
			<ExtendedData>
				<SchemaData schemaUrl="#S_hydropower_damage_status_ar_31aug2026_SS">
					<SimpleData name="id_2">1</SimpleData>
					<SimpleData name="Name">Mailun Khola Hydropower Project</SimpleData>
					<SimpleData name="Damage_Sta">Fully damaged</SimpleData>
				</SchemaData>
			</ExtendedData>
			<Polygon>
				<outerBoundaryIs>
					<LinearRing>
						<coordinates>
							85.20909874237526,28.07140995267353,0 85.20969585434825,28.07180350374666,0 85.20994012742814,28.0720409914632,0 85.21006904933137,28.07225812308975,0 85.21023189805128,28.07259739125623,0 85.21036760531786,28.07295701551269,0 85.21050331258448,28.07320128859253,0 85.21077472711761,28.07346591776239,0 85.2120843022402,28.07441586862852,0 85.2119893071536,28.07463978561835,0 85.2119893071536,28.07474835143165,0 85.2118400291604,28.07480941970161,0 85.21141255127058,28.07473478070499,0 85.2108765075676,28.07462621489173,0 85.21029975168459,28.07442943935514,0 85.20985191770485,28.07428694672524,0 85.2094447959051,28.07408338582535,0 85.20894946438206,28.07380518592883,0 85.20881375711544,28.0734727031257,0 85.20864412303217,28.07292987405937,0 85.20855591330893,28.07210205973316,0 85.20858984012557,28.0711860356837,0 85.20909874237526,28.07140995267353,0 
						</coordinates>
					</LinearRing>
				</outerBoundaryIs>
			</Polygon>
		</Placemark>
		<Placemark>
			<name>Devighat Hydropower Project</name>
			<styleUrl>#falseColor</styleUrl>
			<Style id="inline">
				<IconStyle>
					<color>ffffffff</color>
					<colorMode>normal</colorMode>
				</IconStyle>
				<LineStyle>
					<color>ffffffff</color>
					<colorMode>normal</colorMode>
				</LineStyle>
				<PolyStyle>
					<color>ffffffff</color>
					<colorMode>normal</colorMode>
				</PolyStyle>
			</Style>
			<ExtendedData>
				<SchemaData schemaUrl="#S_hydropower_damage_status_ar_31aug2026_SS">
					<SimpleData name="id_2">1</SimpleData>
					<SimpleData name="Name">Devighat Hydropower Project</SimpleData>
					<SimpleData name="Damage_Sta">Fully damaged</SimpleData>
				</SchemaData>
			</ExtendedData>
			<Polygon>
				<outerBoundaryIs>
					<LinearRing>
						<coordinates>
							85.1329025048672,27.88776070148085,0 85.13262430497072,27.887516428401,0 85.13301785604381,27.88687181888468,0 85.13315971289045,27.88672239633954,0 85.13318962106234,27.88669089306515,0 85.1364207157535,27.88907027660343,0 85.13635286212023,27.88959953494314,0 85.13639357430021,27.88993201774627,0 85.13633250603021,27.89030521272939,0 85.1362646523969,27.89049520290258,0 85.13616287194704,27.89065126625918,0 85.13600002322708,27.89073269061912,0 85.13576932087391,27.89086161252239,0 85.135545403884,27.89104481733231,0 85.13534184298415,27.89107874414895,0 85.13518577962755,27.89101767587898,0 85.13493472118439,27.89079375888912,0 85.13459545301787,27.89035949563604,0 85.13442581893469,27.88986416411296,0 85.13435796530142,27.88922633995999,0 85.13393048741165,27.88894135470016,0 85.13346229734189,27.88854780362707,0 85.13319766817204,27.88804568674067,0 85.13303125598941,27.88787122235566,0 85.1329025048672,27.88776070148085,0 
						</coordinates>
					</LinearRing>
				</outerBoundaryIs>
			</Polygon>
		</Placemark>
		<Placemark>
			<name>Upper Trishuli-3A Hydroelectric Project</name>
			<styleUrl>#falseColor</styleUrl>
			<Style id="inline">
				<IconStyle>
					<color>ffffffff</color>
					<colorMode>normal</colorMode>
				</IconStyle>
				<LineStyle>
					<color>ffffffff</color>
					<colorMode>normal</colorMode>
				</LineStyle>
				<PolyStyle>
					<color>ffffffff</color>
					<colorMode>normal</colorMode>
				</PolyStyle>
			</Style>
			<ExtendedData>
				<SchemaData schemaUrl="#S_hydropower_damage_status_ar_31aug2026_SS">
					<SimpleData name="id_2">1</SimpleData>
					<SimpleData name="Name">Upper Trishuli-3A Hydroelectric Project</SimpleData>
					<SimpleData name="Damage_Sta">Fully damaged</SimpleData>
				</SchemaData>
			</ExtendedData>
			<Polygon>
				<outerBoundaryIs>
					<LinearRing>
						<coordinates>
							85.20725416575993,28.06474107178102,0 85.20725990891253,28.06488752217307,0 85.20688671392941,28.06512500988957,0 85.20623531904981,28.06574926331592,0 85.20539393399694,28.06527428788285,0 85.20561785098685,28.06425648338341,0 85.20562085081212,28.06425636994463,0 85.20600800937869,28.06320644840828,0 85.20628620927516,28.06211400491226,0 85.20645584335843,28.06130654667602,0 85.20654405308171,28.06014624954669,0 85.20698510169814,28.059101303594,0 85.20689010661151,28.05768316265812,0 85.20673404325491,28.0565907191621,0 85.20650334090169,28.05559327075267,0 85.20644227263176,28.05505722704964,0 85.20605211424025,28.05416834445347,0 85.2054346461773,28.05344909594056,0 85.2047425391177,28.0528316278776,0 85.20476289520768,28.0525602133444,0 85.20400971987817,28.0517052575649,0 85.20589265820212,28.05163061856828,0 85.20691046270152,28.05233629635456,0 85.20813182810082,28.05397835428028,0 85.20871536934715,28.05517257822625,0 85.20894607170032,28.05621752417898,0 85.20883750588706,28.05719461649839,0 85.20857966208052,28.05860597207096,0 85.20841681336064,28.06043802016987,0 85.20807754519421,28.0620529366423,0 85.20792826720096,28.06265004861528,0 85.2077111355744,28.06351857512144,0 85.20735829668126,28.06425139436101,0 85.20730778689358,28.06475649223773,0 85.20725416575993,28.06474107178102,0 
						</coordinates>
					</LinearRing>
				</outerBoundaryIs>
			</Polygon>
		</Placemark>
		<Placemark>
			<name>Upper Trishuli-1 Hydropower Project</name>
			<styleUrl>#falseColor</styleUrl>
			<Style id="inline">
				<IconStyle>
					<color>ffffffff</color>
					<colorMode>normal</colorMode>
				</IconStyle>
				<LineStyle>
					<color>ffffffff</color>
					<colorMode>normal</colorMode>
				</LineStyle>
				<PolyStyle>
					<color>ffffffff</color>
					<colorMode>normal</colorMode>
				</PolyStyle>
			</Style>
			<ExtendedData>
				<SchemaData schemaUrl="#S_hydropower_damage_status_ar_31aug2026_SS">
					<SimpleData name="id_2">1</SimpleData>
					<SimpleData name="Name">Upper Trishuli-1 Hydropower Project</SimpleData>
					<SimpleData name="Damage_Sta">Fully damaged</SimpleData>
				</SchemaData>
			</ExtendedData>
			<Polygon>
				<outerBoundaryIs>
					<LinearRing>
						<coordinates>
							85.20679991464685,28.07370803706108,0 85.20658137257952,28.07372885059134,0 85.2062353190497,28.07282639726851,0 85.20682564565936,28.07182216349573,0 85.20667636766616,28.07127254906608,0 85.20641173849627,28.07051258837315,0 85.20611996787312,28.06988833494684,0 85.20559749489676,28.06956263750702,0 85.20574677289005,28.0685855451876,0 85.20661529939616,28.06937943269718,0 85.20760596244232,28.07034973965328,0 85.20789094770215,28.07104863207617,0 85.20796558669873,28.07176788058912,0 85.2077815532662,28.07288259738039,0 85.20844187551832,28.07397646454548,0 85.20881036443338,28.07411222361942,0 85.2093939056797,28.07466183804911,0 85.21010636882926,28.07512324275551,0 85.21159236339838,28.07576106690849,0 85.21248803135789,28.07597819853505,0 85.21258302644445,28.07618854479825,0 85.21256945571783,28.07637174960814,0 85.21239303627129,28.0766906616846,0 85.21206055346812,28.07672458850128,0 85.21155165121843,28.0768467250412,0 85.21122595377857,28.07662280805133,0 85.21083240270548,28.07601212535168,0 85.21077133443556,28.07586284735844,0 85.20989602256601,28.07548965237532,0 85.2090274960599,28.07501467694225,0 85.20844395481357,28.07447184787592,0 85.2080233815153,28.0739936617971,0 85.20760935512402,28.07405454803116,0 85.20727008695754,28.07446845519422,0 85.20693081879109,28.07487557699401,0 85.20641513117801,28.07518770370717,0 85.20610300446485,28.07525555734044,0 85.20577052166176,28.07505199644055,0 85.20570945339176,28.07481450872405,0 85.2059062289283,28.07431239183767,0 85.20630656536474,28.07399347976116,0 85.20673404325451,28.07374920668131,0 85.20679991464685,28.07370803706108,0 
						</coordinates>
					</LinearRing>
				</outerBoundaryIs>
			</Polygon>
		</Placemark>
		<Placemark>
			<name>Upper Trishuli-3A Hydroelectric Project</name>
			<styleUrl>#falseColor</styleUrl>
			<Style id="inline">
				<IconStyle>
					<color>ffffffff</color>
					<colorMode>normal</colorMode>
				</IconStyle>
				<LineStyle>
					<color>ffffffff</color>
					<colorMode>normal</colorMode>
				</LineStyle>
				<PolyStyle>
					<color>ffffffff</color>
					<colorMode>normal</colorMode>
				</PolyStyle>
			</Style>
			<ExtendedData>
				<SchemaData schemaUrl="#S_hydropower_damage_status_ar_31aug2026_SS">
					<SimpleData name="id_2">1</SimpleData>
					<SimpleData name="Name">Upper Trishuli-3A Hydroelectric Project</SimpleData>
					<SimpleData name="Damage_Sta">Fully damaged</SimpleData>
				</SchemaData>
			</ExtendedData>
			<Polygon>
				<outerBoundaryIs>
					<LinearRing>
						<coordinates>
							85.18591315587803,28.02019911928545,0 85.18573673643145,28.02154262122467,0 85.18585887297138,28.02327967423698,0 85.1863609898578,28.02435176164307,0 85.18670025802425,28.0248267370761,0 85.18781305761028,28.02547813195573,0 85.18908870591623,28.02637379991521,0 85.19045934930874,28.0269709118882,0 85.19127359290832,28.02736446296133,0 85.19064933948205,28.02759516531451,0 85.19025578840888,28.02766980431113,0 85.18974010079586,28.0274798141379,0 85.18903442300962,28.02715411669812,0 85.18841695494662,28.02676056562499,0 85.18759592598376,28.02632630237191,0 85.18697845792076,28.02606167320206,0 85.18653062394107,28.02587168302882,0 85.186055648508,28.02583775621219,0 85.18552639016832,28.02579025866889,0 85.18528211708843,28.02538992223245,0 85.18526176099847,28.02511850769928,0 85.18539746826501,28.02490816143607,0 85.18543139508165,28.02477245416945,0 85.1849292781953,28.0241753421965,0 85.1843728784023,28.02348323513688,0 85.18410146386913,28.02253328427075,0 85.18429823940568,28.0214136993214,0 85.18472571729541,28.02071480689846,0 85.18485463919872,28.0197309292157,0 85.18517355127518,28.0193780903226,0 85.18598779487473,28.01915417333273,0 85.18606759696986,28.01916402544321,0 85.18624563868123,28.01923899037432,0 85.18632706304116,28.01938148300425,0 85.1863067069512,28.0194832634542,0 85.18624563868123,28.01960539999412,0 85.18624145233616,28.01961945415248,0 85.18623121978419,28.01963084510662,0 85.18615149176505,28.01979114931529,0 85.18610653873299,28.01986578831191,0 85.18607261191632,28.01994721267184,0 85.18607218443846,28.01995020501698,0 85.18591315587803,28.02019911928545,0 
						</coordinates>
					</LinearRing>
				</outerBoundaryIs>
			</Polygon>
		</Placemark>
		<Placemark>
			<name>Upper Trishuli-3B Hydroelectric Project DAM</name>
			<styleUrl>#falseColor</styleUrl>
			<Style id="inline">
				<IconStyle>
					<color>ffffffff</color>
					<colorMode>normal</colorMode>
				</IconStyle>
				<LineStyle>
					<color>ffffffff</color>
					<colorMode>normal</colorMode>
				</LineStyle>
				<PolyStyle>
					<color>ffffffff</color>
					<colorMode>normal</colorMode>
				</PolyStyle>
			</Style>
			<ExtendedData>
				<SchemaData schemaUrl="#S_hydropower_damage_status_ar_31aug2026_SS">
					<SimpleData name="id_2">1</SimpleData>
					<SimpleData name="Name">Upper Trishuli-3B Hydroelectric Project DAM</SimpleData>
					<SimpleData name="Damage_Sta">Fully damaged</SimpleData>
				</SchemaData>
			</ExtendedData>
			<Polygon>
				<outerBoundaryIs>
					<LinearRing>
						<coordinates>
							85.18241190840013,27.98991604274621,0 85.18244139309057,27.98995119756946,0 85.1825001181234,27.99002121587781,0 85.1825374376217,27.99021799141435,0 85.18255100834836,27.99033673527262,0 85.18254422298504,27.99049958399253,0 85.18251145464448,27.99056809961371,0 85.18218459872855,27.99130025686541,0 85.18176390620214,27.99233163209148,0 85.181926754922,27.99315944641769,0 85.18260529125497,27.99368870475736,0 85.18347381776117,27.99417725091704,0 85.18360952502775,27.9944079532703,0 85.18359216481456,27.99442323025786,0 85.18426431258912,27.99506952619491,0 85.18474607338545,27.9956191406246,0 85.18502427328194,27.99587019906779,0 85.18534997072179,27.99614839896427,0 85.18573673643158,27.99645374031412,0 85.18587922906147,27.99690835965717,0 85.18575709252154,27.99707120837708,0 85.18559424380163,27.99716620346367,0 85.18543139508176,27.99722048637032,0 85.18505820009865,27.99725441318696,0 85.18460358075556,27.99708477910374,0 85.18451537103228,27.9968472913872,0 85.18432538085904,27.99640624277082,0 85.1841286053225,27.99629767695756,0 85.18374862497603,27.99616875505428,0 85.18350435189619,27.99610768678432,0 85.18314472763973,27.99607375996765,0 85.18300902037311,27.99595162342773,0 85.18290723992324,27.99574127716452,0 85.18290045455984,27.995524145538,0 85.18284617165324,27.99525273100479,0 85.18285295701655,27.99496774574496,0 85.18271046438662,27.99477097020841,0 85.18264310645606,27.99430620048751,0 85.18263243270833,27.994299387457,0 85.18191318419542,27.99355299749077,0 85.18151963312225,27.9924537686314,0 85.18139749658233,27.9916938079385,0 85.18093609187594,27.99109669596552,0 85.18103108696253,27.99036387672594,0 85.18127536004245,27.99006532073945,0 85.1818724720154,27.98988890129288,0 85.18231297292272,27.98986741344374,0 85.18241190840013,27.98991604274621,0 
						</coordinates>
					</LinearRing>
				</outerBoundaryIs>
			</Polygon>
		</Placemark>
		<Placemark>
			<name>Trishuli Hydropower-DAM</name>
			<styleUrl>#falseColor</styleUrl>
			<Style id="inline">
				<IconStyle>
					<color>ffffffff</color>
					<colorMode>normal</colorMode>
				</IconStyle>
				<LineStyle>
					<color>ffffffff</color>
					<colorMode>normal</colorMode>
				</LineStyle>
				<PolyStyle>
					<color>ffffffff</color>
					<colorMode>normal</colorMode>
				</PolyStyle>
			</Style>
			<ExtendedData>
				<SchemaData schemaUrl="#S_hydropower_damage_status_ar_31aug2026_SS">
					<SimpleData name="id_2">1</SimpleData>
					<SimpleData name="Name">Trishuli Hydropower-DAM</SimpleData>
					<SimpleData name="Damage_Sta">Fully damaged</SimpleData>
				</SchemaData>
			</ExtendedData>
			<Polygon>
				<outerBoundaryIs>
					<LinearRing>
						<coordinates>
							85.16926017792684,27.96085687611746,0 85.16954516318668,27.96111471992401,0 85.17002013861975,27.96137934909386,0 85.17083438221925,27.96194931961352,0 85.17128900156234,27.96230215850663,0 85.17189289889863,27.96269570957976,0 85.17244929869167,27.96301462165622,0 85.1730803374813,27.96333353373273,0 85.17283606440145,27.96403921151902,0 85.17244251332836,27.96400528470234,0 85.17208288907187,27.96404599688233,0 85.17172326481541,27.96410027978898,0 85.17147899173557,27.96409349442563,0 85.17119400647574,27.96405278224568,0 85.17092259194254,27.96399849933903,0 85.17061046522942,27.96393064570572,0 85.17035262142288,27.96388314816242,0 85.17008120688966,27.96386279207244,0 85.16984371917317,27.96379493843913,0 85.16964015827328,27.96370672871585,0 85.16933481692344,27.96354387999594,0 85.16919232429353,27.96322496791947,0 85.16913125602353,27.96308926065289,0 85.16891412439702,27.96274999248641,0 85.16862235377387,27.96249214867986,0 85.168337368514,27.96218002196674,0 85.1681813051574,27.96175932944029,0 85.1681813051574,27.96150827099709,0 85.1681270222508,27.96097901265742,0 85.16811345152418,27.96083652002748,0 85.16890055367035,27.96040904213776,0 85.16926017792684,27.96085687611746,0 
						</coordinates>
					</LinearRing>
				</outerBoundaryIs>
			</Polygon>
		</Placemark>
		<Placemark>
			<name>Trishuli Hydropower Project-Powerhouse</name>
			<styleUrl>#falseColor</styleUrl>
			<Style id="inline">
				<IconStyle>
					<color>ffffffff</color>
					<colorMode>normal</colorMode>
				</IconStyle>
				<LineStyle>
					<color>ffffffff</color>
					<colorMode>normal</colorMode>
				</LineStyle>
				<PolyStyle>
					<color>ffffffff</color>
					<colorMode>normal</colorMode>
				</PolyStyle>
			</Style>
			<ExtendedData>
				<SchemaData schemaUrl="#S_hydropower_damage_status_ar_31aug2026_SS">
					<SimpleData name="id_2">1</SimpleData>
					<SimpleData name="Name">Trishuli Hydropower Project-Powerhouse</SimpleData>
					<SimpleData name="Damage_Sta">Fully damaged</SimpleData>
				</SchemaData>
			</ExtendedData>
			<Polygon>
				<outerBoundaryIs>
					<LinearRing>
						<coordinates>
							85.1452925969876,27.92210736692174,0 85.14479916270989,27.92148586244074,0 85.14455189099583,27.92101094110736,0 85.14458905323875,27.92080250961881,0 85.14575459484645,27.92102714096178,0 85.14734700542685,27.92144256059032,0 85.14717322770376,27.92178048379078,0 85.1467473811943,27.92192399070142,0 85.14630402394711,27.92191205368903,0 85.14622054368436,27.92207807572479,0 85.14601347141928,27.92239764057354,0 85.14591319412057,27.9223664429674,0 85.1452925969876,27.92210736692174,0 
						</coordinates>
					</LinearRing>
				</outerBoundaryIs>
			</Polygon>
		</Placemark>
		<Placemark>
			<name>Trishuli 3B Hub Substation</name>
			<styleUrl>#falseColor</styleUrl>
			<Style id="inline">
				<IconStyle>
					<color>ffffffff</color>
					<colorMode>normal</colorMode>
				</IconStyle>
				<LineStyle>
					<color>ffffffff</color>
					<colorMode>normal</colorMode>
				</LineStyle>
				<PolyStyle>
					<color>ffffffff</color>
					<colorMode>normal</colorMode>
				</PolyStyle>
			</Style>
			<ExtendedData>
				<SchemaData schemaUrl="#S_hydropower_damage_status_ar_31aug2026_SS">
					<SimpleData name="id_2">1</SimpleData>
					<SimpleData name="Name">Trishuli 3B Hub Substation</SimpleData>
					<SimpleData name="Damage_Sta">Fully damaged</SimpleData>
				</SchemaData>
			</ExtendedData>
			<Polygon>
				<outerBoundaryIs>
					<LinearRing>
						<coordinates>
							85.18189367627575,28.01317202738728,0 85.18181903727913,28.0128938274908,0 85.1815408373826,28.01258848614096,0 85.18159512028929,28.01165210600149,0 85.18155440810926,28.01074286731535,0 85.18167654464922,28.01020003824901,0 85.18201242013401,28.0097182774526,0 85.18324396357832,28.00989130421747,0 85.18324057089666,28.01052234300713,0 85.18331520989328,28.01112963302513,0 85.1834848439765,28.01157068164152,0 85.18355948297312,28.0118149547214,0 85.18351198542983,28.0121813643412,0 85.18335931475492,28.01251723982599,0 85.18343395375155,28.01286668603744,0 85.18340002693492,28.01307024693737,0 85.18274523937362,28.01307703230069,0 85.1824229346155,28.01313810057064,0 85.18209045181233,28.01342987119383,0 85.18189367627575,28.01317202738728,0 
						</coordinates>
					</LinearRing>
				</outerBoundaryIs>
			</Polygon>
		</Placemark>
	</Folder>
</Document>
</kml>
