{
"type": "FeatureCollection",
"name": "Hydropower_Polygons",
"crs": { "type": "name", "properties": { "name": "urn:ogc:def:crs:OGC:1.3:CRS84" } },
"features": [
{ "type": "Feature", "properties": { "id": 1, "Name": "Devighat Hydropower Project", "Damage_Sta": "Fully damaged" }, "geometry": { "type": "MultiPolygon", "coordinates": [ ] } },
{ "type": "Feature", "properties": { "id": 1, "Name": "Langtang Khola Hydroelectric Project", "Damage_Sta": "Fully damaged" }, "geometry": { "type": "MultiPolygon", "coordinates": [ [ [ [ 85.339506640203737, 28.163075970402147 ], [ 85.339391289027134, 28.163513626336901 ], [ 85.339408252435462, 28.16374772137176 ], [ 85.339489676795409, 28.163913962773329 ], [ 85.339577886518697, 28.164012350541604 ], [ 85.339645740151994, 28.164053062721592 ], [ 85.339985008318465, 28.164195555351508 ], [ 85.340249637488313, 28.164293943119784 ], [ 85.340507481294821, 28.164355011389748 ], [ 85.340853534824632, 28.164405901614721 ], [ 85.341199588354428, 28.164395723569726 ], [ 85.34153546383925, 28.164307513846442 ], [ 85.341708490604134, 28.164253230939806 ], [ 85.342007046590624, 28.164171806579855 ], [ 85.342234356262168, 28.163988601769958 ], [ 85.342383634255413, 28.163808789641731 ], [ 85.342332744030443, 28.163649333603484 ], [ 85.341823841780737, 28.163500055610239 ], [ 85.341287798077715, 28.163449165385273 ], [ 85.340826393371316, 28.163347384935328 ], [ 85.340480339841505, 28.163272745938706 ], [ 85.340158035083363, 28.163435594658619 ], [ 85.340015542453443, 28.163381311751973 ], [ 85.339771269373585, 28.163248997167049 ], [ 85.339506640203737, 28.163075970402147 ] ] ] ] } },
{ "type": "Feature", "properties": { "id": 1, "Name": "Rasuwagadhi Hydropower Project", "Damage_Sta": "Fully damaged" }, "geometry": { "type": "MultiPolygon", "coordinates": [ [ [ [ 85.376249382632508, 28.269614656378334 ], [ 85.376045821732646, 28.270788524234323 ], [ 85.37608992659429, 28.270951372954233 ], [ 85.376130638774271, 28.270985299770878 ], [ 85.37631723626582, 28.271059938767507 ], [ 85.376558116664015, 28.27097172904422 ], [ 85.376659897113967, 28.271097258265819 ], [ 85.376507226439045, 28.271297426484036 ], [ 85.376452943532414, 28.271619731242183 ], [ 85.376398660625782, 28.271762223872098 ], [ 85.376456336214076, 28.272318623665107 ], [ 85.376456336214076, 28.272729138146538 ], [ 85.376446158169074, 28.272983589271394 ], [ 85.376497048394043, 28.273621413424362 ], [ 85.376486870349055, 28.273852115777569 ], [ 85.376412231352433, 28.274011571815812 ], [ 85.376313843584157, 28.274282986348982 ], [ 85.376167958272575, 28.274469583840546 ], [ 85.376229026542532, 28.274605291107136 ], [ 85.376327414310808, 28.274642610605444 ], [ 85.376605614207321, 28.274730820328728 ], [ 85.376768462927231, 28.274863134913652 ], [ 85.376839709242176, 28.275049732405208 ], [ 85.3768193531522, 28.275310968893393 ], [ 85.37679221169887, 28.275538278564927 ], [ 85.376598828843981, 28.275877546731405 ], [ 85.376503833757383, 28.276199851489544 ], [ 85.376378304535777, 28.276603580607638 ], [ 85.376368126490803, 28.277061592632382 ], [ 85.376459728895725, 28.27732282912056 ], [ 85.376571687390665, 28.277573887563754 ], [ 85.376595436162319, 28.277841909415269 ], [ 85.376666682477278, 28.278096360540118 ], [ 85.376625970297297, 28.278367775073303 ], [ 85.37695506041878, 28.278819001734703 ], [ 85.376961845782105, 28.279134521129517 ], [ 85.376768462927217, 28.279687528240874 ], [ 85.376554723982338, 28.280036974452337 ], [ 85.376249382632508, 28.280640871788652 ], [ 85.376045821732632, 28.280973354591801 ], [ 85.375635307251201, 28.281299052031621 ], [ 85.375407997579686, 28.281787598191336 ], [ 85.375696375521173, 28.28231346384937 ], [ 85.375933863237705, 28.282435600389295 ], [ 85.37642919476076, 28.282265966306056 ], [ 85.376961845782105, 28.281689210423053 ], [ 85.377294328585251, 28.281326193484929 ], [ 85.377541994346771, 28.281085313086738 ], [ 85.37769127234003, 28.280779971736916 ], [ 85.377833764969935, 28.280847825370206 ], [ 85.378111964866434, 28.280698547376957 ], [ 85.378322311129665, 28.280786757100238 ], [ 85.378654793932796, 28.280841040006873 ], [ 85.379024596234245, 28.280963176546805 ], [ 85.379302796130759, 28.281092098450067 ], [ 85.380049186096997, 28.28157725192812 ], [ 85.380802361426561, 28.282045441997848 ], [ 85.381246802724633, 28.282354176029333 ], [ 85.381911768330923, 28.282130259039455 ], [ 85.382047475597517, 28.281885985959601 ], [ 85.381938909784239, 28.281533147066469 ], [ 85.381199305181326, 28.280664620560302 ], [ 85.380724329748276, 28.280291425577193 ], [ 85.380201856771905, 28.279925015957392 ], [ 85.379530105802289, 28.279572177064267 ], [ 85.378939779192635, 28.279158269901174 ], [ 85.378532657392867, 28.279022562634584 ], [ 85.378471589122924, 28.278656153014797 ], [ 85.378322311129679, 28.277970831318523 ], [ 85.378213745316401, 28.277536568065443 ], [ 85.377908403966586, 28.276953026819108 ], [ 85.377765911336667, 28.276668041559269 ], [ 85.377813408879945, 28.276179495399557 ], [ 85.378091608776458, 28.275372037163358 ], [ 85.378288384313009, 28.274646003287106 ], [ 85.378349452582981, 28.274164242490713 ], [ 85.378424091579603, 28.273709623147642 ], [ 85.378722647566093, 28.272881808821452 ], [ 85.378776930472725, 28.27236612120841 ], [ 85.378688720749437, 28.271945428681985 ], [ 85.378505515939551, 28.271260106985721 ], [ 85.378383379399622, 28.270696921829376 ], [ 85.378424091579603, 28.270174448853009 ], [ 85.378254457496368, 28.26975375632658 ], [ 85.378111964866449, 28.269509483246722 ], [ 85.377793052789968, 28.269136288263603 ], [ 85.37732825540192, 28.268508642155634 ], [ 85.376893992148823, 28.268111698400869 ], [ 85.376720965383925, 28.268182944715829 ], [ 85.376368126490803, 28.268586673833926 ], [ 85.376106890002617, 28.268919156637065 ], [ 85.376249382632508, 28.269614656378334 ] ] ] ] } },
{ "type": "Feature", "properties": { "id": 1, "Name": "Chilime Hydropower Project", "Damage_Sta": "Fully damaged" }, "geometry": { "type": "MultiPolygon", "coordinates": [ [ [ [ 85.341925622230519, 28.179356601540668 ], [ 85.341545641884068, 28.180252269500162 ], [ 85.340934959184423, 28.180917235106442 ], [ 85.34036498866476, 28.181392210539503 ], [ 85.339890013231695, 28.181745049432632 ], [ 85.339170764718773, 28.181867185972568 ], [ 85.338763642919005, 28.18186718597256 ], [ 85.337677984786296, 28.181758620159286 ], [ 85.337094443539968, 28.181840044519241 ], [ 85.337352287346491, 28.182613575938788 ], [ 85.337786550599589, 28.183129263551834 ], [ 85.338315808939271, 28.183292112271737 ], [ 85.339007915998863, 28.183373536631695 ], [ 85.33987644250503, 28.183224258638443 ], [ 85.340826393371159, 28.182871419745318 ], [ 85.341437076070804, 28.182708571025408 ], [ 85.341884910050553, 28.18265428811878 ], [ 85.342156324583726, 28.182667858845438 ], [ 85.342834860916668, 28.182749283205382 ], [ 85.343418402162996, 28.18312926355183 ], [ 85.343744099602816, 28.183020697738563 ], [ 85.343811953236099, 28.182613575938792 ], [ 85.343567680156241, 28.182016463965812 ], [ 85.343404831436359, 28.181582200712729 ], [ 85.34322841198977, 28.18113436673298 ], [ 85.342997709636592, 28.180347264586768 ], [ 85.342916285276615, 28.179899430607026 ], [ 85.342970568183262, 28.179682298980484 ], [ 85.342943426729931, 28.17943802590063 ], [ 85.341925622230519, 28.179356601540668 ] ] ] ] } },
{ "type": "Feature", "properties": { "id": 1, "Name": "Mailun Khola Hydropower Project", "Damage_Sta": "Fully damaged" }, "geometry": { "type": "MultiPolygon", "coordinates": [ [ [ [ 85.208589840125555, 28.071186035683699 ], [ 85.208555913308913, 28.072102059733176 ], [ 85.208644123032201, 28.072929874059366 ], [ 85.208813757115436, 28.073472703125713 ], [ 85.208949464382016, 28.073805185928858 ], [ 85.209444795905071, 28.074083385825364 ], [ 85.209851917704839, 28.074286946725245 ], [ 85.210299751684573, 28.074429439355168 ], [ 85.210876507567576, 28.074626214891722 ], [ 85.211412551270598, 28.07473478070499 ], [ 85.211840029160356, 28.074809419701619 ], [ 85.211989307153601, 28.074748351431644 ], [ 85.211989307153601, 28.07463978561837 ], [ 85.212084302240214, 28.074415868628506 ], [ 85.210774727117638, 28.073465917762395 ], [ 85.210503312584464, 28.073201288592539 ], [ 85.21036760531787, 28.072957015512682 ], [ 85.210231898051276, 28.072597391256224 ], [ 85.210069049331381, 28.07225812308975 ], [ 85.209940127428112, 28.072040991463208 ], [ 85.209695854348254, 28.071803503746679 ], [ 85.209098742375261, 28.071409952673562 ], [ 85.208589840125555, 28.071186035683699 ] ] ] ] } },
{ "type": "Feature", "properties": { "id": 1, "Name": "Devighat Hydropower Project", "Damage_Sta": "Fully damaged" }, "geometry": { "type": "MultiPolygon", "coordinates": [ [ [ [ 85.133031255989437, 27.887871222355685 ], [ 85.133197668172059, 27.888045686740689 ], [ 85.133462297341893, 27.888547803627063 ], [ 85.133930487411632, 27.888941354700172 ], [ 85.134357965301405, 27.889226339960008 ], [ 85.134425818934659, 27.889864164112975 ], [ 85.134595453017894, 27.890359495636027 ], [ 85.134934721184365, 27.89079375888911 ], [ 85.135185779627548, 27.891017675878985 ], [ 85.135341842984133, 27.891078744148938 ], [ 85.135545403884009, 27.891044817332304 ], [ 85.135769320873891, 27.890861612522407 ], [ 85.136000023227083, 27.890732690619146 ], [ 85.136162871946993, 27.890651266259191 ], [ 85.136264652396932, 27.89049520290261 ], [ 85.136332506030229, 27.890305212729391 ], [ 85.1363935743002, 27.889932017746268 ], [ 85.136352862120219, 27.88959953494313 ], [ 85.136420715753516, 27.88907027660343 ], [ 85.133189621062357, 27.886690893065158 ], [ 85.133159712890475, 27.886722396339547 ], [ 85.133017856043807, 27.886871818884696 ], [ 85.132624304970705, 27.887516428400996 ], [ 85.132902504867204, 27.887760701480858 ], [ 85.133031255989437, 27.887871222355685 ] ] ] ] } },
{ "type": "Feature", "properties": { "id": 1, "Name": "Upper Trishuli-3A Hydroelectric Project", "Damage_Sta": "Fully damaged" }, "geometry": { "type": "MultiPolygon", "coordinates": [ [ [ [ 85.207307786893566, 28.064756492237745 ], [ 85.207358296681249, 28.064251394361019 ], [ 85.207711135574385, 28.063518575121439 ], [ 85.207928267200927, 28.062650048615275 ], [ 85.208077545194186, 28.062052936642282 ], [ 85.208416813360643, 28.06043802016988 ], [ 85.208579662080552, 28.058605972070939 ], [ 85.208837505887075, 28.057194616498414 ], [ 85.208946071700339, 28.056217524178976 ], [ 85.208715369347161, 28.055172578226244 ], [ 85.208131828100804, 28.053978354280268 ], [ 85.206910462701515, 28.052336296354547 ], [ 85.205892658202117, 28.051630618568286 ], [ 85.204009719878158, 28.051705257564901 ], [ 85.204762895207708, 28.05256021334441 ], [ 85.204742539117717, 28.052831627877588 ], [ 85.205434646177324, 28.053449095940572 ], [ 85.206052114240293, 28.054168344453483 ], [ 85.206442272631762, 28.055057227049637 ], [ 85.206503340901719, 28.05559327075267 ], [ 85.206734043254926, 28.056590719162092 ], [ 85.20689010661151, 28.057683162658133 ], [ 85.206985101698109, 28.05910130359398 ], [ 85.2065440530817, 28.060146249546712 ], [ 85.206455843358412, 28.06130654667604 ], [ 85.206286209275177, 28.062114004912249 ], [ 85.206008009378678, 28.063206448408284 ], [ 85.205620850812139, 28.064256369944658 ], [ 85.20561785098684, 28.064256483383431 ], [ 85.205393933996959, 28.065274287882851 ], [ 85.20623531904981, 28.065749263315912 ], [ 85.206886713929435, 28.065125009889595 ], [ 85.207259908912548, 28.064887522173073 ], [ 85.20725416575992, 28.064741071781015 ], [ 85.207307786893566, 28.064756492237745 ] ] ] ] } },
{ "type": "Feature", "properties": { "id": 1, "Name": "Upper Trishuli-1 Hydropower Project", "Damage_Sta": "Fully damaged" }, "geometry": { "type": "MultiPolygon", "coordinates": [ [ [ [ 85.2067340432545, 28.07374920668131 ], [ 85.206306565364756, 28.073993479761171 ], [ 85.205906228928313, 28.074312391837655 ], [ 85.205709453391762, 28.074814508724035 ], [ 85.205770521661734, 28.075051996440557 ], [ 85.206103004464865, 28.075255557340444 ], [ 85.206415131178019, 28.075187703707158 ], [ 85.206930818791065, 28.074875576993996 ], [ 85.207270086957536, 28.074468455194232 ], [ 85.207609355124006, 28.074054548031139 ], [ 85.208023381515332, 28.073993661797129 ], [ 85.208443954813532, 28.074471847875902 ], [ 85.209027496059861, 28.075014676942253 ], [ 85.209896022566028, 28.075489652375317 ], [ 85.210771334435535, 28.07586284735843 ], [ 85.210832402705506, 28.076012125351685 ], [ 85.211225953778609, 28.076622808051326 ], [ 85.211551651218429, 28.0768467250412 ], [ 85.212060553468135, 28.076724588501275 ], [ 85.21239303627128, 28.076690661684623 ], [ 85.212569455717841, 28.076371749608139 ], [ 85.212583026444491, 28.076188544798249 ], [ 85.212488031357879, 28.075978198535033 ], [ 85.211592363398395, 28.075761066908488 ], [ 85.210106368829258, 28.075123242755524 ], [ 85.209393905679661, 28.074661838049121 ], [ 85.208810364433333, 28.074112223619434 ], [ 85.208441875518304, 28.073976464545485 ], [ 85.207781553266216, 28.072882597380378 ], [ 85.207965586698748, 28.07176788058911 ], [ 85.207890947702126, 28.071048632076195 ], [ 85.207605962442287, 28.070349739653267 ], [ 85.206615299396191, 28.069379432697154 ], [ 85.205746772890024, 28.068585545187613 ], [ 85.205597494896764, 28.069562637507047 ], [ 85.206119967873136, 28.06988833494686 ], [ 85.2064117384963, 28.070512588373166 ], [ 85.206676367666148, 28.071272549066066 ], [ 85.206825645659393, 28.071822163495746 ], [ 85.206235319049725, 28.072826397268511 ], [ 85.206581372579535, 28.073728850591319 ], [ 85.206799914646851, 28.073708037061103 ], [ 85.2067340432545, 28.07374920668131 ] ] ] ] } },
{ "type": "Feature", "properties": { "id": 1, "Name": "Upper Trishuli-3A Hydroelectric Project", "Damage_Sta": "Fully damaged" }, "geometry": { "type": "MultiPolygon", "coordinates": [ [ [ [ 85.186072184438473, 28.019950205016976 ], [ 85.18607261191633, 28.019947212671845 ], [ 85.186106538732986, 28.01986578831189 ], [ 85.186151491765031, 28.019791149315264 ], [ 85.186231219784162, 28.019630845106615 ], [ 85.186241452336191, 28.019619454152458 ], [ 85.186245638681228, 28.01960539999412 ], [ 85.1863067069512, 28.019483263454195 ], [ 85.186327063041176, 28.019381483004256 ], [ 85.186245638681228, 28.01923899037433 ], [ 85.186067596969835, 28.019164025443217 ], [ 85.18598779487472, 28.019154173332701 ], [ 85.185173551275184, 28.019378090322583 ], [ 85.18485463919869, 28.019730929215712 ], [ 85.184725717295422, 28.020714806898482 ], [ 85.184298239405663, 28.021413699321418 ], [ 85.184101463869112, 28.022533284270764 ], [ 85.1843728784023, 28.023483235136887 ], [ 85.184929278195298, 28.024175342196486 ], [ 85.185431395081679, 28.024772454169476 ], [ 85.185397468265037, 28.024908161436066 ], [ 85.185261760998443, 28.025118507699272 ], [ 85.185282117088434, 28.025389922232449 ], [ 85.185526390168292, 28.025790258668895 ], [ 85.186055648507988, 28.025837756212194 ], [ 85.186530623941039, 28.025871683028843 ], [ 85.186978457920787, 28.026061673202069 ], [ 85.187595925983757, 28.026326302371917 ], [ 85.188416954946618, 28.026760565624993 ], [ 85.189034423009602, 28.0271541166981 ], [ 85.189740100795859, 28.027479814137919 ], [ 85.190255788408905, 28.027669804311135 ], [ 85.190649339482022, 28.027595165314516 ], [ 85.191273592908303, 28.027364462961309 ], [ 85.190459349308782, 28.026970911888203 ], [ 85.189088705916234, 28.026373799915209 ], [ 85.187813057610299, 28.025478131955737 ], [ 85.186700258024246, 28.024826737076108 ], [ 85.186360989857775, 28.02435176164305 ], [ 85.185858872971409, 28.023279674236999 ], [ 85.18573673643148, 28.021542621224661 ], [ 85.18591315587804, 28.020199119285444 ], [ 85.186072184438473, 28.019950205016976 ] ] ] ] } },
{ "type": "Feature", "properties": { "id": 1, "Name": "Upper Trishuli-3B Hydroelectric Project DAM", "Damage_Sta": "Fully damaged" }, "geometry": { "type": "MultiPolygon", "coordinates": [ [ [ [ 85.182312972922716, 27.989867413443744 ], [ 85.181872472015399, 27.989888901292879 ], [ 85.18127536004242, 27.990065320739451 ], [ 85.181031086962548, 27.990363876725937 ], [ 85.180936091875935, 27.991096695965517 ], [ 85.181397496582349, 27.991693807938514 ], [ 85.181519633122278, 27.992453768631407 ], [ 85.181913184195395, 27.99355299749077 ], [ 85.182632432708303, 27.994299387457012 ], [ 85.182643106456069, 27.994306200487504 ], [ 85.182710464386631, 27.994770970208407 ], [ 85.18285295701655, 27.994967745744958 ], [ 85.182846171653225, 27.9952527310048 ], [ 85.182900454559856, 27.995524145537978 ], [ 85.182907239923196, 27.99574127716452 ], [ 85.183009020373134, 27.995951623427729 ], [ 85.183144727639714, 27.996073759967658 ], [ 85.18350435189619, 27.996107686784306 ], [ 85.183748624976033, 27.996168755054274 ], [ 85.184128605322485, 27.996297676957528 ], [ 85.184325380859036, 27.996406242770799 ], [ 85.184515371032262, 27.996847291387212 ], [ 85.18460358075555, 27.997084779103744 ], [ 85.185058200098624, 27.99725441318698 ], [ 85.185431395081736, 27.997220486370335 ], [ 85.185594243801646, 27.997166203463692 ], [ 85.185757092521555, 27.997071208377086 ], [ 85.185879229061484, 27.996908359657176 ], [ 85.185736736431565, 27.996453740314109 ], [ 85.185349970721788, 27.996148398964277 ], [ 85.185024273281968, 27.995870199067774 ], [ 85.184746073385469, 27.995619140624591 ], [ 85.184264312589079, 27.9950695261949 ], [ 85.18359216481457, 27.994423230257865 ], [ 85.183609525027734, 27.994407953270287 ], [ 85.183473817761154, 27.994177250917076 ], [ 85.182605291254987, 27.993688704757361 ], [ 85.181926754922031, 27.993159446417668 ], [ 85.181763906202136, 27.992331632091467 ], [ 85.182184598728554, 27.991300256865397 ], [ 85.182511454644484, 27.990568099613711 ], [ 85.182544222985044, 27.990499583992534 ], [ 85.182551008348383, 27.990336735272631 ], [ 85.182537437621718, 27.990217991414362 ], [ 85.182500118123414, 27.990021215877807 ], [ 85.182441393090599, 27.989951197569457 ], [ 85.182411908400127, 27.989916042746202 ], [ 85.182312972922716, 27.989867413443744 ] ] ] ] } },
{ "type": "Feature", "properties": { "id": 1, "Name": "Trishuli Hydropower-DAM", "Damage_Sta": "Fully damaged" }, "geometry": { "type": "MultiPolygon", "coordinates": [ [ [ [ 85.168900553670369, 27.960409042137748 ], [ 85.16811345152415, 27.960836520027499 ], [ 85.168127022250815, 27.960979012657422 ], [ 85.168181305157447, 27.961508270997115 ], [ 85.168181305157447, 27.961759329440302 ], [ 85.168337368514031, 27.962180021966731 ], [ 85.168622353773856, 27.962492148679878 ], [ 85.16891412439702, 27.962749992486398 ], [ 85.169131256023562, 27.963089260652875 ], [ 85.169192324293533, 27.963224967919459 ], [ 85.169334816923453, 27.963543879995939 ], [ 85.169640158273282, 27.963706728715845 ], [ 85.169843719173159, 27.963794938439133 ], [ 85.170081206889691, 27.963862792072423 ], [ 85.170352621422865, 27.963883148162413 ], [ 85.170610465229387, 27.963930645705723 ], [ 85.170922591942556, 27.963998499339024 ], [ 85.171194006475716, 27.964052782245648 ], [ 85.171478991735555, 27.964093494425619 ], [ 85.171723264815412, 27.964100279788962 ], [ 85.172082889071874, 27.964045996882327 ], [ 85.172442513328335, 27.964005284702353 ], [ 85.172836064401437, 27.964039211518998 ], [ 85.173080337481295, 27.963333533732733 ], [ 85.17244929869166, 27.963014621656253 ], [ 85.171892898898648, 27.962695709579759 ], [ 85.171289001562329, 27.962302158506652 ], [ 85.170834382219255, 27.961949319613524 ], [ 85.170020138619719, 27.961379349093853 ], [ 85.169545163186669, 27.961114719924005 ], [ 85.16926017792683, 27.960856876117489 ], [ 85.168900553670369, 27.960409042137748 ] ] ] ] } },
{ "type": "Feature", "properties": { "id": 1, "Name": "Trishuli Hydropower Project-Powerhouse", "Damage_Sta": "Fully damaged" }, "geometry": { "type": "MultiPolygon", "coordinates": [ [ [ [ 85.145913194120581, 27.922366442967412 ], [ 85.146013471419266, 27.922397640573525 ], [ 85.146220543684379, 27.922078075724819 ], [ 85.146304023947081, 27.921912053689034 ], [ 85.146747381194302, 27.921923990701437 ], [ 85.14717322770376, 27.921780483790805 ], [ 85.14734700542688, 27.921442560590332 ], [ 85.145754594846437, 27.921027140961765 ], [ 85.144589053238718, 27.920802509618788 ], [ 85.144551890995842, 27.921010941107369 ], [ 85.144799162709916, 27.921485862440765 ], [ 85.145292596987559, 27.922107366921761 ], [ 85.145913194120581, 27.922366442967412 ] ] ] ] } },
{ "type": "Feature", "properties": { "id": 1, "Name": "Trishuli 3B Hub Substation", "Damage_Sta": "Fully damaged" }, "geometry": { "type": "MultiPolygon", "coordinates": [ [ [ [ 85.1820904518123, 28.013429871193797 ], [ 85.18242293461546, 28.013138100570647 ], [ 85.182745239373602, 28.013077032300682 ], [ 85.183400026934891, 28.013070246937353 ], [ 85.183433953751532, 28.012866686037459 ], [ 85.18335931475491, 28.012517239826 ], [ 85.183511985429831, 28.012181364341192 ], [ 85.183559482973124, 28.011814954721387 ], [ 85.183484843976501, 28.01157068164154 ], [ 85.183315209893266, 28.011129633025131 ], [ 85.183240570896643, 28.010522343007139 ], [ 85.183243963578306, 28.009891304217501 ], [ 85.182012420134015, 28.009718277452599 ], [ 85.181676544649207, 28.010200038248986 ], [ 85.181554408109278, 28.010742867315351 ], [ 85.181595120289259, 28.011652106001488 ], [ 85.181540837382627, 28.012588486140942 ], [ 85.181819037279126, 28.012893827490775 ], [ 85.181893676275749, 28.013172027387292 ], [ 85.1820904518123, 28.013429871193797 ] ] ] ] } }
]
}
