{
"type": "FeatureCollection",
"name": "Solar Farm",
"crs": { "type": "name", "properties": { "name": "urn:ogc:def:crs:OGC:1.3:CRS84" } },
"features": [
{ "type": "Feature", "properties": { "Id": 0 }, "geometry": { "type": "MultiPolygon", "coordinates": [ [ [ [ 85.135976406843085, 27.911111486966885 ], [ 85.136669786452487, 27.91139938477443 ], [ 85.138066437294142, 27.909734514950067 ], [ 85.138469770196494, 27.908651221058552 ], [ 85.13887358157011, 27.90670706327851 ], [ 85.138981087130844, 27.906189460304589 ], [ 85.140028364959733, 27.905013581696764 ], [ 85.139745483462747, 27.904814746864449 ], [ 85.138805701703717, 27.904845150221696 ], [ 85.13897455358196, 27.904138480399446 ], [ 85.138286847098854, 27.90352151622718 ], [ 85.137451412312927, 27.904041936791309 ], [ 85.137385238925617, 27.904359122253545 ], [ 85.137747722109282, 27.905046069495778 ], [ 85.137428733181636, 27.907029350315607 ], [ 85.136762284898282, 27.90766598862275 ], [ 85.136399675345729, 27.909255797028475 ], [ 85.135837399842231, 27.91090704865681 ], [ 85.135976406843085, 27.911111486966885 ] ] ] ] } },
{ "type": "Feature", "properties": { "Id": 0 }, "geometry": { "type": "MultiPolygon", "coordinates": [ [ [ [ 85.137026191894194, 27.8922625343905 ], [ 85.136616129207468, 27.894573742116481 ], [ 85.136872427537881, 27.896248307439841 ], [ 85.137536791650874, 27.896561125551354 ], [ 85.138593171642853, 27.896448802156407 ], [ 85.138841901986012, 27.895236816249795 ], [ 85.13947543621839, 27.894852916489118 ], [ 85.139695917864515, 27.892792336238138 ], [ 85.13870478668052, 27.892424476205534 ], [ 85.138016662791102, 27.892169072116857 ], [ 85.137175537016702, 27.891856873505201 ], [ 85.137026191894194, 27.8922625343905 ] ] ] ] } },
{ "type": "Feature", "properties": { "Id": 0 }, "geometry": { "type": "MultiPolygon", "coordinates": [ [ [ [ 85.134550939416812, 27.892026490753544 ], [ 85.135033333849918, 27.892146958820891 ], [ 85.135335887737313, 27.891810385779458 ], [ 85.135093884421039, 27.891388913366082 ], [ 85.134458219359203, 27.890281822498377 ], [ 85.134421668217541, 27.889594050833406 ], [ 85.134137632759902, 27.889539566044661 ], [ 85.133428057504389, 27.890641240079223 ], [ 85.133766653739002, 27.891230961383261 ], [ 85.134249256205948, 27.891538966267568 ], [ 85.134550939416812, 27.892026490753544 ] ] ] ] } },
{ "type": "Feature", "properties": { "Id": 0 }, "geometry": { "type": "MultiPolygon", "coordinates": [ [ [ [ 85.132956242820711, 27.888637376741478 ], [ 85.133201449191901, 27.888463460744415 ], [ 85.133446654788514, 27.888289544268588 ], [ 85.132658724171222, 27.887461272632358 ], [ 85.133084192126802, 27.886993330579816 ], [ 85.130639126617211, 27.885559873072857 ], [ 85.130222832981133, 27.886017712269584 ], [ 85.130799921241049, 27.887255002257774 ], [ 85.131542535132908, 27.887788076193587 ], [ 85.132956242820711, 27.888637376741478 ] ] ] ] } },
{ "type": "Feature", "properties": { "Id": 0 }, "geometry": { "type": "MultiPolygon", "coordinates": [ [ [ [ 85.125508070387511, 27.883243344891749 ], [ 85.125657750542672, 27.883180326703286 ], [ 85.125630065987295, 27.882754742308528 ], [ 85.125225853392479, 27.882505528078596 ], [ 85.125375862371371, 27.882018956338388 ], [ 85.12524365648774, 27.880794567597587 ], [ 85.124927949055163, 27.880489516374595 ], [ 85.124524488347461, 27.880535881937156 ], [ 85.124469050831976, 27.880869548666045 ], [ 85.125048720301663, 27.882541517217341 ], [ 85.125222412490459, 27.882958225205833 ], [ 85.125395648263748, 27.883153427872404 ], [ 85.125508070387511, 27.883243344891749 ] ] ] ] } }
]
}
