{"type": "FeatureCollection", "features": [{"type": "Feature", "geometry": {"type": "LineString", "coordinates": [[85.2055232, 28.0744412], [85.2059208, 28.0746838]]}, "properties": {"id": "way/341573407", "name": null, "bridge": "yes", "bridge_structure": null, "highway": "track", "waterway": null, "layer": "1", "width": null, "maxweight": null, "source": null}}, {"type": "Feature", "geometry": {"type": "LineString", "coordinates": [[85.1478758, 27.9215446], [85.1479673, 27.9212007], [85.1480475, 27.9208994]]}, "properties": {"id": "way/1463147997", "name": "Trishuli Naya Pul", "bridge": "yes", "bridge_structure": null, "highway": "tertiary", "waterway": null, "layer": "1", "width": null, "maxweight": null, "source": null}}, {"type": "Feature", "geometry": {"type": "LineString", "coordinates": [[85.1851733, 27.995151], [85.1847224, 27.9955384]]}, "properties": {"id": "way/298744773", "name": null, "bridge": "yes", "bridge_structure": null, "highway": "unclassified", "waterway": null, "layer": "1", "width": null, "maxweight": null, "source": null}}, {"type": "Feature", "geometry": {"type": "LineString", "coordinates": [[85.3579342, 28.2406648], [85.3580951, 28.240703], [85.3582316, 28.2407416], [85.3583204, 28.2407668], [85.3584088, 28.2407958]]}, "properties": {"id": "way/1422414758", "name": null, "bridge": "yes", "bridge_structure": null, "highway": "unclassified", "waterway": null, "layer": "1", "width": null, "maxweight": null, "source": null}}, {"type": "Feature", "geometry": {"type": "LineString", "coordinates": [[85.3593715, 28.2342614], [85.359624, 28.2345136]]}, "properties": {"id": "way/248646100", "name": null, "bridge": "yes", "bridge_structure": "suspension", "highway": "path", "waterway": null, "layer": "1", "width": null, "maxweight": null, "source": null}}, {"type": "Feature", "geometry": {"type": "LineString", "coordinates": [[84.5924546, 27.8779916], [84.5934672, 27.8790637]]}, "properties": {"id": "way/291573618", "name": null, "bridge": "yes", "bridge_structure": null, "highway": "path", "waterway": null, "layer": "1", "width": null, "maxweight": null, "source": null}}, {"type": "Feature", "geometry": {"type": "LineString", "coordinates": [[85.081189, 27.8544481], [85.0808726, 27.8544513]]}, "properties": {"id": "way/1553097543", "name": null, "bridge": "yes", "bridge_structure": null, "highway": "residential", "waterway": null, "layer": "1", "width": null, "maxweight": null, "source": null}}, {"type": "Feature", "geometry": {"type": "LineString", "coordinates": [[85.1636281, 27.9563409], [85.1634916, 27.9562868]]}, "properties": {"id": "way/341174340", "name": null, "bridge": "yes", "bridge_structure": null, "highway": "unclassified", "waterway": null, "layer": "2", "width": null, "maxweight": null, "source": null}}, {"type": "Feature", "geometry": {"type": "LineString", "coordinates": [[85.163916, 27.9553824], [85.1638121, 27.9555995], [85.1635697, 27.9561208]]}, "properties": {"id": "way/341170660", "name": null, "bridge": "yes", "bridge_structure": "beam", "highway": "unclassified", "waterway": null, "layer": "1", "width": null, "maxweight": null, "source": null}}, {"type": "Feature", "geometry": {"type": "LineString", "coordinates": [[85.1636551, 27.9561565], [85.1637456, 27.9559678], [85.163849, 27.9557297], [85.164114, 27.9551721]]}, "properties": {"id": "way/246173464", "name": null, "bridge": "aqueduct", "bridge_structure": null, "highway": null, "waterway": "canal", "layer": "1", "width": null, "maxweight": null, "source": null}}, {"type": "Feature", "geometry": {"type": "LineString", "coordinates": [[85.1640549, 27.9551629], [85.1642206, 27.9551986]]}, "properties": {"id": "way/340503483", "name": null, "bridge": "yes", "bridge_structure": null, "highway": "unclassified", "waterway": null, "layer": "2", "width": null, "maxweight": null, "source": null}}, {"type": "Feature", "geometry": {"type": "LineString", "coordinates": [[85.1665018, 27.958337], [85.1666781, 27.9582128]]}, "properties": {"id": "way/346567984", "name": null, "bridge": "aqueduct", "bridge_structure": null, "highway": null, "waterway": "stream", "layer": "1", "width": null, "maxweight": null, "source": "Bing"}}, {"type": "Feature", "geometry": {"type": "LineString", "coordinates": [[85.1706307, 27.9636381], [85.1702496, 27.963347], [85.170068, 27.963355]]}, "properties": {"id": "way/341587490", "name": null, "bridge": "yes", "bridge_structure": null, "highway": "service", "waterway": null, "layer": "1", "width": null, "maxweight": null, "source": "Bing"}}, {"type": "Feature", "geometry": {"type": "LineString", "coordinates": [[85.1638814, 27.9486223], [85.1638597, 27.9488026]]}, "properties": {"id": "way/340503487", "name": null, "bridge": "yes", "bridge_structure": null, "highway": "unclassified", "waterway": null, "layer": "1", "width": null, "maxweight": null, "source": null}}, {"type": "Feature", "geometry": {"type": "LineString", "coordinates": [[85.1632259, 27.9486307], [85.1624539, 27.9484877]]}, "properties": {"id": "way/246173465", "name": "Aqueduct (2 Barrel) crossing over Trishuli", "bridge": "aqueduct", "bridge_structure": null, "highway": null, "waterway": "canal", "layer": "1", "width": null, "maxweight": null, "source": null}}, {"type": "Feature", "geometry": {"type": "LineString", "coordinates": [[85.1614217, 27.948402], [85.1614311, 27.9482385]]}, "properties": {"id": "way/341889629", "name": null, "bridge": "yes", "bridge_structure": null, "highway": "unclassified", "waterway": null, "layer": "1", "width": null, "maxweight": null, "source": null}}, {"type": "Feature", "geometry": {"type": "LineString", "coordinates": [[85.3618157, 28.2263043], [85.3618155, 28.2266752]]}, "properties": {"id": "way/897866243", "name": null, "bridge": "yes", "bridge_structure": null, "highway": "primary", "waterway": null, "layer": "1", "width": null, "maxweight": null, "source": null}}, {"type": "Feature", "geometry": {"type": "LineString", "coordinates": [[85.1850809, 27.9724338], [85.1839585, 27.9725259]]}, "properties": {"id": "way/341049679", "name": null, "bridge": "yes", "bridge_structure": "simple-suspension", "highway": "path", "waterway": null, "layer": "1", "width": null, "maxweight": null, "source": "Digital Globe,2015-05-03"}}, {"type": "Feature", "geometry": {"type": "LineString", "coordinates": [[85.1865265, 27.9711865], [85.1866043, 27.971151]]}, "properties": {"id": "way/343296363", "name": null, "bridge": "yes", "bridge_structure": null, "highway": "path", "waterway": null, "layer": "1", "width": null, "maxweight": null, "source": "Digital Globe,2015-05-03"}}, {"type": "Feature", "geometry": {"type": "LineString", "coordinates": [[85.1797873, 27.9821684], [85.1797873, 27.9815122]]}, "properties": {"id": "way/343303369", "name": null, "bridge": "yes", "bridge_structure": "simple-suspension", "highway": "path", "waterway": null, "layer": "1", "width": null, "maxweight": null, "source": "Digital Globe,2015-05-03"}}, {"type": "Feature", "geometry": {"type": "LineString", "coordinates": [[85.1810743, 27.9789257], [85.1816896, 27.9791379]]}, "properties": {"id": "way/341705735", "name": null, "bridge": "yes", "bridge_structure": "simple-suspension", "highway": "path", "waterway": null, "layer": "1", "width": null, "maxweight": null, "source": "Bing"}}, {"type": "Feature", "geometry": {"type": "LineString", "coordinates": [[85.3651819, 28.2557625], [85.3656041, 28.255693]]}, "properties": {"id": "way/1422422619", "name": null, "bridge": "yes", "bridge_structure": null, "highway": "unclassified", "waterway": null, "layer": "1", "width": null, "maxweight": null, "source": null}}, {"type": "Feature", "geometry": {"type": "LineString", "coordinates": [[85.071111, 27.853026], [85.072274, 27.8548239]]}, "properties": {"id": "way/235982823", "name": null, "bridge": "yes", "bridge_structure": null, "highway": "footway", "waterway": null, "layer": "1", "width": null, "maxweight": null, "source": null}}, {"type": "Feature", "geometry": {"type": "LineString", "coordinates": [[85.0659306, 27.860087], [85.0659992, 27.8599089]]}, "properties": {"id": "way/1552898316", "name": null, "bridge": "yes", "bridge_structure": null, "highway": "track", "waterway": null, "layer": "1", "width": null, "maxweight": null, "source": null}}, {"type": "Feature", "geometry": {"type": "LineString", "coordinates": [[85.3401935, 28.1819385], [85.3399736, 28.1820182]]}, "properties": {"id": "way/1552938620", "name": null, "bridge": "yes", "bridge_structure": null, "highway": "path", "waterway": null, "layer": "1", "width": null, "maxweight": null, "source": null}}, {"type": "Feature", "geometry": {"type": "LineString", "coordinates": [[85.1586576, 27.9442378], [85.1585316, 27.9442899]]}, "properties": {"id": "way/343553910", "name": null, "bridge": "yes", "bridge_structure": null, "highway": "unclassified", "waterway": null, "layer": "1", "width": null, "maxweight": null, "source": "Bing"}}, {"type": "Feature", "geometry": {"type": "LineString", "coordinates": [[85.1090502, 27.8583333], [85.1093138, 27.8588019]]}, "properties": {"id": "way/1553160833", "name": null, "bridge": "yes", "bridge_structure": null, "highway": "unclassified", "waterway": null, "layer": "1", "width": null, "maxweight": null, "source": null}}, {"type": "Feature", "geometry": {"type": "LineString", "coordinates": [[85.1828577, 28.0192545], [85.1830896, 28.0194501]]}, "properties": {"id": "way/341771090", "name": null, "bridge": "yes", "bridge_structure": null, "highway": "unclassified", "waterway": null, "layer": "1", "width": null, "maxweight": null, "source": "Bing"}}, {"type": "Feature", "geometry": {"type": "LineString", "coordinates": [[85.1727504, 27.9639954], [85.172891, 27.9635459]]}, "properties": {"id": "way/1552982421", "name": null, "bridge": "yes", "bridge_structure": null, "highway": "residential", "waterway": null, "layer": "1", "width": null, "maxweight": null, "source": null}}, {"type": "Feature", "geometry": {"type": "LineString", "coordinates": [[85.3778582, 28.2712185], [85.3774343, 28.2712449]]}, "properties": {"id": "way/1552948001", "name": null, "bridge": "yes", "bridge_structure": null, "highway": "service", "waterway": null, "layer": "1", "width": null, "maxweight": null, "source": null}}, {"type": "Feature", "geometry": {"type": "LineString", "coordinates": [[85.2995649, 28.12694], [85.2995762, 28.1266104]]}, "properties": {"id": "way/1553166291", "name": null, "bridge": "yes", "bridge_structure": null, "highway": "unclassified", "waterway": null, "layer": null, "width": null, "maxweight": null, "source": null}}, {"type": "Feature", "geometry": {"type": "LineString", "coordinates": [[85.1857682, 27.9745016], [85.1859216, 27.974072]]}, "properties": {"id": "way/1553178219", "name": null, "bridge": "yes", "bridge_structure": null, "highway": "secondary", "waterway": null, "layer": "1", "width": null, "maxweight": null, "source": null}}, {"type": "Feature", "geometry": {"type": "LineString", "coordinates": [[85.2060615, 28.0650778], [85.206513, 28.0653744]]}, "properties": {"id": "way/912360483", "name": null, "bridge": "yes", "bridge_structure": null, "highway": "unclassified", "waterway": null, "layer": "1", "width": null, "maxweight": null, "source": null}}, {"type": "Feature", "geometry": {"type": "LineString", "coordinates": [[85.0812811, 27.8545515], [85.0809521, 27.8545329]]}, "properties": {"id": "way/341768633", "name": "Pasang Lhamu Highway", "bridge": "yes", "bridge_structure": null, "highway": "primary", "waterway": null, "layer": "1", "width": null, "maxweight": null, "source": null}}, {"type": "Feature", "geometry": {"type": "LineString", "coordinates": [[85.0614175, 27.8589603], [85.0622064, 27.8597825], [85.0626996, 27.8602659]]}, "properties": {"id": "way/1553215633", "name": null, "bridge": "yes", "bridge_structure": null, "highway": "unclassified", "waterway": null, "layer": "1", "width": null, "maxweight": null, "source": null}}, {"type": "Feature", "geometry": {"type": "LineString", "coordinates": [[85.1380361, 27.9091332], [85.1381617, 27.9091458], [85.1390545, 27.9096873]]}, "properties": {"id": "way/340581850", "name": "Trishuli River Old Bridge", "bridge": "yes", "bridge_structure": null, "highway": "path", "waterway": null, "layer": "1", "width": null, "maxweight": null, "source": null}}, {"type": "Feature", "geometry": {"type": "LineString", "coordinates": [[85.1389608, 27.9097853], [85.1381515, 27.9092184]]}, "properties": {"id": "way/1219434228", "name": "Trishuli River Bridge", "bridge": "yes", "bridge_structure": null, "highway": "residential", "waterway": null, "layer": "1", "width": null, "maxweight": null, "source": null}}, {"type": "Feature", "geometry": {"type": "LineString", "coordinates": [[85.1537892, 27.9231683], [85.1538961, 27.9233173]]}, "properties": {"id": "way/1553092937", "name": "Pasang Lhamu Highway", "bridge": "yes", "bridge_structure": null, "highway": "primary", "waterway": null, "layer": "1", "width": null, "maxweight": null, "source": null}}, {"type": "Feature", "geometry": {"type": "LineString", "coordinates": [[85.185882, 27.9739074], [85.1856624, 27.9744799]]}, "properties": {"id": "way/341461646", "name": "Falaakhu River Bridge", "bridge": "yes", "bridge_structure": null, "highway": "primary", "waterway": null, "layer": "1", "width": null, "maxweight": null, "source": "MapBox"}}, {"type": "Feature", "geometry": {"type": "LineString", "coordinates": [[85.3767829, 28.2657885], [85.376759, 28.2657062]]}, "properties": {"id": "way/1552952263", "name": null, "bridge": "yes", "bridge_structure": null, "highway": "service", "waterway": null, "layer": "1", "width": null, "maxweight": null, "source": null}}, {"type": "Feature", "geometry": {"type": "LineString", "coordinates": [[84.5590585, 27.8476063], [84.5592061, 27.8471683]]}, "properties": {"id": "way/140332460", "name": "Chinsengi khola Bridge", "bridge": "yes", "bridge_structure": null, "highway": "trunk", "waterway": null, "layer": "1", "width": null, "maxweight": null, "source": null}}, {"type": "Feature", "geometry": {"type": "LineString", "coordinates": [[84.558365, 27.8505201], [84.5586527, 27.8500938]]}, "properties": {"id": "way/140332532", "name": null, "bridge": "yes", "bridge_structure": null, "highway": "trunk", "waterway": null, "layer": "1", "width": null, "maxweight": null, "source": null}}, {"type": "Feature", "geometry": {"type": "LineString", "coordinates": [[84.5565078, 27.8541753], [84.5568136, 27.8541149], [84.5578421, 27.8539117]]}, "properties": {"id": "way/26951332", "name": "Trishuli Bridge", "bridge": "yes", "bridge_structure": null, "highway": "trunk", "waterway": null, "layer": "1", "width": null, "maxweight": null, "source": null}}, {"type": "Feature", "geometry": {"type": "LineString", "coordinates": [[84.5584079, 27.8544118], [84.558255, 27.8544122], [84.5579868, 27.8544946], [84.5566539, 27.8548887], [84.5565224, 27.8549149]]}, "properties": {"id": "way/899453263", "name": "Trishuli Bridge", "bridge": "viaduct", "bridge_structure": "arch", "highway": "trunk", "waterway": null, "layer": "1", "width": null, "maxweight": null, "source": null}}, {"type": "Feature", "geometry": {"type": "LineString", "coordinates": [[85.206367, 28.0530559], [85.2062626, 28.0529345]]}, "properties": {"id": "way/340465628", "name": null, "bridge": "yes", "bridge_structure": null, "highway": "unclassified", "waterway": null, "layer": "1", "width": null, "maxweight": null, "source": null}}, {"type": "Feature", "geometry": {"type": "LineString", "coordinates": [[85.1859457, 28.0044069], [85.1860745, 28.0042932]]}, "properties": {"id": "way/886471590", "name": null, "bridge": "yes", "bridge_structure": null, "highway": "path", "waterway": null, "layer": "1", "width": null, "maxweight": null, "source": null}}, {"type": "Feature", "geometry": {"type": "LineString", "coordinates": [[85.1833768, 28.0090056], [85.1838003, 28.009004]]}, "properties": {"id": "way/340474167", "name": null, "bridge": "yes", "bridge_structure": "simple-suspension", "highway": "path", "waterway": null, "layer": "1", "width": null, "maxweight": null, "source": null}}, {"type": "Feature", "geometry": {"type": "LineString", "coordinates": [[85.3770914, 28.2727043], [85.3770569, 28.2727905]]}, "properties": {"id": "way/1552948006", "name": null, "bridge": "yes", "bridge_structure": null, "highway": "service", "waterway": null, "layer": "1", "width": null, "maxweight": null, "source": null}}, {"type": "Feature", "geometry": {"type": "LineString", "coordinates": [[85.375853, 28.265815], [85.3762769, 28.2662977]]}, "properties": {"id": "way/248646102", "name": null, "bridge": "yes", "bridge_structure": null, "highway": "primary", "waterway": null, "layer": "1", "width": null, "maxweight": null, "source": null}}, {"type": "Feature", "geometry": {"type": "LineString", "coordinates": [[85.3324711, 28.1576481], [85.3325784, 28.1570978]]}, "properties": {"id": "way/84566285", "name": null, "bridge": "yes", "bridge_structure": null, "highway": "primary", "waterway": null, "layer": "1", "width": null, "maxweight": null, "source": null}}, {"type": "Feature", "geometry": {"type": "LineString", "coordinates": [[84.9507554, 27.8134667], [84.9509339, 27.8134495], [84.951608, 27.8133874]]}, "properties": {"id": "way/140332496", "name": "Belkhu Khola Bridge", "bridge": "yes", "bridge_structure": null, "highway": "trunk", "waterway": null, "layer": "1", "width": null, "maxweight": null, "source": null}}, {"type": "Feature", "geometry": {"type": "LineString", "coordinates": [[84.9545422, 27.8173437], [84.9554434, 27.8159868]]}, "properties": {"id": "way/1408714159", "name": null, "bridge": "yes", "bridge_structure": "simple-suspension", "highway": "footway", "waterway": null, "layer": "1", "width": null, "maxweight": null, "source": null}}, {"type": "Feature", "geometry": {"type": "LineString", "coordinates": [[84.9613808, 27.8158267], [84.9623114, 27.8172114]]}, "properties": {"id": "way/340856784", "name": "Keurintar Hanging Bridge", "bridge": "yes", "bridge_structure": null, "highway": "footway", "waterway": null, "layer": "1", "width": null, "maxweight": null, "source": null}}, {"type": "Feature", "geometry": {"type": "LineString", "coordinates": [[84.9688706, 27.8072137], [84.9703069, 27.807381]]}, "properties": {"id": "way/1408714161", "name": null, "bridge": "yes", "bridge_structure": "simple-suspension", "highway": "footway", "waterway": null, "layer": "1", "width": null, "maxweight": null, "source": null}}, {"type": "Feature", "geometry": {"type": "LineString", "coordinates": [[84.916646, 27.800059], [84.9169396, 27.799921]]}, "properties": {"id": "way/1485331752", "name": "Pokhare khola", "bridge": "yes", "bridge_structure": null, "highway": "trunk", "waterway": null, "layer": "1", "width": null, "maxweight": null, "source": null}}, {"type": "Feature", "geometry": {"type": "LineString", "coordinates": [[84.9165896, 27.7999594], [84.9168833, 27.7998214]]}, "properties": {"id": "way/140332488", "name": "Pokhare khola", "bridge": "yes", "bridge_structure": null, "highway": "trunk", "waterway": null, "layer": "1", "width": null, "maxweight": null, "source": null}}, {"type": "Feature", "geometry": {"type": "LineString", "coordinates": [[84.92459, 27.7972038], [84.9244371, 27.7975751], [84.9241286, 27.7983166]]}, "properties": {"id": "way/1378017630", "name": null, "bridge": "yes", "bridge_structure": null, "highway": "unclassified", "waterway": null, "layer": "1", "width": null, "maxweight": null, "source": null}}, {"type": "Feature", "geometry": {"type": "LineString", "coordinates": [[84.9040762, 27.8062872], [84.9041882, 27.8081074]]}, "properties": {"id": "way/341375565", "name": null, "bridge": "yes", "bridge_structure": null, "highway": "footway", "waterway": null, "layer": "1", "width": null, "maxweight": null, "source": null}}, {"type": "Feature", "geometry": {"type": "LineString", "coordinates": [[84.9025552, 27.8058184], [84.9022567, 27.8063098], [84.9017621, 27.8070363], [84.9014746, 27.8074487]]}, "properties": {"id": "way/1484953717", "name": null, "bridge": "yes", "bridge_structure": null, "highway": "residential", "waterway": null, "layer": null, "width": null, "maxweight": null, "source": null}}, {"type": "Feature", "geometry": {"type": "LineString", "coordinates": [[84.8896744, 27.8073724], [84.8900492, 27.8073938]]}, "properties": {"id": "way/140332466", "name": "Galaundi khola", "bridge": "yes", "bridge_structure": null, "highway": "trunk", "waterway": null, "layer": "1", "width": null, "maxweight": null, "source": null}}, {"type": "Feature", "geometry": {"type": "LineString", "coordinates": [[84.8801928, 27.8103748], [84.8809845, 27.8088143]]}, "properties": {"id": "way/344058103", "name": null, "bridge": "yes", "bridge_structure": null, "highway": "footway", "waterway": null, "layer": "1", "width": null, "maxweight": null, "source": null}}, {"type": "Feature", "geometry": {"type": "LineString", "coordinates": [[84.8539769, 27.8074235], [84.8541904, 27.808836]]}, "properties": {"id": "way/1485596672", "name": null, "bridge": "yes", "bridge_structure": null, "highway": "path", "waterway": null, "layer": "1", "width": null, "maxweight": null, "source": null}}, {"type": "Feature", "geometry": {"type": "LineString", "coordinates": [[84.8713272, 27.8037986], [84.8720028, 27.8025448]]}, "properties": {"id": "way/343722610", "name": null, "bridge": "yes", "bridge_structure": null, "highway": "path", "waterway": null, "layer": "1", "width": null, "maxweight": null, "source": null}}, {"type": "Feature", "geometry": {"type": "LineString", "coordinates": [[84.8445053, 27.8019177], [84.8438618, 27.8028976]]}, "properties": {"id": "way/435417464", "name": "Furke Khola Bridge", "bridge": "yes", "bridge_structure": null, "highway": "secondary", "waterway": null, "layer": "1", "width": null, "maxweight": null, "source": null}}, {"type": "Feature", "geometry": {"type": "LineString", "coordinates": [[85.3766956, 28.2728414], [85.3767872, 28.2727594]]}, "properties": {"id": "way/1552948009", "name": null, "bridge": "yes", "bridge_structure": null, "highway": "service", "waterway": null, "layer": "1", "width": null, "maxweight": null, "source": null}}, {"type": "Feature", "geometry": {"type": "LineString", "coordinates": [[84.6631712, 27.8442273], [84.6618651, 27.8435492]]}, "properties": {"id": "way/340475093", "name": null, "bridge": "yes", "bridge_structure": null, "highway": "path", "waterway": null, "layer": "1", "width": null, "maxweight": null, "source": null}}, {"type": "Feature", "geometry": {"type": "LineString", "coordinates": [[84.6613127, 27.8443323], [84.6627984, 27.8448306]]}, "properties": {"id": "way/1408714154", "name": null, "bridge": "yes", "bridge_structure": null, "highway": "tertiary", "waterway": null, "layer": "1", "width": null, "maxweight": null, "source": null}}, {"type": "Feature", "geometry": {"type": "LineString", "coordinates": [[84.6518913, 27.8520414], [84.6520643, 27.8529445]]}, "properties": {"id": "way/742117040", "name": null, "bridge": "yes", "bridge_structure": null, "highway": "path", "waterway": null, "layer": "1", "width": null, "maxweight": null, "source": null}}, {"type": "Feature", "geometry": {"type": "LineString", "coordinates": [[84.6338389, 27.861071], [84.6340409, 27.8607968]]}, "properties": {"id": "way/140332462", "name": "Dahki khola", "bridge": "yes", "bridge_structure": null, "highway": "trunk", "waterway": null, "layer": "1", "width": null, "maxweight": null, "source": "survey"}}, {"type": "Feature", "geometry": {"type": "LineString", "coordinates": [[84.6399363, 27.8592463], [84.6398465, 27.8607796]]}, "properties": {"id": "way/44686761", "name": null, "bridge": "yes", "bridge_structure": null, "highway": "footway", "waterway": null, "layer": "1", "width": null, "maxweight": null, "source": null}}, {"type": "Feature", "geometry": {"type": "LineString", "coordinates": [[84.6421279, 27.8605001], [84.642224, 27.8599383]]}, "properties": {"id": "way/1539397950", "name": null, "bridge": "yes", "bridge_structure": null, "highway": "service", "waterway": null, "layer": "1", "width": null, "maxweight": null, "source": null}}, {"type": "Feature", "geometry": {"type": "LineString", "coordinates": [[84.6410349, 27.8596181], [84.6408513, 27.8604389]]}, "properties": {"id": "way/1539397947", "name": null, "bridge": "yes", "bridge_structure": null, "highway": "service", "waterway": null, "layer": "1", "width": null, "maxweight": null, "source": null}}, {"type": "Feature", "geometry": {"type": "LineString", "coordinates": [[85.0821357, 27.8556222], [85.0810256, 27.8574914]]}, "properties": {"id": "way/1552751843", "name": null, "bridge": "yes", "bridge_structure": "suspension", "highway": "footway", "waterway": null, "layer": "1", "width": null, "maxweight": null, "source": null}}, {"type": "Feature", "geometry": {"type": "LineString", "coordinates": [[84.9645883, 27.8115692], [84.9647013, 27.8116359], [84.9659939, 27.8122717]]}, "properties": {"id": "way/1432603259", "name": null, "bridge": "yes", "bridge_structure": null, "highway": "unclassified", "waterway": null, "layer": "1", "width": null, "maxweight": null, "source": null}}, {"type": "Feature", "geometry": {"type": "LineString", "coordinates": [[84.9643001, 27.8106917], [84.9654803, 27.8111709]]}, "properties": {"id": "way/1408714160", "name": null, "bridge": "yes", "bridge_structure": null, "highway": "construction", "waterway": null, "layer": "1", "width": null, "maxweight": null, "source": null}}, {"type": "Feature", "geometry": {"type": "LineString", "coordinates": [[84.9441567, 27.8121246], [84.9448487, 27.8113311]]}, "properties": {"id": "way/1408714158", "name": null, "bridge": "yes", "bridge_structure": "simple-suspension", "highway": "footway", "waterway": null, "layer": "1", "width": null, "maxweight": null, "source": null}}, {"type": "Feature", "geometry": {"type": "LineString", "coordinates": [[84.9401615, 27.8073201], [84.9418566, 27.80695]]}, "properties": {"id": "way/341375566", "name": null, "bridge": "yes", "bridge_structure": null, "highway": "footway", "waterway": null, "layer": "1", "width": null, "maxweight": null, "source": null}}, {"type": "Feature", "geometry": {"type": "LineString", "coordinates": [[84.9684274, 27.8069635], [84.9682028, 27.8065369]]}, "properties": {"id": "way/140332461", "name": "Prithvi Rajmarg", "bridge": "yes", "bridge_structure": null, "highway": "trunk", "waterway": null, "layer": "1", "width": null, "maxweight": null, "source": null}}, {"type": "Feature", "geometry": {"type": "LineString", "coordinates": [[84.9748653, 27.8007746], [84.9752489, 27.8021128]]}, "properties": {"id": "way/1408714165", "name": null, "bridge": "yes", "bridge_structure": "simple-suspension", "highway": "footway", "waterway": null, "layer": "1", "width": null, "maxweight": null, "source": null}}, {"type": "Feature", "geometry": {"type": "LineString", "coordinates": [[84.9764039, 27.8032161], [84.9764496, 27.8031005]]}, "properties": {"id": "way/341806759", "name": null, "bridge": "yes", "bridge_structure": null, "highway": "unclassified", "waterway": null, "layer": "1", "width": null, "maxweight": null, "source": null}}, {"type": "Feature", "geometry": {"type": "LineString", "coordinates": [[84.9835242, 27.800874], [84.9836485, 27.8008651]]}, "properties": {"id": "way/342372009", "name": "Prithvi Rajmarg", "bridge": "yes", "bridge_structure": null, "highway": "trunk", "waterway": null, "layer": "1", "width": null, "maxweight": null, "source": null}}, {"type": "Feature", "geometry": {"type": "LineString", "coordinates": [[84.9911463, 27.804725], [84.989769, 27.8037866]]}, "properties": {"id": "way/1266664498", "name": null, "bridge": "yes", "bridge_structure": null, "highway": "unclassified", "waterway": null, "layer": "1", "width": null, "maxweight": null, "source": null}}, {"type": "Feature", "geometry": {"type": "LineString", "coordinates": [[84.9901699, 27.8035454], [84.9914895, 27.8038543]]}, "properties": {"id": "way/302711992", "name": null, "bridge": "yes", "bridge_structure": null, "highway": "footway", "waterway": null, "layer": "1", "width": null, "maxweight": null, "source": null}}, {"type": "Feature", "geometry": {"type": "LineString", "coordinates": [[84.608489, 27.8708354], [84.6083777, 27.8715551], [84.6082731, 27.8722593]]}, "properties": {"id": "way/302726224", "name": null, "bridge": "yes", "bridge_structure": null, "highway": "footway", "waterway": null, "layer": "1", "width": null, "maxweight": null, "source": null}}, {"type": "Feature", "geometry": {"type": "LineString", "coordinates": [[84.6147611, 27.8731093], [84.6132229, 27.8739425]]}, "properties": {"id": "way/1485601744", "name": null, "bridge": "yes", "bridge_structure": null, "highway": "path", "waterway": null, "layer": "1", "width": null, "maxweight": null, "source": null}}, {"type": "Feature", "geometry": {"type": "LineString", "coordinates": [[84.6673777, 27.8218173], [84.668128, 27.8218083]]}, "properties": {"id": "way/1408714155", "name": null, "bridge": "yes", "bridge_structure": "simple-suspension", "highway": "footway", "waterway": null, "layer": "1", "width": null, "maxweight": null, "source": null}}, {"type": "Feature", "geometry": {"type": "LineString", "coordinates": [[84.6646981, 27.8254267], [84.6650071, 27.8251976]]}, "properties": {"id": "way/140332495", "name": "Mowa Khola Bridge", "bridge": "yes", "bridge_structure": null, "highway": "trunk", "waterway": null, "layer": "1", "width": null, "maxweight": null, "source": null}}, {"type": "Feature", "geometry": {"type": "LineString", "coordinates": [[84.8098005, 27.8176146], [84.8092443, 27.8171065], [84.8086902, 27.8166176]]}, "properties": {"id": "way/341226737", "name": null, "bridge": "yes", "bridge_structure": "simple-suspension", "highway": "path", "waterway": null, "layer": "1", "width": null, "maxweight": null, "source": null}}, {"type": "Feature", "geometry": {"type": "LineString", "coordinates": [[84.8003585, 27.8138311], [84.8006988, 27.8139894]]}, "properties": {"id": "way/345107841", "name": "Prithvi Rajmarga", "bridge": "yes", "bridge_structure": null, "highway": "trunk", "waterway": null, "layer": "1", "width": null, "maxweight": null, "source": null}}, {"type": "Feature", "geometry": {"type": "LineString", "coordinates": [[84.6438852, 27.8614692], [84.6442229, 27.8599148]]}, "properties": {"id": "way/1539400716", "name": null, "bridge": "yes", "bridge_structure": null, "highway": "service", "waterway": null, "layer": "1", "width": null, "maxweight": null, "source": null}}, {"type": "Feature", "geometry": {"type": "LineString", "coordinates": [[84.6301796, 27.8683978], [84.6306829, 27.8682028]]}, "properties": {"id": "way/140332492", "name": "Prithvi Rajmarg", "bridge": "yes", "bridge_structure": null, "highway": "trunk", "waterway": null, "layer": "1", "width": null, "maxweight": null, "source": "survey"}}, {"type": "Feature", "geometry": {"type": "LineString", "coordinates": [[84.6323648, 27.8701471], [84.6316444, 27.8684666]]}, "properties": {"id": "way/302726220", "name": null, "bridge": "yes", "bridge_structure": null, "highway": "footway", "waterway": null, "layer": "1", "width": null, "maxweight": null, "source": null}}, {"type": "Feature", "geometry": {"type": "LineString", "coordinates": [[85.2146137, 28.0772918], [85.2152717, 28.0765029]]}, "properties": {"id": "way/341573395", "name": null, "bridge": "yes", "bridge_structure": "suspension", "highway": "footway", "waterway": null, "layer": "1", "width": null, "maxweight": null, "source": null}}, {"type": "Feature", "geometry": {"type": "LineString", "coordinates": [[85.1088901, 27.8583444], [85.1092389, 27.8588683]]}, "properties": {"id": "way/168199206", "name": "devighat-Tadi bridge", "bridge": "yes", "bridge_structure": null, "highway": "primary", "waterway": null, "layer": "1", "width": null, "maxweight": null, "source": null}}, {"type": "Feature", "geometry": {"type": "LineString", "coordinates": [[85.3530841, 28.2001619], [85.353106, 28.2005338]]}, "properties": {"id": "way/245248450", "name": null, "bridge": "yes", "bridge_structure": null, "highway": "primary", "waterway": null, "layer": "1", "width": null, "maxweight": null, "source": null}}, {"type": "Feature", "geometry": {"type": "LineString", "coordinates": [[85.1586668, 27.9390688], [85.1578798, 27.9395798]]}, "properties": {"id": "way/342147151", "name": "Suspension Bridge", "bridge": "yes", "bridge_structure": null, "highway": "footway", "waterway": null, "layer": "1", "width": "1.2 m", "maxweight": null, "source": null}}, {"type": "Feature", "geometry": {"type": "LineString", "coordinates": [[85.3436789, 28.1634067], [85.3437759, 28.1635939]]}, "properties": {"id": "way/83925838", "name": null, "bridge": "yes", "bridge_structure": null, "highway": "path", "waterway": null, "layer": "1", "width": null, "maxweight": null, "source": null}}, {"type": "Feature", "geometry": {"type": "LineString", "coordinates": [[85.3429566, 28.165756], [85.3425106, 28.1659756]]}, "properties": {"id": "way/83925870", "name": null, "bridge": "yes", "bridge_structure": null, "highway": "path", "waterway": null, "layer": "1", "width": null, "maxweight": null, "source": null}}, {"type": "Feature", "geometry": {"type": "LineString", "coordinates": [[85.3401547, 28.1640037], [85.3398138, 28.1644629]]}, "properties": {"id": "way/1017959928", "name": null, "bridge": "yes", "bridge_structure": null, "highway": "unclassified", "waterway": null, "layer": "1", "width": null, "maxweight": "40", "source": "GPS"}}, {"type": "Feature", "geometry": {"type": "LineString", "coordinates": [[85.3174998, 28.1475187], [85.317883, 28.1473108]]}, "properties": {"id": "way/344134853", "name": null, "bridge": "yes", "bridge_structure": null, "highway": "path", "waterway": null, "layer": "1", "width": null, "maxweight": null, "source": null}}, {"type": "Feature", "geometry": {"type": "LineString", "coordinates": [[85.3581165, 28.2398432], [85.3585747, 28.2398534]]}, "properties": {"id": "way/1033190356", "name": null, "bridge": "yes", "bridge_structure": null, "highway": "path", "waterway": null, "layer": "1", "width": null, "maxweight": null, "source": null}}, {"type": "Feature", "geometry": {"type": "LineString", "coordinates": [[85.3421227, 28.1813467], [85.342431, 28.1818045]]}, "properties": {"id": "way/341557606", "name": null, "bridge": "yes", "bridge_structure": null, "highway": "primary", "waterway": null, "layer": "1", "width": null, "maxweight": null, "source": null}}, {"type": "Feature", "geometry": {"type": "LineString", "coordinates": [[85.2132803, 28.0752815], [85.2126417, 28.0762308]]}, "properties": {"id": "way/1552872404", "name": null, "bridge": "yes", "bridge_structure": null, "highway": "unclassified", "waterway": null, "layer": "1", "width": null, "maxweight": null, "source": null}}, {"type": "Feature", "geometry": {"type": "LineString", "coordinates": [[85.3432393, 28.182402], [85.3438407, 28.1822114]]}, "properties": {"id": "way/886704211", "name": null, "bridge": "yes", "bridge_structure": null, "highway": "path", "waterway": null, "layer": "1", "width": null, "maxweight": null, "source": null}}, {"type": "Feature", "geometry": {"type": "LineString", "coordinates": [[85.3431968, 28.1826648], [85.3438355, 28.182505]]}, "properties": {"id": "way/341557608", "name": null, "bridge": "yes", "bridge_structure": null, "highway": "primary", "waterway": null, "layer": "1", "width": null, "maxweight": null, "source": null}}, {"type": "Feature", "geometry": {"type": "LineString", "coordinates": [[85.14937, 27.9221046], [85.1494991, 27.9216655]]}, "properties": {"id": "way/237590767", "name": "trishuli bridge", "bridge": "yes", "bridge_structure": null, "highway": "tertiary", "waterway": null, "layer": "1", "width": null, "maxweight": null, "source": null}}, {"type": "Feature", "geometry": {"type": "LineString", "coordinates": [[85.1732352, 27.9641916], [85.173644, 27.9637426]]}, "properties": {"id": "way/281810148", "name": "Tupche Aama ko pool", "bridge": "yes", "bridge_structure": "simple-suspension", "highway": "path", "waterway": null, "layer": "1", "width": null, "maxweight": null, "source": "Bing"}}, {"type": "Feature", "geometry": {"type": "LineString", "coordinates": [[85.0667809, 27.8530384], [85.0666176, 27.8530815]]}, "properties": {"id": "way/400000901", "name": "Pasang Lhamu Highway", "bridge": "yes", "bridge_structure": null, "highway": "primary", "waterway": null, "layer": "1", "width": null, "maxweight": null, "source": null}}, {"type": "Feature", "geometry": {"type": "LineString", "coordinates": [[85.3642275, 28.2519329], [85.3643247, 28.2520836]]}, "properties": {"id": "way/937405880", "name": null, "bridge": "yes", "bridge_structure": null, "highway": "unclassified", "waterway": null, "layer": "1", "width": null, "maxweight": null, "source": null}}, {"type": "Feature", "geometry": {"type": "LineString", "coordinates": [[85.1569326, 27.9428163], [85.1571107, 27.9427411]]}, "properties": {"id": "way/1552648463", "name": null, "bridge": "yes", "bridge_structure": null, "highway": "track", "waterway": null, "layer": "1", "width": null, "maxweight": null, "source": null}}, {"type": "Feature", "geometry": {"type": "LineString", "coordinates": [[84.8351833, 27.8073006], [84.835559, 27.8067934]]}, "properties": {"id": "way/140332481", "name": "Prithvi Rajmarg", "bridge": "yes", "bridge_structure": null, "highway": "trunk", "waterway": null, "layer": "1", "width": null, "maxweight": null, "source": null}}, {"type": "Feature", "geometry": {"type": "LineString", "coordinates": [[84.8364343, 27.8102246], [84.8348039, 27.8101618]]}, "properties": {"id": "way/343722608", "name": null, "bridge": "yes", "bridge_structure": null, "highway": "path", "waterway": null, "layer": "1", "width": null, "maxweight": null, "source": null}}, {"type": "Feature", "geometry": {"type": "LineString", "coordinates": [[84.8214911, 27.8110752], [84.823264, 27.811276]]}, "properties": {"id": "way/344100279", "name": null, "bridge": "yes", "bridge_structure": "simple-suspension", "highway": "path", "waterway": null, "layer": "1", "width": null, "maxweight": null, "source": null}}, {"type": "Feature", "geometry": {"type": "LineString", "coordinates": [[84.7877091, 27.8123622], [84.7878676, 27.812285], [84.7879461, 27.8122469], [84.7881651, 27.8121451]]}, "properties": {"id": "way/140332470", "name": "Gomati Bridge", "bridge": "yes", "bridge_structure": null, "highway": "trunk", "waterway": null, "layer": "1", "width": null, "maxweight": null, "source": null}}, {"type": "Feature", "geometry": {"type": "LineString", "coordinates": [[84.7732686, 27.8082304], [84.7738286, 27.8094107]]}, "properties": {"id": "way/44686757", "name": null, "bridge": "yes", "bridge_structure": null, "highway": "footway", "waterway": null, "layer": "1", "width": null, "maxweight": null, "source": null}}, {"type": "Feature", "geometry": {"type": "LineString", "coordinates": [[84.7779637, 27.8101567], [84.7772289, 27.8104869], [84.7765354, 27.8108303]]}, "properties": {"id": "way/343903499", "name": null, "bridge": "yes", "bridge_structure": null, "highway": "unclassified", "waterway": null, "layer": "1", "width": null, "maxweight": null, "source": "Digital Globe"}}, {"type": "Feature", "geometry": {"type": "LineString", "coordinates": [[85.1848274, 27.9703144], [85.1848977, 27.9705002]]}, "properties": {"id": "way/345313942", "name": "Pasang Lhamu Highway", "bridge": "yes", "bridge_structure": null, "highway": "primary", "waterway": null, "layer": "1", "width": null, "maxweight": null, "source": null}}, {"type": "Feature", "geometry": {"type": "LineString", "coordinates": [[85.0991726, 27.8602551], [85.0990391, 27.8599522], [85.0988846, 27.8596072], [85.0986203, 27.8590681], [85.0982968, 27.8585269]]}, "properties": {"id": "way/1553053157", "name": null, "bridge": "yes", "bridge_structure": null, "highway": "tertiary", "waterway": null, "layer": "1", "width": null, "maxweight": null, "source": null}}, {"type": "Feature", "geometry": {"type": "LineString", "coordinates": [[84.7157171, 27.8011849], [84.7150708, 27.8021443]]}, "properties": {"id": "way/344159590", "name": null, "bridge": "yes", "bridge_structure": "simple-suspension", "highway": "path", "waterway": null, "layer": "1", "width": null, "maxweight": null, "source": null}}, {"type": "Feature", "geometry": {"type": "LineString", "coordinates": [[84.7245408, 27.798], [84.7246539, 27.7979413], [84.7250393, 27.7977441]]}, "properties": {"id": "way/140332494", "name": "Khatauti Khola Bridge", "bridge": "yes", "bridge_structure": null, "highway": "trunk", "waterway": null, "layer": "1", "width": null, "maxweight": null, "source": null}}, {"type": "Feature", "geometry": {"type": "LineString", "coordinates": [[84.7496396, 27.8029155], [84.75025, 27.8029709]]}, "properties": {"id": "way/140332459", "name": "Prithvi Rajmarg", "bridge": "yes", "bridge_structure": null, "highway": "trunk", "waterway": null, "layer": "1", "width": null, "maxweight": null, "source": null}}, {"type": "Feature", "geometry": {"type": "LineString", "coordinates": [[84.7383357, 27.8028257], [84.7371228, 27.8033946]]}, "properties": {"id": "way/342461139", "name": null, "bridge": "yes", "bridge_structure": "simple-suspension", "highway": "path", "waterway": null, "layer": "1", "width": null, "maxweight": null, "source": null}}, {"type": "Feature", "geometry": {"type": "LineString", "coordinates": [[84.7499973, 27.805641], [84.7497348, 27.804629]]}, "properties": {"id": "way/1484945153", "name": null, "bridge": "yes", "bridge_structure": null, "highway": "service", "waterway": null, "layer": null, "width": null, "maxweight": null, "source": null}}, {"type": "Feature", "geometry": {"type": "LineString", "coordinates": [[84.6997134, 27.8074589], [84.7001823, 27.8086949]]}, "properties": {"id": "way/340601089", "name": null, "bridge": "yes", "bridge_structure": "simple-suspension", "highway": "path", "waterway": null, "layer": "1", "width": null, "maxweight": null, "source": null}}, {"type": "Feature", "geometry": {"type": "LineString", "coordinates": [[84.6966827, 27.8073525], [84.6969993, 27.8071123]]}, "properties": {"id": "way/140332497", "name": "Hugdi Khola Bridge", "bridge": "yes", "bridge_structure": null, "highway": "trunk", "waterway": null, "layer": "1", "width": null, "maxweight": null, "source": null}}, {"type": "Feature", "geometry": {"type": "LineString", "coordinates": [[84.6907416, 27.8104948], [84.6904922, 27.8092018]]}, "properties": {"id": "way/1408714156", "name": null, "bridge": "yes", "bridge_structure": "simple-suspension", "highway": "footway", "waterway": null, "layer": "1", "width": null, "maxweight": null, "source": null}}, {"type": "Feature", "geometry": {"type": "LineString", "coordinates": [[84.5613472, 27.8588195], [84.5613419, 27.8576582]]}, "properties": {"id": "way/340480693", "name": null, "bridge": "yes", "bridge_structure": "simple-suspension", "highway": "path", "waterway": null, "layer": "1", "width": null, "maxweight": null, "source": "bing"}}, {"type": "Feature", "geometry": {"type": "LineString", "coordinates": [[84.5765049, 27.8632721], [84.576751, 27.8633322], [84.5769514, 27.863409]]}, "properties": {"id": "way/140332484", "name": "Nagdi khola", "bridge": "yes", "bridge_structure": null, "highway": "trunk", "waterway": null, "layer": "1", "width": null, "maxweight": null, "source": "survey"}}, {"type": "Feature", "geometry": {"type": "LineString", "coordinates": [[85.1940263, 28.0411414], [85.1939692, 28.0410049]]}, "properties": {"id": "way/340465627", "name": null, "bridge": "yes", "bridge_structure": null, "highway": "unclassified", "waterway": null, "layer": "1", "width": null, "maxweight": null, "source": null}}, {"type": "Feature", "geometry": {"type": "LineString", "coordinates": [[85.1584489, 27.9443716], [85.1583805, 27.9444393]]}, "properties": {"id": "way/343553908", "name": null, "bridge": "yes", "bridge_structure": null, "highway": "unclassified", "waterway": null, "layer": "1", "width": null, "maxweight": null, "source": "Bing"}}, {"type": "Feature", "geometry": {"type": "LineString", "coordinates": [[85.0011674, 27.8002921], [85.0007781, 27.8002021]]}, "properties": {"id": "way/209012932", "name": null, "bridge": "yes", "bridge_structure": null, "highway": "primary", "waterway": null, "layer": "1", "width": null, "maxweight": null, "source": null}}, {"type": "Feature", "geometry": {"type": "LineString", "coordinates": [[85.016132, 27.8101426], [85.0161977, 27.8097536]]}, "properties": {"id": "way/209012420", "name": null, "bridge": "yes", "bridge_structure": null, "highway": "primary", "waterway": null, "layer": "1", "width": null, "maxweight": null, "source": null}}, {"type": "Feature", "geometry": {"type": "LineString", "coordinates": [[85.0238072, 27.8351338], [85.0233807, 27.8352666], [85.020991, 27.8362238]]}, "properties": {"id": "way/302755357", "name": "Suspension Bridge", "bridge": "yes", "bridge_structure": null, "highway": "footway", "waterway": null, "layer": "1", "width": null, "maxweight": null, "source": null}}, {"type": "Feature", "geometry": {"type": "LineString", "coordinates": [[85.0588991, 27.8567351], [85.0569784, 27.8590789]]}, "properties": {"id": "way/303036286", "name": null, "bridge": "yes", "bridge_structure": null, "highway": "footway", "waterway": null, "layer": "1", "width": null, "maxweight": null, "source": null}}, {"type": "Feature", "geometry": {"type": "LineString", "coordinates": [[85.0428539, 27.8558146], [85.042903, 27.8570619]]}, "properties": {"id": "way/302758285", "name": null, "bridge": "yes", "bridge_structure": null, "highway": "footway", "waterway": null, "layer": "1", "width": null, "maxweight": null, "source": null}}, {"type": "Feature", "geometry": {"type": "LineString", "coordinates": [[85.0568194, 27.8538868], [85.0567757, 27.853824]]}, "properties": {"id": "way/341766306", "name": "Pasang Lhamu Highway", "bridge": "yes", "bridge_structure": null, "highway": "primary", "waterway": null, "layer": "1", "width": null, "maxweight": null, "source": null}}, {"type": "Feature", "geometry": {"type": "LineString", "coordinates": [[85.027894, 27.8474098], [85.027262, 27.8481327], [85.0267135, 27.848875]]}, "properties": {"id": "way/209014516", "name": null, "bridge": "yes", "bridge_structure": "suspension", "highway": "footway", "waterway": null, "layer": "1", "width": null, "maxweight": null, "source": null}}, {"type": "Feature", "geometry": {"type": "LineString", "coordinates": [[85.1157473, 27.870932], [85.1159042, 27.8707679]]}, "properties": {"id": "way/342320930", "name": null, "bridge": "yes", "bridge_structure": null, "highway": "unclassified", "waterway": null, "layer": "1", "width": "6", "maxweight": null, "source": null}}, {"type": "Feature", "geometry": {"type": "LineString", "coordinates": [[85.1159042, 27.8707679], [85.1164683, 27.8701778]]}, "properties": {"id": "way/342320931", "name": null, "bridge": "yes", "bridge_structure": null, "highway": "unclassified", "waterway": null, "layer": "1", "width": "6", "maxweight": null, "source": null}}, {"type": "Feature", "geometry": {"type": "LineString", "coordinates": [[85.1164683, 27.8701778], [85.11696, 27.869664]]}, "properties": {"id": "way/342320932", "name": null, "bridge": "yes", "bridge_structure": null, "highway": "unclassified", "waterway": null, "layer": "1", "width": "6", "maxweight": null, "source": null}}, {"type": "Feature", "geometry": {"type": "LineString", "coordinates": [[85.0224691, 27.8311017], [85.0216698, 27.8314623], [85.0202334, 27.8322513]]}, "properties": {"id": "way/302554531", "name": "Suspension Bridge", "bridge": "yes", "bridge_structure": null, "highway": "footway", "waterway": null, "layer": "1", "width": null, "maxweight": null, "source": null}}, {"type": "Feature", "geometry": {"type": "LineString", "coordinates": [[85.0229754, 27.832286], [85.0213643, 27.8328972]]}, "properties": {"id": "way/1493017039", "name": null, "bridge": "yes", "bridge_structure": null, "highway": "path", "waterway": null, "layer": "1", "width": null, "maxweight": null, "source": null}}, {"type": "Feature", "geometry": {"type": "LineString", "coordinates": [[85.0013226, 27.8028295], [85.0013095, 27.8025753], [85.0011992, 27.8004331]]}, "properties": {"id": "way/302728292", "name": null, "bridge": "yes", "bridge_structure": null, "highway": "footway", "waterway": null, "layer": "1", "width": null, "maxweight": null, "source": null}}, {"type": "Feature", "geometry": {"type": "LineString", "coordinates": [[85.0126951, 27.8090263], [85.0136569, 27.8103116]]}, "properties": {"id": "way/302710112", "name": null, "bridge": "yes", "bridge_structure": null, "highway": "footway", "waterway": null, "layer": "1", "width": null, "maxweight": null, "source": null}}, {"type": "Feature", "geometry": {"type": "LineString", "coordinates": [[85.1077996, 27.8607793], [85.1084038, 27.8602598]]}, "properties": {"id": "way/303036281", "name": null, "bridge": "yes", "bridge_structure": "simple-suspension", "highway": "path", "waterway": null, "layer": "1", "width": null, "maxweight": null, "source": null}}, {"type": "Feature", "geometry": {"type": "LineString", "coordinates": [[85.0866597, 27.8572283], [85.0870084, 27.8559051]]}, "properties": {"id": "way/303036282", "name": null, "bridge": "yes", "bridge_structure": "suspension", "highway": "footway", "waterway": null, "layer": "1", "width": null, "maxweight": null, "source": null}}, {"type": "Feature", "geometry": {"type": "LineString", "coordinates": [[85.1368841, 27.8924312], [85.1358953, 27.892215]]}, "properties": {"id": "way/303036276", "name": null, "bridge": "yes", "bridge_structure": null, "highway": "tertiary", "waterway": null, "layer": "1", "width": null, "maxweight": null, "source": null}}, {"type": "Feature", "geometry": {"type": "LineString", "coordinates": [[85.1499169, 27.9275904], [85.1495014, 27.9273849]]}, "properties": {"id": "way/995486403", "name": null, "bridge": "yes", "bridge_structure": "simple-suspension", "highway": "footway", "waterway": null, "layer": "1", "width": null, "maxweight": null, "source": null}}, {"type": "Feature", "geometry": {"type": "LineString", "coordinates": [[85.1503987, 27.9278286], [85.1499169, 27.9275904]]}, "properties": {"id": "way/341654843", "name": null, "bridge": "yes", "bridge_structure": "simple-suspension", "highway": "footway", "waterway": null, "layer": "1", "width": null, "maxweight": null, "source": null}}, {"type": "Feature", "geometry": {"type": "LineString", "coordinates": [[85.1548193, 27.9308323], [85.1549519, 27.9308719]]}, "properties": {"id": "way/379104231", "name": "Pasang Lhamu Highway", "bridge": "yes", "bridge_structure": null, "highway": "primary", "waterway": null, "layer": "1", "width": null, "maxweight": null, "source": null}}]}