{"type": "FeatureCollection", "features": [{"type": "Feature", "geometry": {"type": "Point", "coordinates": [85.3780972, 28.2789444]}, "properties": {"name": "Miteri Bridge, Rasuwagadhi", "status": "Washed out", "status_original": "Washed out", "location": "Rasuwagadhi", "length_m": null, "adm1_name": "Bagmati", "adm2_name": "Rasuwa", "adm3_name": "Gosaikunda"}}, {"type": "Feature", "geometry": {"type": "Point", "coordinates": [85.3776972, 28.271275]}, "properties": {"name": "Timure Bridge 1", "status": "Washed out", "status_original": "Washed out", "location": "Timure", "length_m": null, "adm1_name": "Bagmati", "adm2_name": "Rasuwa", "adm3_name": "Gosaikunda"}}, {"type": "Feature", "geometry": {"type": "Point", "coordinates": [85.3582778, 28.2399778]}, "properties": {"name": "Timure Bridge 2", "status": "Washed out", "status_original": "Washed out", "location": "Timure", "length_m": null, "adm1_name": "Bagmati", "adm2_name": "Rasuwa", "adm3_name": "Gosaikunda"}}, {"type": "Feature", "geometry": {"type": "Point", "coordinates": [85.3432806, 28.1828028]}, "properties": {"name": "Bhotekoshi Bridge at Chilime", "status": "Washed out", "status_original": "Washed out", "location": "Chilime", "length_m": null, "adm1_name": "Bagmati", "adm2_name": "Rasuwa", "adm3_name": "Gosaikunda"}}, {"type": "Feature", "geometry": {"type": "Point", "coordinates": [85.3422194, 28.1816528]}, "properties": {"name": "Chilime Bridge, Chilime Khola", "status": "Washed out", "status_original": "Washed out", "location": "Chilime", "length_m": null, "adm1_name": "Bagmati", "adm2_name": "Rasuwa", "adm3_name": "Aamachhodingmo"}}, {"type": "Feature", "geometry": {"type": "Point", "coordinates": [85.3399278, 28.1643861]}, "properties": {"name": "Hydropower Bailey Bridge at Bhotekoshi, Syaphrubeshi", "status": "Washed out", "status_original": "Washed out", "location": "Syafrubesi", "length_m": null, "adm1_name": "Bagmati", "adm2_name": "Rasuwa", "adm3_name": "Gosaikunda"}}, {"type": "Feature", "geometry": {"type": "Point", "coordinates": [85.3324917, 28.1574778]}, "properties": {"name": "Syafrubesi Bridge", "status": "Washed out", "status_original": "Washed Out", "location": "Syafrubesi", "length_m": null, "adm1_name": "Bagmati", "adm2_name": "Rasuwa", "adm3_name": "Gosaikunda"}}, {"type": "Feature", "geometry": {"type": "Point", "coordinates": [85.2810306, 28.1129528]}, "properties": {"name": "Haku1 Bailey Bridge at Hydropower, Trishuli", "status": "Washed out", "status_original": "Washed Out", "location": "", "length_m": null, "adm1_name": "Bagmati", "adm2_name": "Rasuwa", "adm3_name": "Gosaikunda"}}, {"type": "Feature", "geometry": {"type": "Point", "coordinates": [85.2751389, 28.1083667]}, "properties": {"name": "Haku2 Bailey Bridge at Hydropower, Trishuli", "status": "Washed out", "status_original": "Washed Out", "location": "", "length_m": null, "adm1_name": "Bagmati", "adm2_name": "Rasuwa", "adm3_name": "Aamachhodingmo"}}, {"type": "Feature", "geometry": {"type": "Point", "coordinates": [85.2128444, 28.0759778]}, "properties": {"name": "Upper Trishuli Hydrower Bailey Bridge", "status": "Washed out", "status_original": "Washed Out", "location": "", "length_m": null, "adm1_name": "Bagmati", "adm2_name": "Rasuwa", "adm3_name": "Uttargaya"}}, {"type": "Feature", "geometry": {"type": "Point", "coordinates": [85.2075333, 28.0718944]}, "properties": {"name": "Mailung Bailey Bridge at Mailung Bazaar", "status": "Washed out", "status_original": "Washed Out", "location": "", "length_m": null, "adm1_name": "Bagmati", "adm2_name": "Rasuwa", "adm3_name": "Uttargaya"}}, {"type": "Feature", "geometry": {"type": "Point", "coordinates": [85.206325, 28.0625778]}, "properties": {"name": "Trishuli River Bridge Mailung near Trushuli 3A Dam1", "status": "Washed out", "status_original": "Washed Out", "location": "", "length_m": null, "adm1_name": "Bagmati", "adm2_name": "Rasuwa", "adm3_name": "Uttargaya"}}, {"type": "Feature", "geometry": {"type": "Point", "coordinates": [85.2066861, 28.0620528]}, "properties": {"name": "Trishuli River Bridge Mailung near Trushuli 3A Dam2", "status": "Washed out", "status_original": "Washed Out", "location": "", "length_m": null, "adm1_name": "Bagmati", "adm2_name": "Rasuwa", "adm3_name": "Uttargaya"}}, {"type": "Feature", "geometry": {"type": "Point", "coordinates": [85.1848889, 27.9953417]}, "properties": {"name": "Boktekoshi River Bridge, Khalte", "status": "Washed out", "status_original": "Washed Out", "location": "Khalte", "length_m": null, "adm1_name": "Bagmati", "adm2_name": "Rasuwa", "adm3_name": "Uttargaya"}}, {"type": "Feature", "geometry": {"type": "Point", "coordinates": [85.1858111, 27.9743389]}, "properties": {"name": "Betrawati Old Bridge", "status": "Washed out", "status_original": "Washed Out", "location": "Betrawati", "length_m": 70.0, "adm1_name": "Bagmati", "adm2_name": "Rasuwa", "adm3_name": "Uttargaya"}}, {"type": "Feature", "geometry": {"type": "Point", "coordinates": [85.1858111, 27.9743389]}, "properties": {"name": "Betrawati New Bridge", "status": "Washed out", "status_original": "Washed Out", "location": "Betrawati", "length_m": 70.0, "adm1_name": "Bagmati", "adm2_name": "Rasuwa", "adm3_name": "Uttargaya"}}, {"type": "Feature", "geometry": {"type": "Point", "coordinates": [85.1728111, 27.9637778]}, "properties": {"name": "Trisuli River Bridge Tupche", "status": "Washed out", "status_original": "Washed Out", "location": "Tupche", "length_m": 100.0, "adm1_name": "Bagmati", "adm2_name": "Nuwakot", "adm3_name": "Bidur"}}, {"type": "Feature", "geometry": {"type": "Point", "coordinates": [85.14945, 27.9218278]}, "properties": {"name": "Trisuli River Bridge ,Trisuli Bazzar(Old)", "status": "Washed out", "status_original": "Washed Out", "location": "Trisuli Bazzar", "length_m": 60.0, "adm1_name": "Bagmati", "adm2_name": "Nuwakot", "adm3_name": "Bidur"}}, {"type": "Feature", "geometry": {"type": "Point", "coordinates": [85.1479639, 27.9212361]}, "properties": {"name": "Trisuli River Bridge ,Trisuli Bazzar(New)", "status": "Washed out", "status_original": "Washed Out", "location": "Trisuli Bazzar", "length_m": 60.0, "adm1_name": "Bagmati", "adm2_name": "Nuwakot", "adm3_name": "Bidur"}}, {"type": "Feature", "geometry": {"type": "Point", "coordinates": [85.1385028, 27.9094861]}, "properties": {"name": "Trisuli River Bridge ,Simchaur", "status": "Washed out", "status_original": "Washed Out", "location": "Simchaur", "length_m": 100.0, "adm1_name": "Bagmati", "adm2_name": "Nuwakot", "adm3_name": "Bidur"}}, {"type": "Feature", "geometry": {"type": "Point", "coordinates": [85.1365, 27.8923417]}, "properties": {"name": "Suspension Bridge at Devighat near Jalshrot tatha Sinchai Division", "status": "Washed out", "status_original": "Washed Out", "location": "Devighat", "length_m": null, "adm1_name": "Bagmati", "adm2_name": "Nuwakot", "adm3_name": "Bidur"}}, {"type": "Feature", "geometry": {"type": "Point", "coordinates": [85.116225, 27.8703389]}, "properties": {"name": "Trisuli River Bridge, Near Devighat, Midhill Highway", "status": "Washed out", "status_original": "Washed Out", "location": "Near DeviGhat", "length_m": null, "adm1_name": "Bagmati", "adm2_name": "Nuwakot", "adm3_name": "Bidur"}}, {"type": "Feature", "geometry": {"type": "Point", "coordinates": [85.109075, 27.858575]}, "properties": {"name": "Tandi Khola Bridge, Devighat (Old)", "status": "Washed out", "status_original": "Washed Out", "location": "Devighat", "length_m": 55.0, "adm1_name": "Bagmati", "adm2_name": "Nuwakot", "adm3_name": "Bidur"}}, {"type": "Feature", "geometry": {"type": "Point", "coordinates": [85.109075, 27.858575]}, "properties": {"name": "Tandi Khola Bridge, Devighat (New)", "status": "Washed out", "status_original": "Washed Out", "location": "Devighat", "length_m": 55.0, "adm1_name": "Bagmati", "adm2_name": "Nuwakot", "adm3_name": "Bidur"}}, {"type": "Feature", "geometry": {"type": "Point", "coordinates": [85.0987083, 27.8593167]}, "properties": {"name": "Trisuli River Bridge,Khadgabhanjyang Srikhali Sadak", "status": "Washed out", "status_original": "Washed Out", "location": "Srikhali", "length_m": 180.0, "adm1_name": "Bagmati", "adm2_name": "Nuwakot", "adm3_name": "Bidur"}}, {"type": "Feature", "geometry": {"type": "Point", "coordinates": [85.0619361, 27.8594806]}, "properties": {"name": "Trishuli River Bridge, Buddhasinghghat", "status": "Washed out", "status_original": "Washed Out", "location": "Buddhasinghghat", "length_m": 140.0, "adm1_name": "Bagmati", "adm2_name": "Nuwakot", "adm3_name": "Belkotgadhi"}}, {"type": "Feature", "geometry": {"type": "Point", "coordinates": [85.0411889, 27.8560972]}, "properties": {"name": "Trishuli River Bridge, Ratmate", "status": "Washed out", "status_original": "Washed Out", "location": "Ratmate", "length_m": 150.0, "adm1_name": "Bagmati", "adm2_name": "Nuwakot", "adm3_name": "Tarakeshwor"}}, {"type": "Feature", "geometry": {"type": "Point", "coordinates": [85.0223333, 27.832525]}, "properties": {"name": "Trishuli River Bridge, Keurini, Fosretar", "status": "Washed out", "status_original": "Washed Out", "location": "Keurini, Fosretar", "length_m": null, "adm1_name": "Bagmati", "adm2_name": "Dhading", "adm3_name": "Galchhi"}}, {"type": "Feature", "geometry": {"type": "Point", "coordinates": [85.0027722, 27.8026889]}, "properties": {"name": "Trishuli River Bridge, BhimDhunga Lami Danda Sadak", "status": "Intact", "status_original": "जोगिएको", "location": "Near Galchhi", "length_m": 140.0, "adm1_name": "Bagmati", "adm2_name": "Dhading", "adm3_name": "Galchhi"}}, {"type": "Feature", "geometry": {"type": "Point", "coordinates": [84.9904889, 27.8042833]}, "properties": {"name": "Trishuli River Bridge, Baireni Syaltar Sadak", "status": "Washed out", "status_original": "Washed Out", "location": "Below Galchhi", "length_m": 150.0, "adm1_name": "Bagmati", "adm2_name": "Dhading", "adm3_name": "Galchhi"}}, {"type": "Feature", "geometry": {"type": "Point", "coordinates": [84.9652639, 27.8118583]}, "properties": {"name": "Trisuli River Bridge, Mastar Dhading", "status": "Damaged", "status_original": "क्षतिग्रस्त", "location": "Near Hamlet Resort", "length_m": 140.0, "adm1_name": "Bagmati", "adm2_name": "Dhading", "adm3_name": "Galchhi"}}, {"type": "Feature", "geometry": {"type": "Point", "coordinates": [84.9242806, 27.7979278]}, "properties": {"name": "Trisuli River Bridge, JareBagaicha", "status": "Washed out", "status_original": "Washed Out", "location": "JareBagaicha", "length_m": 120.0, "adm1_name": "Bagmati", "adm2_name": "Dhading", "adm3_name": "Siddhalek"}}, {"type": "Feature", "geometry": {"type": "Point", "coordinates": [84.9018806, 27.8068861]}, "properties": {"name": "Trisuli River Bridge, Ghatbesi", "status": "Washed out", "status_original": "Washed Out", "location": "Ghatbesi", "length_m": 200.0, "adm1_name": "Bagmati", "adm2_name": "Dhading", "adm3_name": "Siddhalek"}}, {"type": "Feature", "geometry": {"type": "Point", "coordinates": [85.0162111, 27.8101111]}, "properties": {"name": "Kolpu Khola Bridge (Old)", "status": "Damaged", "status_original": "क्षतिग्रस्त", "location": "", "length_m": 40.0, "adm1_name": "Bagmati", "adm2_name": "Nuwakot", "adm3_name": "Belkotgadhi"}}, {"type": "Feature", "geometry": {"type": "Point", "coordinates": [85.0162111, 27.8101111]}, "properties": {"name": "Kolpu Khola Bridge (New)", "status": "Damaged", "status_original": "क्षतिग्रस्त", "location": "", "length_m": 40.0, "adm1_name": "Bagmati", "adm2_name": "Nuwakot", "adm3_name": "Belkotgadhi"}}, {"type": "Feature", "geometry": {"type": "Point", "coordinates": [84.844075, 27.8025444]}, "properties": {"name": "Trishuli River Bridge, Furke Khola", "status": "Washed out", "status_original": "Washed Out", "location": "Malelkhu", "length_m": 120.0, "adm1_name": "Bagmati", "adm2_name": "Dhading", "adm3_name": "Siddhalek"}}, {"type": "Feature", "geometry": {"type": "Point", "coordinates": [84.7770806, 27.8105889]}, "properties": {"name": "Trishuli River Bridge, Benighat", "status": "Intact", "status_original": "जोगिएको", "location": "Benighat", "length_m": null, "adm1_name": "Gandaki", "adm2_name": "Gorkha", "adm3_name": "Gandaki"}}, {"type": "Feature", "geometry": {"type": "Point", "coordinates": [84.6620639, 27.8446278]}, "properties": {"name": "Trisuli River Bridge, Fisling Gorkha", "status": "Intact", "status_original": "जोगिएको", "location": "Fishling", "length_m": 145.0, "adm1_name": "Gandaki", "adm2_name": "Gorkha", "adm3_name": "Gandaki"}}, {"type": "Feature", "geometry": {"type": "Point", "coordinates": [84.6409583, 27.860075]}, "properties": {"name": "Hydropower Bailey Bridge Trishuli, Chumlingtar", "status": "Intact", "status_original": "जोगिएको", "location": "Chumlingtar", "length_m": null, "adm1_name": "Gandaki", "adm2_name": "Gorkha", "adm3_name": "Gandaki"}}]}