{
  "type": "FeatureCollection",
  "features": [
    {
      "type": "Feature",
      "geometry": {
        "type": "Point",
        "coordinates": [
          85.2070031,
          28.0717737
        ]
      },
      "properties": {
        "id": "7c750f78-63fb-49fc-ad56-f966f2c40a20",
        "name": "मैलुङ",
        "population": null,
        "region": "NP-P3",
        "source": "OpenStreetMap"
      }
    },
    {
      "type": "Feature",
      "geometry": {
        "type": "Point",
        "coordinates": [
          85.1911972,
          28.0292002
        ]
      },
      "properties": {
        "id": "787730b5-d693-42ce-8f19-27d39ce31c59",
        "name": "सिम्ले",
        "population": null,
        "region": "NP-P3",
        "source": "OpenStreetMap"
      }
    },
    {
      "type": "Feature",
      "geometry": {
        "type": "Point",
        "coordinates": [
          85.1703311,
          27.9603671
        ]
      },
      "properties": {
        "id": "e97c5510-1f50-48c0-9634-3c9b208ffcd5",
        "name": "भैंसे",
        "population": null,
        "region": "NP-P3",
        "source": "OpenStreetMap",
        "highlight": true
      }
    },
    {
      "type": "Feature",
      "geometry": {
        "type": "Point",
        "coordinates": [
          85.1859528,
          27.9731085
        ]
      },
      "properties": {
        "id": "d194b643-bbf7-4b08-b9d4-26a826a8eb72",
        "name": "बेत्रावती",
        "population": null,
        "region": "NP-P3",
        "source": "OpenStreetMap"
      }
    },
    {
      "type": "Feature",
      "geometry": {
        "type": "Point",
        "coordinates": [
          85.1825623,
          27.984691
        ]
      },
      "properties": {
        "id": "5d47d4b4-28f9-47d4-943f-80e3e26b729a",
        "name": "नौविसे फाँट",
        "population": null,
        "region": "NP-P3",
        "source": "OpenStreetMap"
      }
    },
    {
      "type": "Feature",
      "geometry": {
        "type": "Point",
        "coordinates": [
          84.590809,
          27.8820254
        ]
      },
      "properties": {
        "id": "51c7f6de-2bb1-46b7-87aa-df397d078c1b",
        "name": "Silintar",
        "population": null,
        "region": "NP-P4",
        "source": "OpenStreetMap"
      }
    },
    {
      "type": "Feature",
      "geometry": {
        "type": "Point",
        "coordinates": [
          84.9052684,
          27.8044981
        ]
      },
      "properties": {
        "id": "0b08727d-db83-4cdb-a757-08c657b5c626",
        "name": "घाटबेंसी",
        "population": null,
        "region": "NP-P3",
        "source": "OpenStreetMap"
      }
    },
    {
      "type": "Feature",
      "geometry": {
        "type": "Point",
        "coordinates": [
          84.7516264,
          27.8038614
        ]
      },
      "properties": {
        "id": "ad252f72-2df4-4a03-9838-124c0eeb2226",
        "name": "Dhussa",
        "population": null,
        "region": "NP-P3",
        "source": "OpenStreetMap"
      }
    },
    {
      "type": "Feature",
      "geometry": {
        "type": "Point",
        "coordinates": [
          84.7724679,
          27.8106448
        ]
      },
      "properties": {
        "id": "259fbb72-fa02-4219-8f1c-c28066e16367",
        "name": "Ghyalchok",
        "population": null,
        "region": "NP-P4",
        "source": "OpenStreetMap"
      }
    },
    {
      "type": "Feature",
      "geometry": {
        "type": "Point",
        "coordinates": [
          84.769707,
          27.8074205
        ]
      },
      "properties": {
        "id": "de25ae42-219b-4efe-833e-24cba16dfc39",
        "name": "बेनीघाट रोराङ गाउँपालिका",
        "population": null,
        "region": "NP-P3",
        "source": "OpenStreetMap"
      }
    },
    {
      "type": "Feature",
      "geometry": {
        "type": "Point",
        "coordinates": [
          84.8083472,
          27.8163594
        ]
      },
      "properties": {
        "id": "07f2f157-2c0f-4399-a892-84a3a340e46d",
        "name": "सलाङघाट",
        "population": null,
        "region": "NP-P3",
        "source": "OpenStreetMap"
      }
    },
    {
      "type": "Feature",
      "geometry": {
        "type": "Point",
        "coordinates": [
          84.836209,
          27.8062193
        ]
      },
      "properties": {
        "id": "b2a22f51-e765-432e-8027-d33cf7870d94",
        "name": "Old मलेखु",
        "population": null,
        "region": "NP-P3",
        "source": "OpenStreetMap"
      }
    },
    {
      "type": "Feature",
      "geometry": {
        "type": "Point",
        "coordinates": [
          84.82724,
          27.813705
        ]
      },
      "properties": {
        "id": "dab11360-c288-458a-a8b8-8ea03d208cc8",
        "name": "मलेखु",
        "population": null,
        "region": "NP-P3",
        "source": "OpenStreetMap",
        "highlight": true
      }
    },
    {
      "type": "Feature",
      "geometry": {
        "type": "Point",
        "coordinates": [
          84.661724,
          27.8428051
        ]
      },
      "properties": {
        "id": "fd32c136-344c-4d18-9fdf-dacee6b41e89",
        "name": "फिस्लिङ",
        "population": null,
        "region": "NP-P3",
        "source": "OpenStreetMap"
      }
    },
    {
      "type": "Feature",
      "geometry": {
        "type": "Point",
        "coordinates": [
          84.560951,
          27.8561616
        ]
      },
      "properties": {
        "id": "3af007c4-4d11-4152-bf4e-81fd7d146c25",
        "name": "मुग्लिङ",
        "population": 1500,
        "region": "NP-P3",
        "source": "OpenStreetMap",
        "highlight": true
      }
    },
    {
      "type": "Feature",
      "geometry": {
        "type": "Point",
        "coordinates": [
          84.980042,
          27.8010451
        ]
      },
      "properties": {
        "id": "051f83bd-b5f3-4e6d-8a41-f4138587a7da",
        "name": "महेश-दोभान",
        "population": null,
        "region": "NP-P3",
        "source": "OpenStreetMap"
      }
    },
    {
      "type": "Feature",
      "geometry": {
        "type": "Point",
        "coordinates": [
          84.94289581454476,
          27.80684445
        ]
      },
      "properties": {
        "id": "cd5a21ae-c895-4000-a916-ff317a9946d7",
        "name": "Adamghat",
        "population": null,
        "region": "NP-P3",
        "source": "OpenStreetMap"
      }
    },
    {
      "type": "Feature",
      "geometry": {
        "type": "Point",
        "coordinates": [
          84.942947,
          27.8069683
        ]
      },
      "properties": {
        "id": "d635422a-0425-491c-a5fb-1e852a6503b5",
        "name": "आदमघाट",
        "population": null,
        "region": "NP-P3",
        "source": "OpenStreetMap"
      }
    },
    {
      "type": "Feature",
      "geometry": {
        "type": "Point",
        "coordinates": [
          85.1100635,
          27.8600323
        ]
      },
      "properties": {
        "id": "c6d22f80-c43d-4473-985e-d131a2731639",
        "name": "देवीघाट",
        "population": null,
        "region": "NP-P3",
        "source": "OpenStreetMap",
        "highlight": true
      }
    },
    {
      "type": "Feature",
      "geometry": {
        "type": "Point",
        "coordinates": [
          85.3777789,
          28.2777749
        ]
      },
      "properties": {
        "id": "4a07a599-a481-45f4-9dae-1057a5739477",
        "name": "रसुवागढी",
        "population": null,
        "region": "NP-P3",
        "source": "OpenStreetMap",
        "highlight": true
      }
    },
   
    {
      "type": "Feature",
      "geometry": {
        "type": "Point",
        "coordinates": [
          84.4357,
          27.6765
        ]
      },
      "properties": {
        "id": "",
        "name": "Narayanghat",
        "population": null,
        "region": "NP",
        "source": "manual mapping",
        "highlight": true
      }
    }
  ]
}