{"type": "FeatureCollection", "features": [{"type": "Feature", "geometry": {"type": "Polygon", "coordinates": [[[85.3777248, 28.2792778], [85.3777078, 28.2793204], [85.3777604, 28.2793363], [85.3778462, 28.2793622], [85.3778962, 28.2793773], [85.3779125, 28.2793344], [85.3778627, 28.2793194], [85.3777772, 28.2792936], [85.3777248, 28.2792778]]]}, "properties": {"id": "way/1552746570", "name": null, "destroyed_building": null, "destroyed_building_part": "yes", "damage_type": null, "damage_event": null, "damage_date": null, "was_building_levels": "5", "ruins": null, "addr_street": null, "addr_city": null, "source": null}}, {"type": "Feature", "geometry": {"type": "Polygon", "coordinates": [[[85.3765802, 28.2722221], [85.3765675, 28.2722476], [85.3766119, 28.2722648], [85.3766246, 28.2722393], [85.3765802, 28.2722221]]]}, "properties": {"id": "way/1552753258", "name": null, "destroyed_building": "yes", "destroyed_building_part": null, "damage_type": "floods", "damage_event": "2026 Nepal Floods", "damage_date": "2026-08-26", "was_building_levels": null, "ruins": null, "addr_street": null, "addr_city": null, "source": null}}, {"type": "Feature", "geometry": {"type": "Polygon", "coordinates": [[[85.3787687, 28.2722528], [85.3788216, 28.2722514], [85.3788176, 28.2721326], [85.3787647, 28.272134], [85.3787687, 28.2722528]]]}, "properties": {"id": "way/1552911474", "name": null, "destroyed_building": "yes", "destroyed_building_part": null, "damage_type": "floods", "damage_event": "2026 Nepal Floods", "damage_date": "2026-08-26", "was_building_levels": null, "ruins": null, "addr_street": null, "addr_city": null, "source": null}}, {"type": "Feature", "geometry": {"type": "Polygon", "coordinates": [[[85.3799444, 28.2806162], [85.3799806, 28.2806366], [85.3800153, 28.2805887], [85.3799791, 28.2805684], [85.3799444, 28.2806162]]]}, "properties": {"id": "way/341558525", "name": null, "destroyed_building": "yes", "destroyed_building_part": null, "damage_type": null, "damage_event": null, "damage_date": null, "was_building_levels": null, "ruins": null, "addr_street": null, "addr_city": null, "source": null}}, {"type": "Feature", "geometry": {"type": "Polygon", "coordinates": [[[85.3777714, 28.2796378], [85.3777967, 28.2795704], [85.378048, 28.2796469], [85.3781106, 28.2794873], [85.3779284, 28.2794319], [85.3779436, 28.2793899], [85.3780171, 28.279412], [85.3780307, 28.2793771], [85.3780863, 28.2793939], [85.378142, 28.2794106], [85.3781284, 28.2794456], [85.3782045, 28.2794685], [85.3780674, 28.2798213], [85.3779971, 28.2798001], [85.3779828, 28.2798369], [85.3779263, 28.2798199], [85.3778697, 28.2798029], [85.3778843, 28.2797652], [85.3777891, 28.2797365], [85.3778045, 28.2796968], [85.377821, 28.2796528], [85.3777714, 28.2796378]]]}, "properties": {"id": "way/1552746566", "name": null, "destroyed_building": null, "destroyed_building_part": "yes", "damage_type": null, "damage_event": null, "damage_date": null, "was_building_levels": "2", "ruins": null, "addr_street": null, "addr_city": null, "source": null}}, {"type": "Feature", "geometry": {"type": "Polygon", "coordinates": [[[85.3776067, 28.2796372], [85.377755, 28.2796819], [85.3777714, 28.2796378], [85.3777433, 28.2796293], [85.3776554, 28.2796028], [85.3776237, 28.2795933], [85.3776067, 28.2796372]]]}, "properties": {"id": "way/1552746565", "name": null, "destroyed_building": null, "destroyed_building_part": "yes", "damage_type": null, "damage_event": null, "damage_date": null, "was_building_levels": "3", "ruins": null, "addr_street": null, "addr_city": null, "source": null}}, {"type": "Feature", "geometry": {"type": "Polygon", "coordinates": [[[85.3796113, 28.2804864], [85.3796941, 28.2805452], [85.3797303, 28.2805056], [85.3796475, 28.2804469], [85.3796113, 28.2804864]]]}, "properties": {"id": "way/849463479", "name": null, "destroyed_building": "yes", "destroyed_building_part": null, "damage_type": null, "damage_event": null, "damage_date": null, "was_building_levels": null, "ruins": null, "addr_street": null, "addr_city": null, "source": null}}, {"type": "Feature", "geometry": {"type": "Polygon", "coordinates": [[[85.3799151, 28.2808207], [85.3802611, 28.2809907], [85.3802833, 28.2809558], [85.3800187, 28.2808257], [85.3800459, 28.2807828], [85.3799645, 28.2807428], [85.3799151, 28.2808207]]]}, "properties": {"id": "way/846902679", "name": null, "destroyed_building": "yes", "destroyed_building_part": null, "damage_type": null, "damage_event": null, "damage_date": null, "was_building_levels": null, "ruins": null, "addr_street": null, "addr_city": null, "source": null}}, {"type": "Feature", "geometry": {"type": "Polygon", "coordinates": [[[85.376504, 28.2705287], [85.3765174, 28.2705653], [85.3765678, 28.270551], [85.3765544, 28.2705144], [85.376504, 28.2705287]]]}, "properties": {"id": "way/846902652", "name": null, "destroyed_building": "yes", "destroyed_building_part": null, "damage_type": "floods", "damage_event": "2026 Nepal Floods", "damage_date": "2026-08-26", "was_building_levels": null, "ruins": null, "addr_street": null, "addr_city": null, "source": null}}, {"type": "Feature", "geometry": {"type": "Polygon", "coordinates": [[[85.3796305, 28.2803589], [85.3797468, 28.2804685], [85.379838, 28.2803934], [85.3797217, 28.2802839], [85.3796305, 28.2803589]]]}, "properties": {"id": "way/262207911", "name": null, "destroyed_building": "yes", "destroyed_building_part": null, "damage_type": null, "damage_event": null, "damage_date": null, "was_building_levels": null, "ruins": null, "addr_street": null, "addr_city": null, "source": null}}, {"type": "Feature", "geometry": {"type": "Polygon", "coordinates": [[[85.3783165, 28.2804829], [85.3784922, 28.2804923], [85.3784967, 28.2804277], [85.378321, 28.2804183], [85.3783165, 28.2804829]]]}, "properties": {"id": "way/846902680", "name": null, "destroyed_building": "yes", "destroyed_building_part": null, "damage_type": null, "damage_event": null, "damage_date": null, "was_building_levels": null, "ruins": null, "addr_street": null, "addr_city": null, "source": null}}, {"type": "Feature", "geometry": {"type": "Polygon", "coordinates": [[[85.3790045, 28.2801805], [85.3790755, 28.2802453], [85.3792311, 28.280113], [85.37916, 28.2800483], [85.3790045, 28.2801805]]]}, "properties": {"id": "way/849463485", "name": null, "destroyed_building": "yes", "destroyed_building_part": null, "damage_type": null, "damage_event": null, "damage_date": null, "was_building_levels": null, "ruins": null, "addr_street": null, "addr_city": null, "source": null}}, {"type": "Feature", "geometry": {"type": "Polygon", "coordinates": [[[85.3803362, 28.2804929], [85.3804381, 28.280398], [85.3804057, 28.280371], [85.3803909, 28.2803848], [85.380215, 28.2802385], [85.3802206, 28.2802333], [85.3801378, 28.2801644], [85.3800452, 28.2802508], [85.3800769, 28.2802772], [85.3800909, 28.2802642], [85.3803195, 28.2804544], [85.3803055, 28.2804674], [85.3803362, 28.2804929]]]}, "properties": {"id": "way/1552971845", "name": null, "destroyed_building": "yes", "destroyed_building_part": null, "damage_type": null, "damage_event": null, "damage_date": null, "was_building_levels": null, "ruins": null, "addr_street": null, "addr_city": null, "source": null}}, {"type": "Feature", "geometry": {"type": "Polygon", "coordinates": [[[85.3785495, 28.2710745], [85.3786594, 28.2710331], [85.3785984, 28.2709072], [85.3784884, 28.2709486], [85.3785495, 28.2710745]]]}, "properties": {"id": "way/846902629", "name": null, "destroyed_building": "yes", "destroyed_building_part": null, "damage_type": "floods", "damage_event": "2026 Nepal Floods", "damage_date": "2026-08-26", "was_building_levels": null, "ruins": null, "addr_street": null, "addr_city": null, "source": null}}, {"type": "Feature", "geometry": {"type": "Polygon", "coordinates": [[[85.3766272, 28.2708838], [85.3766366, 28.2709778], [85.3769082, 28.2709569], [85.3768989, 28.2708629], [85.3766272, 28.2708838]]]}, "properties": {"id": "way/846902650", "name": null, "destroyed_building": "yes", "destroyed_building_part": null, "damage_type": "floods", "damage_event": "2026 Nepal Floods", "damage_date": "2026-08-26", "was_building_levels": null, "ruins": null, "addr_street": null, "addr_city": null, "source": null}}, {"type": "Feature", "geometry": {"type": "Polygon", "coordinates": [[[85.3380858, 28.1646048], [85.3381757, 28.1646428], [85.3382146, 28.1645711], [85.3381247, 28.1645332], [85.3380858, 28.1646048]]]}, "properties": {"id": "way/854116047", "name": null, "destroyed_building": "yes", "destroyed_building_part": null, "damage_type": null, "damage_event": null, "damage_date": null, "was_building_levels": null, "ruins": null, "addr_street": null, "addr_city": null, "source": null}}, {"type": "Feature", "geometry": {"type": "Polygon", "coordinates": [[[85.3764997, 28.2699902], [85.376435, 28.269809], [85.376519, 28.2697857], [85.3765837, 28.2699669], [85.3764997, 28.2699902]]]}, "properties": {"id": "way/1552917669", "name": null, "destroyed_building": "yes", "destroyed_building_part": null, "damage_type": "floods", "damage_event": "2026 Nepal Floods", "damage_date": "2026-08-26", "was_building_levels": null, "ruins": null, "addr_street": null, "addr_city": null, "source": null}}, {"type": "Feature", "geometry": {"type": "Polygon", "coordinates": [[[85.3769079, 28.2739934], [85.3768664, 28.274047], [85.3769024, 28.2740686], [85.3769438, 28.274015], [85.3769079, 28.2739934]]]}, "properties": {"id": "way/1552753255", "name": null, "destroyed_building": "yes", "destroyed_building_part": null, "damage_type": "floods", "damage_event": "2026 Nepal Floods", "damage_date": "2026-08-26", "was_building_levels": null, "ruins": null, "addr_street": null, "addr_city": null, "source": null}}, {"type": "Feature", "geometry": {"type": "Polygon", "coordinates": [[[85.3764033, 28.2696644], [85.3767169, 28.2695592], [85.3766969, 28.2695129], [85.3763833, 28.2696182], [85.3764033, 28.2696644]]]}, "properties": {"id": "way/1552917663", "name": null, "destroyed_building": "yes", "destroyed_building_part": null, "damage_type": "floods", "damage_event": "2026 Nepal Floods", "damage_date": "2026-08-26", "was_building_levels": null, "ruins": null, "addr_street": null, "addr_city": null, "source": null}}, {"type": "Feature", "geometry": {"type": "Polygon", "coordinates": [[[85.3768895, 28.273501], [85.3769827, 28.273509], [85.3769921, 28.2734246], [85.3768989, 28.2734165], [85.3768895, 28.273501]]]}, "properties": {"id": "way/1552613663", "name": null, "destroyed_building": "yes", "destroyed_building_part": null, "damage_type": "floods", "damage_event": "2026 Nepal Floods", "damage_date": "2026-08-26", "was_building_levels": null, "ruins": null, "addr_street": null, "addr_city": null, "source": null}}, {"type": "Feature", "geometry": {"type": "Polygon", "coordinates": [[[85.3769187, 28.2732422], [85.3770486, 28.2732392], [85.3770453, 28.2731289], [85.3769155, 28.2731319], [85.3769187, 28.2732422]]]}, "properties": {"id": "way/846902640", "name": null, "destroyed_building": "yes", "destroyed_building_part": null, "damage_type": "floods", "damage_event": "2026 Nepal Floods", "damage_date": "2026-08-26", "was_building_levels": null, "ruins": null, "addr_street": null, "addr_city": null, "source": null}}, {"type": "Feature", "geometry": {"type": "Polygon", "coordinates": [[[85.3794491, 28.2805443], [85.3795021, 28.2805769], [85.379539, 28.2805302], [85.3794859, 28.2804977], [85.3794491, 28.2805443]]]}, "properties": {"id": "way/849463478", "name": null, "destroyed_building": "yes", "destroyed_building_part": null, "damage_type": null, "damage_event": null, "damage_date": null, "was_building_levels": null, "ruins": null, "addr_street": null, "addr_city": null, "source": null}}, {"type": "Feature", "geometry": {"type": "Polygon", "coordinates": [[[85.3774005, 28.2794497], [85.3776494, 28.2795255], [85.3776819, 28.2795354], [85.3777692, 28.279562], [85.3777967, 28.2795704], [85.378048, 28.2796469], [85.3781106, 28.2794873], [85.3779284, 28.2794319], [85.3778808, 28.2794174], [85.3778308, 28.2794022], [85.3777447, 28.279376], [85.3776918, 28.2793599], [85.3776458, 28.2793459], [85.3774631, 28.2792903], [85.3774005, 28.2794497]]]}, "properties": {"id": "way/1552746561", "name": null, "destroyed_building": null, "destroyed_building_part": "yes", "damage_type": null, "damage_event": null, "damage_date": null, "was_building_levels": "6", "ruins": null, "addr_street": null, "addr_city": null, "source": null}}, {"type": "Feature", "geometry": {"type": "Polygon", "coordinates": [[[85.3780469, 28.2721445], [85.3781214, 28.2721449], [85.378122, 28.272054], [85.3780476, 28.2720536], [85.3780469, 28.2721445]]]}, "properties": {"id": "way/846902620", "name": null, "destroyed_building": "yes", "destroyed_building_part": null, "damage_type": "floods", "damage_event": "2026 Nepal Floods", "damage_date": "2026-08-26", "was_building_levels": null, "ruins": null, "addr_street": null, "addr_city": null, "source": null}}, {"type": "Feature", "geometry": {"type": "Polygon", "coordinates": [[[85.3772423, 28.2709279], [85.3772423, 28.2710053], [85.3773194, 28.2710053], [85.3773194, 28.2708518], [85.3772932, 28.2708518], [85.3772423, 28.2708518], [85.3771906, 28.2708518], [85.3771906, 28.2709279], [85.3772423, 28.2709279]]]}, "properties": {"id": "way/1552898137", "name": null, "destroyed_building": "yes", "destroyed_building_part": null, "damage_type": "floods", "damage_event": "2026 Nepal Floods", "damage_date": "2026-08-26", "was_building_levels": null, "ruins": null, "addr_street": null, "addr_city": null, "source": null}}, {"type": "Feature", "geometry": {"type": "Polygon", "coordinates": [[[85.3768379, 28.2722354], [85.3769108, 28.2722122], [85.3768826, 28.2721437], [85.3768098, 28.2721669], [85.3768379, 28.2722354]]]}, "properties": {"id": "way/846902644", "name": null, "destroyed_building": "yes", "destroyed_building_part": null, "damage_type": "floods", "damage_event": "2026 Nepal Floods", "damage_date": "2026-08-26", "was_building_levels": null, "ruins": null, "addr_street": null, "addr_city": null, "source": null}}, {"type": "Feature", "geometry": {"type": "Polygon", "coordinates": [[[85.3783078, 28.279991], [85.3783567, 28.2799485], [85.3783377, 28.2799315], [85.3782888, 28.279974], [85.3783078, 28.279991]]]}, "properties": {"id": "way/849463422", "name": null, "destroyed_building": "yes", "destroyed_building_part": null, "damage_type": null, "damage_event": null, "damage_date": null, "was_building_levels": null, "ruins": null, "addr_street": null, "addr_city": null, "source": null}}, {"type": "Feature", "geometry": {"type": "Polygon", "coordinates": [[[85.3787778, 28.2715835], [85.3788905, 28.2715409], [85.3788394, 28.271436], [85.3787268, 28.2714786], [85.3787778, 28.2715835]]]}, "properties": {"id": "way/846902626", "name": null, "destroyed_building": "yes", "destroyed_building_part": null, "damage_type": "floods", "damage_event": "2026 Nepal Floods", "damage_date": "2026-08-26", "was_building_levels": null, "ruins": null, "addr_street": null, "addr_city": null, "source": null}}, {"type": "Feature", "geometry": {"type": "Polygon", "coordinates": [[[85.3769266, 28.2722889], [85.3769206, 28.2723244], [85.3769707, 28.272331], [85.3769767, 28.2722955], [85.3769266, 28.2722889]]]}, "properties": {"id": "way/1552753260", "name": null, "destroyed_building": "yes", "destroyed_building_part": null, "damage_type": "floods", "damage_event": "2026 Nepal Floods", "damage_date": "2026-08-26", "was_building_levels": null, "ruins": null, "addr_street": null, "addr_city": null, "source": null}}, {"type": "Feature", "geometry": {"type": "Polygon", "coordinates": [[[85.3785002, 28.2703976], [85.3785927, 28.2703941], [85.3785859, 28.2702556], [85.3784933, 28.2702592], [85.3785002, 28.2703976]]]}, "properties": {"id": "way/846902630", "name": null, "destroyed_building": "yes", "destroyed_building_part": null, "damage_type": "floods", "damage_event": "2026 Nepal Floods", "damage_date": "2026-08-26", "was_building_levels": null, "ruins": null, "addr_street": null, "addr_city": null, "source": null}}, {"type": "Feature", "geometry": {"type": "Polygon", "coordinates": [[[85.3787709, 28.270768], [85.3788131, 28.2707812], [85.378827, 28.2707468], [85.3787848, 28.2707336], [85.3787709, 28.270768]]]}, "properties": {"id": "way/341571460", "name": null, "destroyed_building": "yes", "destroyed_building_part": null, "damage_type": "floods", "damage_event": "2026 Nepal Floods", "damage_date": "2026-08-26", "was_building_levels": null, "ruins": null, "addr_street": null, "addr_city": null, "source": null}}, {"type": "Feature", "geometry": {"type": "Polygon", "coordinates": [[[85.3764512, 28.2816432], [85.3765451, 28.2816905], [85.3768031, 28.2812928], [85.3767093, 28.2812455], [85.3764512, 28.2816432]]]}, "properties": {"id": "way/846902607", "name": null, "destroyed_building": "yes", "destroyed_building_part": null, "damage_type": null, "damage_event": null, "damage_date": null, "was_building_levels": null, "ruins": null, "addr_street": null, "addr_city": null, "source": null}}, {"type": "Feature", "geometry": {"type": "Polygon", "coordinates": [[[85.3782561, 28.2724634], [85.3783247, 28.2724457], [85.3782604, 28.272252], [85.3781918, 28.2722697], [85.3782561, 28.2724634]]]}, "properties": {"id": "way/846902618", "name": null, "destroyed_building": "yes", "destroyed_building_part": null, "damage_type": "floods", "damage_event": "2026 Nepal Floods", "damage_date": "2026-08-26", "was_building_levels": null, "ruins": null, "addr_street": null, "addr_city": null, "source": null}}, {"type": "Feature", "geometry": {"type": "Polygon", "coordinates": [[[85.378094, 28.2717588], [85.3781266, 28.2717591], [85.3781271, 28.2717095], [85.3780945, 28.2717093], [85.378094, 28.2717588]]]}, "properties": {"id": "way/1552910811", "name": null, "destroyed_building": "yes", "destroyed_building_part": null, "damage_type": "floods", "damage_event": "2026 Nepal Floods", "damage_date": "2026-08-26", "was_building_levels": null, "ruins": null, "addr_street": null, "addr_city": null, "source": null}}, {"type": "Feature", "geometry": {"type": "Polygon", "coordinates": [[[85.3788472, 28.2800743], [85.3788939, 28.2801088], [85.3789585, 28.2800411], [85.3789118, 28.2800066], [85.3788472, 28.2800743]]]}, "properties": {"id": "way/341558548", "name": null, "destroyed_building": "yes", "destroyed_building_part": null, "damage_type": null, "damage_event": null, "damage_date": null, "was_building_levels": null, "ruins": null, "addr_street": null, "addr_city": null, "source": null}}, {"type": "Feature", "geometry": {"type": "Polygon", "coordinates": [[[85.3784791, 28.2795853], [85.3788502, 28.2798909], [85.3787709, 28.2799656], [85.3783998, 28.27966], [85.3784791, 28.2795853]]]}, "properties": {"id": "way/806977551", "name": null, "destroyed_building": "yes", "destroyed_building_part": null, "damage_type": "landslide", "damage_event": null, "damage_date": null, "was_building_levels": null, "ruins": null, "addr_street": null, "addr_city": null, "source": null}}, {"type": "Feature", "geometry": {"type": "Polygon", "coordinates": [[[85.3785796, 28.2720243], [85.3786341, 28.2720172], [85.3786079, 28.2718606], [85.3785533, 28.2718676], [85.3785796, 28.2720243]]]}, "properties": {"id": "way/846902621", "name": null, "destroyed_building": "yes", "destroyed_building_part": null, "damage_type": "floods", "damage_event": "2026 Nepal Floods", "damage_date": "2026-08-26", "was_building_levels": null, "ruins": null, "addr_street": null, "addr_city": null, "source": null}}, {"type": "Feature", "geometry": {"type": "Polygon", "coordinates": [[[85.3778664, 28.2720566], [85.3779617, 28.2720587], [85.3779687, 28.2718227], [85.3778733, 28.2718205], [85.3778664, 28.2720566]]]}, "properties": {"id": "way/846902624", "name": null, "destroyed_building": "yes", "destroyed_building_part": null, "damage_type": "floods", "damage_event": "2026 Nepal Floods", "damage_date": "2026-08-26", "was_building_levels": null, "ruins": null, "addr_street": null, "addr_city": null, "source": null}}, {"type": "Feature", "geometry": {"type": "Polygon", "coordinates": [[[85.376476, 28.2732367], [85.3764614, 28.2733082], [85.3765603, 28.2733239], [85.3765749, 28.2732524], [85.376476, 28.2732367]]]}, "properties": {"id": "way/1552753262", "name": null, "destroyed_building": "yes", "destroyed_building_part": null, "damage_type": "floods", "damage_event": "2026 Nepal Floods", "damage_date": "2026-08-26", "was_building_levels": null, "ruins": null, "addr_street": null, "addr_city": null, "source": null}}, {"type": "Feature", "geometry": {"type": "Polygon", "coordinates": [[[85.3383336, 28.1647623], [85.3383993, 28.1647161], [85.3384438, 28.1647654], [85.3383781, 28.1648116], [85.3383336, 28.1647623]]]}, "properties": {"id": "way/1553015577", "name": null, "destroyed_building": "yes", "destroyed_building_part": null, "damage_type": null, "damage_event": null, "damage_date": null, "was_building_levels": null, "ruins": null, "addr_street": null, "addr_city": null, "source": null}}, {"type": "Feature", "geometry": {"type": "Polygon", "coordinates": [[[85.3766804, 28.270104], [85.3767266, 28.2702659], [85.3768543, 28.2702375], [85.3768081, 28.2700757], [85.3766804, 28.270104]]]}, "properties": {"id": "way/846902654", "name": null, "destroyed_building": "yes", "destroyed_building_part": null, "damage_type": "floods", "damage_event": "2026 Nepal Floods", "damage_date": "2026-08-26", "was_building_levels": null, "ruins": null, "addr_street": null, "addr_city": null, "source": null}}, {"type": "Feature", "geometry": {"type": "Polygon", "coordinates": [[[85.3763959, 28.2694841], [85.3765762, 28.2694082], [85.3765993, 28.2694508], [85.3764191, 28.2695267], [85.3763959, 28.2694841]]]}, "properties": {"id": "way/1552917660", "name": null, "destroyed_building": "yes", "destroyed_building_part": null, "damage_type": "floods", "damage_event": "2026 Nepal Floods", "damage_date": "2026-08-26", "was_building_levels": null, "ruins": null, "addr_street": null, "addr_city": null, "source": null}}, {"type": "Feature", "geometry": {"type": "Polygon", "coordinates": [[[85.3794216, 28.280386], [85.3794854, 28.2804432], [85.3795658, 28.2803735], [85.379502, 28.2803164], [85.3794216, 28.280386]]]}, "properties": {"id": "way/849463481", "name": null, "destroyed_building": "yes", "destroyed_building_part": null, "damage_type": null, "damage_event": null, "damage_date": null, "was_building_levels": null, "ruins": null, "addr_street": null, "addr_city": null, "source": null}}, {"type": "Feature", "geometry": {"type": "Polygon", "coordinates": [[[85.3779175, 28.2806264], [85.3779799, 28.2806299], [85.3779827, 28.2805912], [85.3779203, 28.2805877], [85.3779175, 28.2806264]]]}, "properties": {"id": "way/846902684", "name": null, "destroyed_building": "yes", "destroyed_building_part": null, "damage_type": null, "damage_event": null, "damage_date": null, "was_building_levels": null, "ruins": null, "addr_street": null, "addr_city": null, "source": null}}, {"type": "Feature", "geometry": {"type": "Polygon", "coordinates": [[[85.3779933, 28.2711854], [85.3780241, 28.2712008], [85.3780529, 28.271156], [85.378022, 28.2711406], [85.3779933, 28.2711854]]]}, "properties": {"id": "way/846902628", "name": null, "destroyed_building": "yes", "destroyed_building_part": null, "damage_type": "floods", "damage_event": "2026 Nepal Floods", "damage_date": "2026-08-26", "was_building_levels": null, "ruins": null, "addr_street": null, "addr_city": null, "source": null}}, {"type": "Feature", "geometry": {"type": "Polygon", "coordinates": [[[85.3765838, 28.2708482], [85.3767387, 28.2708086], [85.3767277, 28.2707754], [85.3765728, 28.270815], [85.3765838, 28.2708482]]]}, "properties": {"id": "way/1552898136", "name": null, "destroyed_building": "yes", "destroyed_building_part": null, "damage_type": "floods", "damage_event": "2026 Nepal Floods", "damage_date": "2026-08-26", "was_building_levels": null, "ruins": null, "addr_street": null, "addr_city": null, "source": null}}, {"type": "Feature", "geometry": {"type": "Polygon", "coordinates": [[[85.3777325, 28.2808545], [85.3777729, 28.2808714], [85.3777969, 28.280827], [85.3777565, 28.2808101], [85.3777325, 28.2808545]]]}, "properties": {"id": "way/262207904", "name": null, "destroyed_building": "yes", "destroyed_building_part": null, "damage_type": null, "damage_event": null, "damage_date": null, "was_building_levels": null, "ruins": null, "addr_street": null, "addr_city": null, "source": null}}, {"type": "Feature", "geometry": {"type": "Polygon", "coordinates": [[[85.3801914, 28.2806789], [85.3802957, 28.2807639], [85.3805573, 28.2805147], [85.3804775, 28.2804498], [85.3802746, 28.2806432], [85.38025, 28.2806231], [85.3801914, 28.2806789]]]}, "properties": {"id": "way/1552971844", "name": null, "destroyed_building": "yes", "destroyed_building_part": null, "damage_type": null, "damage_event": null, "damage_date": null, "was_building_levels": null, "ruins": null, "addr_street": null, "addr_city": null, "source": null}}, {"type": "Feature", "geometry": {"type": "Polygon", "coordinates": [[[85.3768896, 28.2735102], [85.3768645, 28.2735509], [85.376924, 28.2735794], [85.3769364, 28.2735593], [85.3769757, 28.2735781], [85.3769921, 28.2735515], [85.3769542, 28.2735151], [85.3768896, 28.2735102]]]}, "properties": {"id": "way/1552753261", "name": null, "destroyed_building": "yes", "destroyed_building_part": null, "damage_type": "floods", "damage_event": "2026 Nepal Floods", "damage_date": "2026-08-26", "was_building_levels": null, "ruins": null, "addr_street": null, "addr_city": null, "source": null}}, {"type": "Feature", "geometry": {"type": "Polygon", "coordinates": [[[85.3768145, 28.2810202], [85.3771926, 28.2798438], [85.3775025, 28.279921], [85.3771246, 28.2810975], [85.3768145, 28.2810202]]]}, "properties": {"id": "way/1552733043", "name": null, "destroyed_building": "yes", "destroyed_building_part": null, "damage_type": "flood", "damage_event": null, "damage_date": null, "was_building_levels": null, "ruins": null, "addr_street": null, "addr_city": null, "source": null}}, {"type": "Feature", "geometry": {"type": "Polygon", "coordinates": [[[85.376764, 28.2812295], [85.3768542, 28.2812576], [85.3768776, 28.2811991], [85.3767875, 28.281171], [85.376764, 28.2812295]]]}, "properties": {"id": "way/340629645", "name": null, "destroyed_building": "yes", "destroyed_building_part": null, "damage_type": null, "damage_event": null, "damage_date": null, "was_building_levels": null, "ruins": null, "addr_street": null, "addr_city": null, "source": null}}, {"type": "Feature", "geometry": {"type": "Polygon", "coordinates": [[[85.3809115, 28.2812187], [85.3809712, 28.2811919], [85.380931, 28.2811223], [85.3808713, 28.281149], [85.3809115, 28.2812187]]]}, "properties": {"id": "way/846902677", "name": null, "destroyed_building": "yes", "destroyed_building_part": null, "damage_type": null, "damage_event": null, "damage_date": null, "was_building_levels": null, "ruins": null, "addr_street": null, "addr_city": null, "source": null}}, {"type": "Feature", "geometry": {"type": "Polygon", "coordinates": [[[85.3785377, 28.2803293], [85.3787096, 28.2804045], [85.3786814, 28.2804546], [85.3788556, 28.2805307], [85.3788873, 28.2804744], [85.3789276, 28.2804031], [85.3785814, 28.2802518], [85.3785377, 28.2803293]]]}, "properties": {"id": "way/846902609", "name": null, "destroyed_building": "yes", "destroyed_building_part": null, "damage_type": null, "damage_event": null, "damage_date": null, "was_building_levels": null, "ruins": null, "addr_street": null, "addr_city": null, "source": null}}, {"type": "Feature", "geometry": {"type": "Polygon", "coordinates": [[[85.3786652, 28.2800825], [85.3787143, 28.2801194], [85.378776, 28.2800556], [85.3787269, 28.2800187], [85.3786652, 28.2800825]]]}, "properties": {"id": "way/849463477", "name": null, "destroyed_building": "yes", "destroyed_building_part": null, "damage_type": null, "damage_event": null, "damage_date": null, "was_building_levels": null, "ruins": null, "addr_street": null, "addr_city": null, "source": null}}, {"type": "Feature", "geometry": {"type": "Polygon", "coordinates": [[[85.3777128, 28.2776172], [85.3778021, 28.2778708], [85.3780935, 28.2777912], [85.3780041, 28.2775376], [85.3777128, 28.2776172]]]}, "properties": {"id": "way/1552581857", "name": null, "destroyed_building": "yes", "destroyed_building_part": null, "damage_type": "landslide", "damage_event": null, "damage_date": null, "was_building_levels": null, "ruins": null, "addr_street": null, "addr_city": null, "source": null}}, {"type": "Feature", "geometry": {"type": "Polygon", "coordinates": [[[85.3766554, 28.2732884], [85.3769112, 28.2732688], [85.3768992, 28.2731477], [85.3766434, 28.2731673], [85.3766554, 28.2732884]]]}, "properties": {"id": "way/846902641", "name": null, "destroyed_building": "yes", "destroyed_building_part": null, "damage_type": "floods", "damage_event": "2026 Nepal Floods", "damage_date": "2026-08-26", "was_building_levels": null, "ruins": null, "addr_street": null, "addr_city": null, "source": null}}, {"type": "Feature", "geometry": {"type": "Polygon", "coordinates": [[[85.3769005, 28.2730534], [85.3769813, 28.2730457], [85.3769677, 28.2729338], [85.3768868, 28.2729415], [85.3769005, 28.2730534]]]}, "properties": {"id": "way/846902643", "name": null, "destroyed_building": "yes", "destroyed_building_part": null, "damage_type": "floods", "damage_event": "2026 Nepal Floods", "damage_date": "2026-08-26", "was_building_levels": null, "ruins": null, "addr_street": null, "addr_city": null, "source": null}}, {"type": "Feature", "geometry": {"type": "Polygon", "coordinates": [[[85.3766464, 28.271462], [85.3767036, 28.2714622], [85.3767041, 28.2713381], [85.3766468, 28.271338], [85.3766464, 28.271462]]]}, "properties": {"id": "way/846902648", "name": null, "destroyed_building": "yes", "destroyed_building_part": null, "damage_type": "floods", "damage_event": "2026 Nepal Floods", "damage_date": "2026-08-26", "was_building_levels": null, "ruins": null, "addr_street": null, "addr_city": null, "source": null}}, {"type": "Feature", "geometry": {"type": "Polygon", "coordinates": [[[85.3372275, 28.1642728], [85.3373127, 28.1641995], [85.3372695, 28.1641604], [85.3371842, 28.1642336], [85.3372275, 28.1642728]]]}, "properties": {"id": "way/1553015579", "name": null, "destroyed_building": "yes", "destroyed_building_part": null, "damage_type": null, "damage_event": null, "damage_date": null, "was_building_levels": null, "ruins": null, "addr_street": null, "addr_city": null, "source": null}}, {"type": "Feature", "geometry": {"type": "Polygon", "coordinates": [[[85.3764096, 28.2694197], [85.3765208, 28.2693698], [85.3765407, 28.2694042], [85.3764295, 28.269454], [85.3764096, 28.2694197]]]}, "properties": {"id": "way/1552917659", "name": null, "destroyed_building": "yes", "destroyed_building_part": null, "damage_type": "floods", "damage_event": "2026 Nepal Floods", "damage_date": "2026-08-26", "was_building_levels": null, "ruins": null, "addr_street": null, "addr_city": null, "source": null}}, {"type": "Feature", "geometry": {"type": "Polygon", "coordinates": [[[85.3780818, 28.2798286], [85.3781265, 28.2798603], [85.3781815, 28.2798], [85.3781368, 28.2797684], [85.3780818, 28.2798286]]]}, "properties": {"id": "way/849463424", "name": null, "destroyed_building": "yes", "destroyed_building_part": null, "damage_type": "landslide", "damage_event": null, "damage_date": null, "was_building_levels": null, "ruins": null, "addr_street": null, "addr_city": null, "source": null}}, {"type": "Feature", "geometry": {"type": "Polygon", "coordinates": [[[85.3773299, 28.2773216], [85.3774262, 28.2774697], [85.3774061, 28.2774798], [85.3774529, 28.2775517], [85.3775147, 28.2775205], [85.3774918, 28.2774853], [85.3775434, 28.2774593], [85.3774849, 28.2773694], [85.3775023, 28.2773606], [85.3774406, 28.2772657], [85.3773299, 28.2773216]]]}, "properties": {"id": "way/1552581856", "name": null, "destroyed_building": "yes", "destroyed_building_part": null, "damage_type": "landslide", "damage_event": null, "damage_date": null, "was_building_levels": null, "ruins": null, "addr_street": null, "addr_city": null, "source": null}}, {"type": "Feature", "geometry": {"type": "Polygon", "coordinates": [[[85.3776237, 28.2795933], [85.3776067, 28.2796372], [85.3775576, 28.2796225], [85.3775743, 28.2795784], [85.3776237, 28.2795933]]]}, "properties": {"id": "way/1552746563", "name": null, "destroyed_building": null, "destroyed_building_part": "yes", "damage_type": null, "damage_event": null, "damage_date": null, "was_building_levels": "3", "ruins": null, "addr_street": null, "addr_city": null, "source": null}}, {"type": "Feature", "geometry": {"type": "Polygon", "coordinates": [[[85.3775355, 28.2778305], [85.3776131, 28.277731], [85.3773881, 28.2775951], [85.3773106, 28.2776946], [85.3775355, 28.2778305]]]}, "properties": {"id": "way/1154989010", "name": null, "destroyed_building": "yes", "destroyed_building_part": null, "damage_type": "landslide", "damage_event": null, "damage_date": null, "was_building_levels": "5", "ruins": null, "addr_street": null, "addr_city": null, "source": null}}, {"type": "Feature", "geometry": {"type": "Polygon", "coordinates": [[[85.3780735, 28.2725204], [85.3780856, 28.2725994], [85.3783489, 28.2725682], [85.3783368, 28.2724891], [85.3780735, 28.2725204]]]}, "properties": {"id": "way/846902615", "name": null, "destroyed_building": "yes", "destroyed_building_part": null, "damage_type": "floods", "damage_event": "2026 Nepal Floods", "damage_date": "2026-08-26", "was_building_levels": null, "ruins": null, "addr_street": null, "addr_city": null, "source": null}}, {"type": "Feature", "geometry": {"type": "Polygon", "coordinates": [[[85.3765608, 28.272257], [85.3765389, 28.2723], [85.3766896, 28.2723595], [85.3767115, 28.2723165], [85.3765608, 28.272257]]]}, "properties": {"id": "way/1552753257", "name": null, "destroyed_building": "yes", "destroyed_building_part": null, "damage_type": "floods", "damage_event": "2026 Nepal Floods", "damage_date": "2026-08-26", "was_building_levels": null, "ruins": null, "addr_street": null, "addr_city": null, "source": null}}, {"type": "Feature", "geometry": {"type": "Polygon", "coordinates": [[[85.3766371, 28.2722379], [85.3766174, 28.2722651], [85.3766538, 28.2722856], [85.3766735, 28.2722584], [85.3766371, 28.2722379]]]}, "properties": {"id": "way/1552753259", "name": null, "destroyed_building": "yes", "destroyed_building_part": null, "damage_type": "floods", "damage_event": "2026 Nepal Floods", "damage_date": "2026-08-26", "was_building_levels": null, "ruins": null, "addr_street": null, "addr_city": null, "source": null}}, {"type": "Feature", "geometry": {"type": "Polygon", "coordinates": [[[85.3776237, 28.2795933], [85.3776494, 28.2795255], [85.3774005, 28.2794497], [85.3774631, 28.2792903], [85.3776458, 28.2793459], [85.3776625, 28.2793052], [85.3775928, 28.2792842], [85.3776064, 28.2792494], [85.3775523, 28.2792331], [85.3774982, 28.2792168], [85.3774851, 28.2792507], [85.3774074, 28.2792273], [85.3772699, 28.2795817], [85.3773472, 28.2796049], [85.3773331, 28.2796411], [85.3773878, 28.2796576], [85.3774425, 28.279674], [85.3774563, 28.2796385], [85.3775415, 28.2796641], [85.3775576, 28.2796225], [85.3775743, 28.2795784], [85.3776237, 28.2795933]]]}, "properties": {"id": "way/1552746562", "name": null, "destroyed_building": null, "destroyed_building_part": "yes", "damage_type": null, "damage_event": null, "damage_date": null, "was_building_levels": "2", "ruins": null, "addr_street": null, "addr_city": null, "source": null}}, {"type": "Feature", "geometry": {"type": "Polygon", "coordinates": [[[85.3763189, 28.2700829], [85.3763652, 28.2702955], [85.3764953, 28.2702735], [85.376449, 28.2700609], [85.3763189, 28.2700829]]]}, "properties": {"id": "way/846902653", "name": null, "destroyed_building": "yes", "destroyed_building_part": null, "damage_type": "floods", "damage_event": "2026 Nepal Floods", "damage_date": "2026-08-26", "was_building_levels": null, "ruins": null, "addr_street": null, "addr_city": null, "source": null}}, {"type": "Feature", "geometry": {"type": "Polygon", "coordinates": [[[85.3763873, 28.2693722], [85.3764709, 28.2693346], [85.3764899, 28.2693673], [85.3764063, 28.2694049], [85.3763873, 28.2693722]]]}, "properties": {"id": "way/1552917658", "name": null, "destroyed_building": "yes", "destroyed_building_part": null, "damage_type": "floods", "damage_event": "2026 Nepal Floods", "damage_date": "2026-08-26", "was_building_levels": null, "ruins": null, "addr_street": null, "addr_city": null, "source": null}}, {"type": "Feature", "geometry": {"type": "Polygon", "coordinates": [[[85.37642, 28.2697241], [85.376656, 28.2696441], [85.3766359, 28.2695982], [85.3764, 28.2696783], [85.37642, 28.2697241]]]}, "properties": {"id": "way/1552917664", "name": null, "destroyed_building": "yes", "destroyed_building_part": null, "damage_type": "floods", "damage_event": "2026 Nepal Floods", "damage_date": "2026-08-26", "was_building_levels": null, "ruins": null, "addr_street": null, "addr_city": null, "source": null}}, {"type": "Feature", "geometry": {"type": "Polygon", "coordinates": [[[85.3764433, 28.2697872], [85.3767377, 28.2696931], [85.3767165, 28.2696417], [85.3764222, 28.2697358], [85.3764433, 28.2697872]]]}, "properties": {"id": "way/1552917665", "name": null, "destroyed_building": "yes", "destroyed_building_part": null, "damage_type": "floods", "damage_event": "2026 Nepal Floods", "damage_date": "2026-08-26", "was_building_levels": null, "ruins": null, "addr_street": null, "addr_city": null, "source": null}}, {"type": "Feature", "geometry": {"type": "Polygon", "coordinates": [[[85.3781777, 28.2716584], [85.3781696, 28.2722348], [85.3782509, 28.2722357], [85.378259, 28.2716593], [85.3781777, 28.2716584]]]}, "properties": {"id": "way/846902625", "name": null, "destroyed_building": "yes", "destroyed_building_part": null, "damage_type": "floods", "damage_event": "2026 Nepal Floods", "damage_date": "2026-08-26", "was_building_levels": null, "ruins": null, "addr_street": null, "addr_city": null, "source": null}}, {"type": "Feature", "geometry": {"type": "Polygon", "coordinates": [[[85.3789213, 28.2713992], [85.378987, 28.2713791], [85.3789695, 28.2713347], [85.3789038, 28.2713548], [85.3789213, 28.2713992]]]}, "properties": {"id": "way/846902627", "name": null, "destroyed_building": "yes", "destroyed_building_part": null, "damage_type": "floods", "damage_event": "2026 Nepal Floods", "damage_date": "2026-08-26", "was_building_levels": null, "ruins": null, "addr_street": null, "addr_city": null, "source": null}}, {"type": "Feature", "geometry": {"type": "Polygon", "coordinates": [[[85.3768063, 28.2731408], [85.3768788, 28.2731379], [85.3768748, 28.2730631], [85.3768024, 28.2730661], [85.3768063, 28.2731408]]]}, "properties": {"id": "way/846902642", "name": null, "destroyed_building": "yes", "destroyed_building_part": null, "damage_type": "floods", "damage_event": "2026 Nepal Floods", "damage_date": "2026-08-26", "was_building_levels": null, "ruins": null, "addr_street": null, "addr_city": null, "source": null}}, {"type": "Feature", "geometry": {"type": "Polygon", "coordinates": [[[85.3781374, 28.2716743], [85.37817, 28.2716746], [85.3781705, 28.271625], [85.3781379, 28.2716248], [85.3781374, 28.2716743]]]}, "properties": {"id": "way/1552911471", "name": null, "destroyed_building": "yes", "destroyed_building_part": null, "damage_type": "floods", "damage_event": "2026 Nepal Floods", "damage_date": "2026-08-26", "was_building_levels": null, "ruins": null, "addr_street": null, "addr_city": null, "source": null}}, {"type": "Feature", "geometry": {"type": "Polygon", "coordinates": [[[85.3766052, 28.2697651], [85.376681, 28.2697421], [85.3767434, 28.2699458], [85.3766689, 28.2699647], [85.3766052, 28.2697651]]]}, "properties": {"id": "way/1552917667", "name": null, "destroyed_building": "yes", "destroyed_building_part": null, "damage_type": "floods", "damage_event": "2026 Nepal Floods", "damage_date": "2026-08-26", "was_building_levels": null, "ruins": null, "addr_street": null, "addr_city": null, "source": null}}, {"type": "Feature", "geometry": {"type": "Polygon", "coordinates": [[[85.3778069, 28.2801534], [85.3784975, 28.2802916], [85.3785153, 28.2802229], [85.3778246, 28.2800847], [85.3778069, 28.2801534]]]}, "properties": {"id": "way/846902610", "name": null, "destroyed_building": "yes", "destroyed_building_part": null, "damage_type": null, "damage_event": null, "damage_date": null, "was_building_levels": null, "ruins": null, "addr_street": null, "addr_city": null, "source": null}}, {"type": "Feature", "geometry": {"type": "Polygon", "coordinates": [[[85.3789573, 28.2712726], [85.3789772, 28.2712757], [85.3789714, 28.2713049], [85.3789977, 28.271309], [85.3790083, 28.2712558], [85.3790188, 28.2712026], [85.3789726, 28.2711955], [85.3789573, 28.2712726]]]}, "properties": {"id": "way/341571474", "name": null, "destroyed_building": "yes", "destroyed_building_part": null, "damage_type": "floods", "damage_event": "2026 Nepal Floods", "damage_date": "2026-08-26", "was_building_levels": null, "ruins": null, "addr_street": null, "addr_city": null, "source": null}}, {"type": "Feature", "geometry": {"type": "Polygon", "coordinates": [[[85.37805, 28.27251], [85.3782243, 28.2724865], [85.3782138, 28.2724254], [85.3780394, 28.2724489], [85.37805, 28.27251]]]}, "properties": {"id": "way/846902617", "name": null, "destroyed_building": "yes", "destroyed_building_part": null, "damage_type": "floods", "damage_event": "2026 Nepal Floods", "damage_date": "2026-08-26", "was_building_levels": null, "ruins": null, "addr_street": null, "addr_city": null, "source": null}}, {"type": "Feature", "geometry": {"type": "Polygon", "coordinates": [[[85.3767454, 28.2710868], [85.376736, 28.2712705], [85.377098, 28.2712848], [85.3771074, 28.2711012], [85.3767454, 28.2710868]]]}, "properties": {"id": "way/846902649", "name": null, "destroyed_building": "yes", "destroyed_building_part": null, "damage_type": "floods", "damage_event": "2026 Nepal Floods", "damage_date": "2026-08-26", "was_building_levels": null, "ruins": null, "addr_street": null, "addr_city": null, "source": null}}, {"type": "Feature", "geometry": {"type": "Polygon", "coordinates": [[[85.3779134, 28.2714171], [85.3779303, 28.2713216], [85.3780147, 28.2713332], [85.3779978, 28.2714287], [85.3779134, 28.2714171]]]}, "properties": {"id": "way/1154989013", "name": null, "destroyed_building": "yes", "destroyed_building_part": null, "damage_type": "floods", "damage_event": "2026 Nepal Floods", "damage_date": "2026-08-26", "was_building_levels": null, "ruins": null, "addr_street": null, "addr_city": null, "source": null}}, {"type": "Feature", "geometry": {"type": "Polygon", "coordinates": [[[85.3792472, 28.2802361], [85.3793077, 28.2802872], [85.3793734, 28.280227], [85.3793129, 28.2801758], [85.3792472, 28.2802361]]]}, "properties": {"id": "way/849463483", "name": null, "destroyed_building": "yes", "destroyed_building_part": null, "damage_type": null, "damage_event": null, "damage_date": null, "was_building_levels": null, "ruins": null, "addr_street": null, "addr_city": null, "source": null}}, {"type": "Feature", "geometry": {"type": "Polygon", "coordinates": [[[85.3764037, 28.2734809], [85.3764176, 28.2735985], [85.3765111, 28.2735899], [85.3764972, 28.2734723], [85.3764037, 28.2734809]]]}, "properties": {"id": "way/1552753256", "name": null, "destroyed_building": "yes", "destroyed_building_part": null, "damage_type": "floods", "damage_event": "2026 Nepal Floods", "damage_date": "2026-08-26", "was_building_levels": null, "ruins": null, "addr_street": null, "addr_city": null, "source": null}}, {"type": "Feature", "geometry": {"type": "Polygon", "coordinates": [[[85.3780096, 28.2724292], [85.3781924, 28.2724079], [85.3781837, 28.27235], [85.3780009, 28.2723714], [85.3780096, 28.2724292]]]}, "properties": {"id": "way/846902616", "name": null, "destroyed_building": "yes", "destroyed_building_part": null, "damage_type": "floods", "damage_event": "2026 Nepal Floods", "damage_date": "2026-08-26", "was_building_levels": null, "ruins": null, "addr_street": null, "addr_city": null, "source": null}}, {"type": "Feature", "geometry": {"type": "Polygon", "coordinates": [[[85.3766059, 28.2705269], [85.3766099, 28.2705559], [85.3766593, 28.2705506], [85.3766553, 28.2705216], [85.3766059, 28.2705269]]]}, "properties": {"id": "way/846902651", "name": null, "destroyed_building": "yes", "destroyed_building_part": null, "damage_type": "floods", "damage_event": "2026 Nepal Floods", "damage_date": "2026-08-26", "was_building_levels": null, "ruins": null, "addr_street": null, "addr_city": null, "source": null}}, {"type": "Feature", "geometry": {"type": "Polygon", "coordinates": [[[85.3769029, 28.2734059], [85.3769789, 28.2734095], [85.3769849, 28.2733115], [85.376909, 28.2733079], [85.3769029, 28.2734059]]]}, "properties": {"id": "way/1552613664", "name": null, "destroyed_building": "yes", "destroyed_building_part": null, "damage_type": "floods", "damage_event": "2026 Nepal Floods", "damage_date": "2026-08-26", "was_building_levels": null, "ruins": null, "addr_street": null, "addr_city": null, "source": null}}, {"type": "Feature", "geometry": {"type": "Polygon", "coordinates": [[[85.3763838, 28.2818703], [85.3764363, 28.2818026], [85.3763892, 28.2817742], [85.3763367, 28.281842], [85.3763838, 28.2818703]]]}, "properties": {"id": "way/340629649", "name": null, "destroyed_building": "yes", "destroyed_building_part": null, "damage_type": null, "damage_event": null, "damage_date": null, "was_building_levels": null, "ruins": null, "addr_street": null, "addr_city": null, "source": null}}, {"type": "Feature", "geometry": {"type": "Polygon", "coordinates": [[[85.3783373, 28.2799833], [85.3783536, 28.2799943], [85.3783878, 28.2799547], [85.3783715, 28.2799437], [85.3783373, 28.2799833]]]}, "properties": {"id": "way/849463421", "name": null, "destroyed_building": "yes", "destroyed_building_part": null, "damage_type": null, "damage_event": null, "damage_date": null, "was_building_levels": null, "ruins": null, "addr_street": null, "addr_city": null, "source": null}}, {"type": "Feature", "geometry": {"type": "Polygon", "coordinates": [[[85.3793196, 28.2803022], [85.3793856, 28.2803564], [85.3794607, 28.2802855], [85.3793947, 28.2802313], [85.3793196, 28.2803022]]]}, "properties": {"id": "way/849463482", "name": null, "destroyed_building": "yes", "destroyed_building_part": null, "damage_type": null, "damage_event": null, "damage_date": null, "was_building_levels": null, "ruins": null, "addr_street": null, "addr_city": null, "source": null}}, {"type": "Feature", "geometry": {"type": "Polygon", "coordinates": [[[85.3808552, 28.2811372], [85.3809191, 28.2811009], [85.3807394, 28.2808553], [85.3806755, 28.2808915], [85.3808552, 28.2811372]]]}, "properties": {"id": "way/846902678", "name": null, "destroyed_building": "yes", "destroyed_building_part": null, "damage_type": null, "damage_event": null, "damage_date": null, "was_building_levels": null, "ruins": null, "addr_street": null, "addr_city": null, "source": null}}, {"type": "Feature", "geometry": {"type": "Polygon", "coordinates": [[[85.3799693, 28.2803887], [85.3802134, 28.2805915], [85.3803047, 28.2805062], [85.3800607, 28.2803034], [85.3799693, 28.2803887]]]}, "properties": {"id": "way/1552840234", "name": null, "destroyed_building": "yes", "destroyed_building_part": null, "damage_type": null, "damage_event": null, "damage_date": null, "was_building_levels": null, "ruins": null, "addr_street": null, "addr_city": null, "source": null}}, {"type": "Feature", "geometry": {"type": "Polygon", "coordinates": [[[85.3787416, 28.279766], [85.3787692, 28.2797931], [85.3788081, 28.2797624], [85.3787805, 28.2797353], [85.3787416, 28.279766]]]}, "properties": {"id": "way/849463475", "name": null, "destroyed_building": "yes", "destroyed_building_part": null, "damage_type": null, "damage_event": null, "damage_date": null, "was_building_levels": null, "ruins": null, "addr_street": null, "addr_city": null, "source": null}}, {"type": "Feature", "geometry": {"type": "Polygon", "coordinates": [[[85.3791828, 28.2801829], [85.3792266, 28.2802193], [85.379295, 28.2801555], [85.3792512, 28.2801191], [85.3791828, 28.2801829]]]}, "properties": {"id": "way/849463484", "name": null, "destroyed_building": "yes", "destroyed_building_part": null, "damage_type": null, "damage_event": null, "damage_date": null, "was_building_levels": null, "ruins": null, "addr_street": null, "addr_city": null, "source": null}}, {"type": "Feature", "geometry": {"type": "Polygon", "coordinates": [[[85.3779125, 28.2793344], [85.3778962, 28.2793773], [85.3778808, 28.2794174], [85.3779284, 28.2794319], [85.3779436, 28.2793899], [85.3779591, 28.2793484], [85.3779125, 28.2793344]]]}, "properties": {"id": "way/1552746568", "name": null, "destroyed_building": null, "destroyed_building_part": "yes", "damage_type": null, "damage_event": null, "damage_date": null, "was_building_levels": "5", "ruins": null, "addr_street": null, "addr_city": null, "source": null}}, {"type": "Feature", "geometry": {"type": "Polygon", "coordinates": [[[85.3780169, 28.2805003], [85.3781672, 28.2805045], [85.3781691, 28.2804507], [85.3780188, 28.2804466], [85.3780169, 28.2805003]]]}, "properties": {"id": "way/340629647", "name": null, "destroyed_building": "yes", "destroyed_building_part": null, "damage_type": null, "damage_event": null, "damage_date": null, "was_building_levels": null, "ruins": null, "addr_street": null, "addr_city": null, "source": null}}, {"type": "Feature", "geometry": {"type": "Polygon", "coordinates": [[[85.3788909, 28.2804978], [85.3791614, 28.280627], [85.3792178, 28.2805353], [85.3789473, 28.2804061], [85.3788909, 28.2804978]]]}, "properties": {"id": "way/846902608", "name": null, "destroyed_building": "yes", "destroyed_building_part": null, "damage_type": null, "damage_event": null, "damage_date": null, "was_building_levels": null, "ruins": null, "addr_street": null, "addr_city": null, "source": null}}, {"type": "Feature", "geometry": {"type": "Polygon", "coordinates": [[[85.378098, 28.2780866], [85.378144, 28.2780886], [85.3781453, 28.2780643], [85.3781871, 28.278066], [85.3781794, 28.2782089], [85.3780916, 28.2782053], [85.378098, 28.2780866]]]}, "properties": {"id": "way/806977546", "name": null, "destroyed_building": "yes", "destroyed_building_part": null, "damage_type": "landslide", "damage_event": null, "damage_date": null, "was_building_levels": null, "ruins": null, "addr_street": null, "addr_city": null, "source": null}}, {"type": "Feature", "geometry": {"type": "Polygon", "coordinates": [[[85.3775163, 28.2779375], [85.377572, 28.2778497], [85.3777697, 28.2779471], [85.3777139, 28.2780349], [85.3775163, 28.2779375]]]}, "properties": {"id": "way/1154989011", "name": null, "destroyed_building": "yes", "destroyed_building_part": null, "damage_type": "landslide", "damage_event": null, "damage_date": null, "was_building_levels": null, "ruins": null, "addr_street": null, "addr_city": null, "source": null}}, {"type": "Feature", "geometry": {"type": "Polygon", "coordinates": [[[85.377755, 28.2796819], [85.3777714, 28.2796378], [85.377821, 28.2796528], [85.3778045, 28.2796968], [85.377755, 28.2796819]]]}, "properties": {"id": "way/1552746564", "name": null, "destroyed_building": null, "destroyed_building_part": "yes", "damage_type": null, "damage_event": null, "damage_date": null, "was_building_levels": "3", "ruins": null, "addr_street": null, "addr_city": null, "source": null}}, {"type": "Feature", "geometry": {"type": "Polygon", "coordinates": [[[85.3792989, 28.2709672], [85.3793393, 28.2709524], [85.3793147, 28.2709005], [85.3792743, 28.2709153], [85.3792989, 28.2709672]]]}, "properties": {"id": "way/341571497", "name": null, "destroyed_building": "yes", "destroyed_building_part": null, "damage_type": "floods", "damage_event": "2026 Nepal Floods", "damage_date": "2026-08-26", "was_building_levels": null, "ruins": null, "addr_street": null, "addr_city": null, "source": null}}, {"type": "Feature", "geometry": {"type": "Polygon", "coordinates": [[[85.3788221, 28.2722709], [85.378892, 28.2722761], [85.3789041, 28.2721509], [85.3788891, 28.2721498], [85.3788915, 28.2721143], [85.3788597, 28.2721126], [85.3788573, 28.2721474], [85.3788341, 28.2721457], [85.3788221, 28.2722709]]]}, "properties": {"id": "way/846902622", "name": null, "destroyed_building": "yes", "destroyed_building_part": null, "damage_type": "floods", "damage_event": "2026 Nepal Floods", "damage_date": "2026-08-26", "was_building_levels": null, "ruins": null, "addr_street": null, "addr_city": null, "source": null}}, {"type": "Feature", "geometry": {"type": "Polygon", "coordinates": [[[85.376447, 28.2744665], [85.3766323, 28.2745577], [85.3767355, 28.2743951], [85.3766505, 28.2743533], [85.3766894, 28.2742921], [85.3765891, 28.2742427], [85.376447, 28.2744665]]]}, "properties": {"id": "way/846902631", "name": null, "destroyed_building": "yes", "destroyed_building_part": null, "damage_type": "floods", "damage_event": "2026 Nepal Floods", "damage_date": "2026-08-26", "was_building_levels": null, "ruins": null, "addr_street": null, "addr_city": null, "source": null}}, {"type": "Feature", "geometry": {"type": "Polygon", "coordinates": [[[85.37666, 28.2745525], [85.376817, 28.2746263], [85.3769641, 28.2743835], [85.376807, 28.2743097], [85.37666, 28.2745525]]]}, "properties": {"id": "way/1552753263", "name": null, "destroyed_building": "yes", "destroyed_building_part": null, "damage_type": "floods", "damage_event": "2026 Nepal Floods", "damage_date": "2026-08-26", "was_building_levels": null, "ruins": null, "addr_street": null, "addr_city": null, "source": null}}, {"type": "Feature", "geometry": {"type": "Polygon", "coordinates": [[[85.3784147, 28.2719974], [85.3784557, 28.271997], [85.3784549, 28.2719191], [85.3784448, 28.2718935], [85.3784135, 28.2718938], [85.3784147, 28.2719974]]]}, "properties": {"id": "way/1552911472", "name": null, "destroyed_building": "yes", "destroyed_building_part": null, "damage_type": "floods", "damage_event": "2026 Nepal Floods", "damage_date": "2026-08-26", "was_building_levels": null, "ruins": null, "addr_street": null, "addr_city": null, "source": null}}, {"type": "Feature", "geometry": {"type": "Polygon", "coordinates": [[[85.3780565, 28.2727625], [85.3781362, 28.2727861], [85.3781508, 28.272748], [85.3780711, 28.2727244], [85.3780565, 28.2727625]]]}, "properties": {"id": "way/1552911475", "name": null, "destroyed_building": "yes", "destroyed_building_part": null, "damage_type": "floods", "damage_event": "2026 Nepal Floods", "damage_date": "2026-08-26", "was_building_levels": null, "ruins": null, "addr_street": null, "addr_city": null, "source": null}}, {"type": "Feature", "geometry": {"type": "Polygon", "coordinates": [[[85.3765295, 28.2697769], [85.3765925, 28.269758], [85.3766515, 28.2699423], [85.3765905, 28.26996], [85.3765295, 28.2697769]]]}, "properties": {"id": "way/1552917668", "name": null, "destroyed_building": "yes", "destroyed_building_part": null, "damage_type": "floods", "damage_event": "2026 Nepal Floods", "damage_date": "2026-08-26", "was_building_levels": null, "ruins": null, "addr_street": null, "addr_city": null, "source": null}}, {"type": "Feature", "geometry": {"type": "Polygon", "coordinates": [[[85.3764721, 28.2695158], [85.3766325, 28.2694594], [85.3766539, 28.2695068], [85.3764935, 28.2695632], [85.3764721, 28.2695158]]]}, "properties": {"id": "way/1552917661", "name": null, "destroyed_building": "yes", "destroyed_building_part": null, "damage_type": "floods", "damage_event": "2026 Nepal Floods", "damage_date": "2026-08-26", "was_building_levels": null, "ruins": null, "addr_street": null, "addr_city": null, "source": null}}, {"type": "Feature", "geometry": {"type": "Polygon", "coordinates": [[[85.3780101, 28.2781787], [85.3780564, 28.278184], [85.378063, 28.2781395], [85.3780167, 28.2781341], [85.3780101, 28.2781787]]]}, "properties": {"id": "way/846902588", "name": null, "destroyed_building": "yes", "destroyed_building_part": null, "damage_type": "landslide", "damage_event": null, "damage_date": null, "was_building_levels": null, "ruins": null, "addr_street": null, "addr_city": null, "source": null}}, {"type": "Feature", "geometry": {"type": "Polygon", "coordinates": [[[85.3770469, 28.2712873], [85.377044, 28.271344], [85.3771347, 28.2713475], [85.3771375, 28.2712908], [85.3770469, 28.2712873]]]}, "properties": {"id": "way/846902647", "name": null, "destroyed_building": "yes", "destroyed_building_part": null, "damage_type": "floods", "damage_event": "2026 Nepal Floods", "damage_date": "2026-08-26", "was_building_levels": null, "ruins": null, "addr_street": null, "addr_city": null, "source": null}}, {"type": "Feature", "geometry": {"type": "Polygon", "coordinates": [[[85.3785473, 28.2718262], [85.3786019, 28.2718191], [85.3785756, 28.2716625], [85.3785211, 28.2716695], [85.3785473, 28.2718262]]]}, "properties": {"id": "way/1552911473", "name": null, "destroyed_building": "yes", "destroyed_building_part": null, "damage_type": "floods", "damage_event": "2026 Nepal Floods", "damage_date": "2026-08-26", "was_building_levels": null, "ruins": null, "addr_street": null, "addr_city": null, "source": null}}, {"type": "Feature", "geometry": {"type": "Polygon", "coordinates": [[[85.3765865, 28.2721351], [85.3766596, 28.2721209], [85.3766334, 28.2720162], [85.3765603, 28.2720304], [85.3765865, 28.2721351]]]}, "properties": {"id": "way/846902646", "name": null, "destroyed_building": "yes", "destroyed_building_part": null, "damage_type": "floods", "damage_event": "2026 Nepal Floods", "damage_date": "2026-08-26", "was_building_levels": null, "ruins": null, "addr_street": null, "addr_city": null, "source": null}}, {"type": "Feature", "geometry": {"type": "Polygon", "coordinates": [[[85.3788288, 28.2798132], [85.3788704, 28.2798451], [85.378897, 28.2798182], [85.3788554, 28.2797863], [85.3788288, 28.2798132]]]}, "properties": {"id": "way/849463476", "name": null, "destroyed_building": "yes", "destroyed_building_part": null, "damage_type": null, "damage_event": null, "damage_date": null, "was_building_levels": null, "ruins": null, "addr_street": null, "addr_city": null, "source": null}}, {"type": "Feature", "geometry": {"type": "Polygon", "coordinates": [[[85.3773542, 28.2771154], [85.377477, 28.2771302], [85.3775148, 28.2768873], [85.377392, 28.2768725], [85.3773542, 28.2771154]]]}, "properties": {"id": "way/1552895311", "name": null, "destroyed_building": "yes", "destroyed_building_part": null, "damage_type": "landslide", "damage_event": null, "damage_date": null, "was_building_levels": null, "ruins": null, "addr_street": null, "addr_city": null, "source": null}}, {"type": "Feature", "geometry": {"type": "Polygon", "coordinates": [[[85.3777248, 28.2792778], [85.3776791, 28.2792641], [85.3776625, 28.2793052], [85.3776458, 28.2793459], [85.3776918, 28.2793599], [85.3777078, 28.2793204], [85.3777248, 28.2792778]]]}, "properties": {"id": "way/1552746569", "name": null, "destroyed_building": null, "destroyed_building_part": "yes", "damage_type": null, "damage_event": null, "damage_date": null, "was_building_levels": "5", "ruins": null, "addr_street": null, "addr_city": null, "source": null}}, {"type": "Feature", "geometry": {"type": "Polygon", "coordinates": [[[85.3769618, 28.2740601], [85.3771291, 28.2740824], [85.3772754, 28.2732293], [85.3771081, 28.273207], [85.3769618, 28.2740601]]]}, "properties": {"id": "way/1552793903", "name": "Rasuwagadhi Hydropower Dam", "destroyed_building": "industrial", "destroyed_building_part": null, "damage_type": "floods", "damage_event": "2026 Nepal Floods", "damage_date": "2026-08-26", "was_building_levels": null, "ruins": null, "addr_street": null, "addr_city": "Thuman", "source": null}}, {"type": "Feature", "geometry": {"type": "Polygon", "coordinates": [[[85.3789912, 28.2799079], [85.379043, 28.2799448], [85.3791117, 28.2798699], [85.3790599, 28.279833], [85.3789912, 28.2799079]]]}, "properties": {"id": "way/341558551", "name": null, "destroyed_building": "yes", "destroyed_building_part": null, "damage_type": null, "damage_event": null, "damage_date": null, "was_building_levels": null, "ruins": null, "addr_street": null, "addr_city": null, "source": null}}, {"type": "Feature", "geometry": {"type": "Polygon", "coordinates": [[[85.3787953, 28.2797896], [85.3788182, 28.2798083], [85.3788423, 28.2797852], [85.3788194, 28.2797666], [85.3787953, 28.2797896]]]}, "properties": {"id": "way/849463474", "name": null, "destroyed_building": "yes", "destroyed_building_part": null, "damage_type": null, "damage_event": null, "damage_date": null, "was_building_levels": null, "ruins": null, "addr_street": null, "addr_city": null, "source": null}}, {"type": "Feature", "geometry": {"type": "Polygon", "coordinates": [[[85.3795208, 28.2805709], [85.3796373, 28.280642], [85.3796842, 28.2805823], [85.3795677, 28.2805112], [85.3795208, 28.2805709]]]}, "properties": {"id": "way/849463480", "name": null, "destroyed_building": "yes", "destroyed_building_part": null, "damage_type": null, "damage_event": null, "damage_date": null, "was_building_levels": null, "ruins": null, "addr_street": null, "addr_city": null, "source": null}}, {"type": "Feature", "geometry": {"type": "Polygon", "coordinates": [[[85.3782722, 28.2799514], [85.378289, 28.2799646], [85.3783346, 28.2799198], [85.3783178, 28.2799065], [85.3782722, 28.2799514]]]}, "properties": {"id": "way/849463423", "name": null, "destroyed_building": "yes", "destroyed_building_part": null, "damage_type": null, "damage_event": null, "damage_date": null, "was_building_levels": null, "ruins": null, "addr_street": null, "addr_city": null, "source": null}}, {"type": "Feature", "geometry": {"type": "Polygon", "coordinates": [[[85.3779707, 28.2780559], [85.3780406, 28.2780405], [85.3780606, 28.278111], [85.3779908, 28.2781263], [85.3779707, 28.2780559]]]}, "properties": {"id": "way/806977548", "name": null, "destroyed_building": "yes", "destroyed_building_part": null, "damage_type": "landslide", "damage_event": null, "damage_date": null, "was_building_levels": null, "ruins": null, "addr_street": null, "addr_city": null, "source": null}}, {"type": "Feature", "geometry": {"type": "Polygon", "coordinates": [[[85.3779081, 28.2724404], [85.3779623, 28.2724398], [85.377961, 28.2723377], [85.3779068, 28.2723382], [85.3779081, 28.2724404]]]}, "properties": {"id": "way/846902619", "name": null, "destroyed_building": "yes", "destroyed_building_part": null, "damage_type": "floods", "damage_event": "2026 Nepal Floods", "damage_date": "2026-08-26", "was_building_levels": null, "ruins": null, "addr_street": null, "addr_city": null, "source": null}}, {"type": "Feature", "geometry": {"type": "Polygon", "coordinates": [[[85.3779034, 28.2725904], [85.3780107, 28.2726022], [85.3780201, 28.2725364], [85.3779128, 28.2725246], [85.3779034, 28.2725904]]]}, "properties": {"id": "way/846902614", "name": null, "destroyed_building": "yes", "destroyed_building_part": null, "damage_type": "floods", "damage_event": "2026 Nepal Floods", "damage_date": "2026-08-26", "was_building_levels": null, "ruins": null, "addr_street": null, "addr_city": null, "source": null}}, {"type": "Feature", "geometry": {"type": "Polygon", "coordinates": [[[85.3766625, 28.2735631], [85.3767359, 28.2735621], [85.3767326, 28.2733327], [85.376659, 28.2733335], [85.3766625, 28.2735631]]]}, "properties": {"id": "way/846902636", "name": null, "destroyed_building": "yes", "destroyed_building_part": null, "damage_type": "floods", "damage_event": "2026 Nepal Floods", "damage_date": "2026-08-26", "was_building_levels": null, "ruins": null, "addr_street": null, "addr_city": null, "source": null}}, {"type": "Feature", "geometry": {"type": "Polygon", "coordinates": [[[85.3766911, 28.2697238], [85.3767541, 28.2697043], [85.3768205, 28.269908], [85.3767514, 28.2699228], [85.3766911, 28.2697238]]]}, "properties": {"id": "way/1552917666", "name": null, "destroyed_building": "yes", "destroyed_building_part": null, "damage_type": "floods", "damage_event": "2026 Nepal Floods", "damage_date": "2026-08-26", "was_building_levels": null, "ruins": null, "addr_street": null, "addr_city": null, "source": null}}, {"type": "Feature", "geometry": {"type": "Polygon", "coordinates": [[[85.3778015, 28.2805998], [85.3778438, 28.2806116], [85.3778599, 28.2805668], [85.3778177, 28.280555], [85.3778015, 28.2805998]]]}, "properties": {"id": "way/846902685", "name": null, "destroyed_building": "yes", "destroyed_building_part": null, "damage_type": null, "damage_event": null, "damage_date": null, "was_building_levels": null, "ruins": null, "addr_street": null, "addr_city": null, "source": null}}, {"type": "Feature", "geometry": {"type": "Polygon", "coordinates": [[[85.3789037, 28.2799857], [85.3789644, 28.2800349], [85.3790397, 28.2799629], [85.3789789, 28.2799136], [85.3789037, 28.2799857]]]}, "properties": {"id": "way/341558545", "name": null, "destroyed_building": "yes", "destroyed_building_part": null, "damage_type": null, "damage_event": null, "damage_date": null, "was_building_levels": null, "ruins": null, "addr_street": null, "addr_city": null, "source": null}}, {"type": "Feature", "geometry": {"type": "Polygon", "coordinates": [[[85.376348, 28.2696364], [85.3764481, 28.2698836], [85.376366, 28.2699094], [85.3762659, 28.2696622], [85.376348, 28.2696364]]]}, "properties": {"id": "way/1552917662", "name": null, "destroyed_building": "yes", "destroyed_building_part": null, "damage_type": "floods", "damage_event": "2026 Nepal Floods", "damage_date": "2026-08-26", "was_building_levels": null, "ruins": null, "addr_street": null, "addr_city": null, "source": null}}, {"type": "Feature", "geometry": {"type": "Polygon", "coordinates": [[[85.3778458, 28.2805041], [85.3779852, 28.2804959], [85.3779821, 28.2804548], [85.3778426, 28.280463], [85.3778458, 28.2805041]]]}, "properties": {"id": "way/846902683", "name": null, "destroyed_building": "yes", "destroyed_building_part": null, "damage_type": null, "damage_event": null, "damage_date": null, "was_building_levels": null, "ruins": null, "addr_street": null, "addr_city": null, "source": null}}, {"type": "Feature", "geometry": {"type": "Polygon", "coordinates": [[[85.3798066, 28.2804338], [85.3798733, 28.2805034], [85.3799117, 28.2804749], [85.379845, 28.2804053], [85.3798066, 28.2804338]]]}, "properties": {"id": "way/262207908", "name": null, "destroyed_building": "yes", "destroyed_building_part": null, "damage_type": null, "damage_event": null, "damage_date": null, "was_building_levels": null, "ruins": null, "addr_street": null, "addr_city": null, "source": null}}, {"type": "Feature", "geometry": {"type": "Polygon", "coordinates": [[[85.3768534, 28.2673337], [85.3768867, 28.2673165], [85.376937, 28.2673921], [85.3769037, 28.2674093], [85.3768534, 28.2673337]]]}, "properties": {"id": "way/846902671", "name": null, "destroyed_building": "yes", "destroyed_building_part": null, "damage_type": "floods", "damage_event": "2026 Nepal Floods", "damage_date": "2026-08-26", "was_building_levels": null, "ruins": null, "addr_street": null, "addr_city": null, "source": null}}, {"type": "Feature", "geometry": {"type": "Polygon", "coordinates": [[[85.3764282, 28.2662919], [85.3765189, 28.2662267], [85.3765873, 28.2663005], [85.3764966, 28.2663657], [85.3764282, 28.2662919]]]}, "properties": {"id": "way/846902672", "name": null, "destroyed_building": "yes", "destroyed_building_part": null, "damage_type": "floods", "damage_event": "2026 Nepal Floods", "damage_date": "2026-08-26", "was_building_levels": null, "ruins": null, "addr_street": null, "addr_city": null, "source": null}}, {"type": "Feature", "geometry": {"type": "Polygon", "coordinates": [[[85.3772699, 28.2795817], [85.3774074, 28.2792273], [85.3774851, 28.2792507], [85.3774982, 28.2792168], [85.3775523, 28.2792331], [85.3776064, 28.2792494], [85.3775928, 28.2792842], [85.3776625, 28.2793052], [85.3776791, 28.2792641], [85.3777248, 28.2792778], [85.3777772, 28.2792936], [85.3778627, 28.2793194], [85.3779125, 28.2793344], [85.3779591, 28.2793484], [85.3779436, 28.2793899], [85.3780171, 28.279412], [85.3780307, 28.2793771], [85.3780863, 28.2793939], [85.378142, 28.2794106], [85.3781284, 28.2794456], [85.3782045, 28.2794685], [85.3780674, 28.2798213], [85.3779971, 28.2798001], [85.3779828, 28.2798369], [85.3779263, 28.2798199], [85.3778697, 28.2798029], [85.3778843, 28.2797652], [85.3777891, 28.2797365], [85.3778045, 28.2796968], [85.377755, 28.2796819], [85.3777264, 28.2796732], [85.3776381, 28.2796467], [85.3776067, 28.2796372], [85.3775576, 28.2796225], [85.3775415, 28.2796641], [85.3774563, 28.2796385], [85.3774425, 28.279674], [85.3773878, 28.2796576], [85.3773331, 28.2796411], [85.3773472, 28.2796049], [85.3772699, 28.2795817]], [[85.3776237, 28.2795933], [85.3776554, 28.2796028], [85.3777433, 28.2796293], [85.3777714, 28.2796378], [85.3777967, 28.2795704], [85.3777692, 28.279562], [85.3776819, 28.2795354], [85.3776494, 28.2795255], [85.3776237, 28.2795933]], [[85.3776918, 28.2793599], [85.3777447, 28.279376], [85.3778308, 28.2794022], [85.3778808, 28.2794174], [85.3778962, 28.2793773], [85.3778462, 28.2793622], [85.3777604, 28.2793363], [85.3777078, 28.2793204], [85.3776918, 28.2793599]]]}, "properties": {"id": "relation/21288172", "name": "\u5409\u9686\u53e3\u5cb8\u8054\u68c0\u5927\u697c", "destroyed_building": "yes", "destroyed_building_part": null, "damage_type": "landslide", "damage_event": null, "damage_date": null, "was_building_levels": "6", "ruins": "yes", "addr_street": null, "addr_city": null, "source": null}}, {"type": "Feature", "geometry": {"type": "Polygon", "coordinates": [[[85.3760011, 28.2658082], [85.376038, 28.2657735], [85.3760916, 28.2658178], [85.3760547, 28.2658525], [85.3760011, 28.2658082]]]}, "properties": {"id": "way/846902674", "name": null, "destroyed_building": "yes", "destroyed_building_part": null, "damage_type": "floods", "damage_event": "2026 Nepal Floods", "damage_date": "2026-08-26", "was_building_levels": null, "ruins": null, "addr_street": null, "addr_city": null, "source": null}}, {"type": "Feature", "geometry": {"type": "Polygon", "coordinates": [[[85.3760701, 28.2657598], [85.3761044, 28.2657209], [85.3761611, 28.2657596], [85.3761268, 28.2657985], [85.3760701, 28.2657598]]]}, "properties": {"id": "way/341558538", "name": null, "destroyed_building": "yes", "destroyed_building_part": null, "damage_type": "floods", "damage_event": "2026 Nepal Floods", "damage_date": "2026-08-26", "was_building_levels": null, "ruins": null, "addr_street": null, "addr_city": null, "source": null}}, {"type": "Feature", "geometry": {"type": "Polygon", "coordinates": [[[85.3761589, 28.2656966], [85.376242, 28.265696], [85.3762425, 28.2657474], [85.3761593, 28.2657479], [85.3761589, 28.2656966]]]}, "properties": {"id": "way/846902675", "name": null, "destroyed_building": "yes", "destroyed_building_part": null, "damage_type": "floods", "damage_event": "2026 Nepal Floods", "damage_date": "2026-08-26", "was_building_levels": null, "ruins": null, "addr_street": null, "addr_city": null, "source": null}}, {"type": "Feature", "geometry": {"type": "Polygon", "coordinates": [[[85.3775396, 28.2691145], [85.3775526, 28.2690936], [85.3776034, 28.2691182], [85.3775904, 28.2691391], [85.3775396, 28.2691145]]]}, "properties": {"id": "way/1552917657", "name": null, "destroyed_building": "yes", "destroyed_building_part": null, "damage_type": "floods", "damage_event": "2026 Nepal Floods", "damage_date": "2026-08-26", "was_building_levels": null, "ruins": null, "addr_street": null, "addr_city": null, "source": null}}, {"type": "Feature", "geometry": {"type": "Polygon", "coordinates": [[[85.3759649, 28.2656706], [85.3760444, 28.2655949], [85.3761262, 28.2656617], [85.3760467, 28.2657373], [85.3759649, 28.2656706]]]}, "properties": {"id": "way/851966242", "name": null, "destroyed_building": "yes", "destroyed_building_part": null, "damage_type": "floods", "damage_event": "2026 Nepal Floods", "damage_date": "2026-08-26", "was_building_levels": null, "ruins": null, "addr_street": null, "addr_city": null, "source": null}}, {"type": "Feature", "geometry": {"type": "Polygon", "coordinates": [[[85.3769137, 28.2674613], [85.3769639, 28.2674377], [85.3770377, 28.2675593], [85.3769875, 28.2675829], [85.3769137, 28.2674613]]]}, "properties": {"id": "way/846902670", "name": null, "destroyed_building": "yes", "destroyed_building_part": null, "damage_type": "floods", "damage_event": "2026 Nepal Floods", "damage_date": "2026-08-26", "was_building_levels": null, "ruins": null, "addr_street": null, "addr_city": null, "source": null}}]}