{"type": "FeatureCollection", "features": [{"type": "Feature", "geometry": {"type": "Point", "coordinates": [85.1085809, 27.8595827]}, "properties": {"id": "fa56064e-8acc-457f-8e30-4a3589c5c23e", "name": "Atniranjana Higher Secondary School", "category": "high_school", "address": "Belkot Gadi municipality", "phone": null, "website": null, "confidence": 0.8245334029197693, "source": "meta"}}, {"type": "Feature", "geometry": {"type": "Point", "coordinates": [85.11219, 27.86121]}, "properties": {"id": "82f94f09-5bad-401f-9597-a998f951b4c2", "name": "Dram 0128 Qk11", "category": "school", "address": "Bidur 7, Devighat", "phone": "+442076368636", "website": "http://www.satyamacademy.org/", "confidence": 0.6420058012008667, "source": "meta"}}, {"type": "Feature", "geometry": {"type": "Point", "coordinates": [85.14933045460069, 27.922362793663112]}, "properties": {"id": "8bccedc7-9572-41aa-b99d-9df44be5a36f", "name": "Trishuli Samudayik Boarding School", "category": "preschool", "address": "Nuwakot District", "phone": "+97710560975", "website": "http://gmail.com/", "confidence": 0.8457474708557129, "source": "meta"}}, {"type": "Feature", "geometry": {"type": "Point", "coordinates": [85.15874928461639, 27.93509334615422]}, "properties": {"id": "84a572a9-8cec-44d4-877d-7c2cbc60fcfa", "name": "Om Mane Public School,nuwakot", "category": "school", "address": null, "phone": null, "website": null, "confidence": 0.7594903111457825, "source": "meta"}}, {"type": "Feature", "geometry": {"type": "Point", "coordinates": [85.159446716309, 27.948055267334]}, "properties": {"id": "bb2734d2-89aa-42b0-8d46-72518c20c715", "name": "Shree Sulakshana Secondary School", "category": "college_university", "address": "Aangaputar, Bidur Municipality-9, Nuwakot, Nepal.", "phone": "+9779841518259", "website": "http://www.sulakshana.edu.np/", "confidence": 0.962668240070343, "source": "meta"}}, {"type": "Feature", "geometry": {"type": "Point", "coordinates": [84.8343277, 27.8090096]}, "properties": {"id": "71410af7-420b-4af0-adbe-85ab07ad1f5a", "name": "Bright Future English Boarding School", "category": "school", "address": "Malekhu,", "phone": null, "website": null, "confidence": 0.8641020655632019, "source": "meta"}}, {"type": "Feature", "geometry": {"type": "Point", "coordinates": [84.83352233335088, 27.8104517400094]}, "properties": {"id": "47f9c06c-f2d1-4358-b1b7-383c17e1d89d", "name": "Bageshworee Secondary School", "category": "high_school", "address": "Richoktar, Benighat Rorang-3", "phone": null, "website": null, "confidence": 0.9762985706329346, "source": "meta"}}, {"type": "Feature", "geometry": {"type": "Point", "coordinates": [84.759843349457, 27.813742556075]}, "properties": {"id": "36812e0c-2f2f-43c2-ae14-a92be33dd4d7", "name": "चन्द्रोदय शैक्षिक सहायता कोष", "category": "college_university", "address": "Benighat, Dhading", "phone": "+9779808699487", "website": "http://www.cdmcedu.wordpress.com/", "confidence": 0.8908340930938721, "source": "meta"}}, {"type": "Feature", "geometry": {"type": "Point", "coordinates": [84.780838012695, 27.811296472291]}, "properties": {"id": "1a82856d-3fa9-407e-9055-47bf4809035d", "name": "HIMA AUS Education Consultancy - Dhading", "category": "educational_services", "address": "Shantabazar Dhading Besi & Benighat Prithivi Highway", "phone": "+9779810203435", "website": "https://himaaus.com/", "confidence": 0.8718737959861755, "source": "meta"}}, {"type": "Feature", "geometry": {"type": "Point", "coordinates": [84.78127131091604, 27.811576366748834]}, "properties": {"id": "8403ba43-8baa-41b6-b28b-6768acea8fd1", "name": "Beni Shiksha Sadan Basic School Benighat Rorang-5, Dhading", "category": "school", "address": "Benighat", "phone": "+9779841032042", "website": null, "confidence": 0.9146190881729126, "source": "meta"}}, {"type": "Feature", "geometry": {"type": "Point", "coordinates": [85.032776, 27.849070572612]}, "properties": {"id": "b3a4d344-c09f-47a1-93f6-7967faa68e8e", "name": "शिलादेबी मा.बि -प्राबिधिक शिक्षा", "category": "high_school", "address": "Belkotgadhi-7, Ratmate ", "phone": null, "website": null, "confidence": 0.8241285681724548, "source": "meta"}}, {"type": "Feature", "geometry": {"type": "Point", "coordinates": [85.01429194660429, 27.81328240828917]}, "properties": {"id": "ef947f87-3205-4be7-b994-7817868039a5", "name": "Kolputar,nuwakot", "category": "school", "address": "Kolputar", "phone": null, "website": null, "confidence": 0.8262099623680115, "source": "meta"}}, {"type": "Feature", "geometry": {"type": "Point", "coordinates": [85.01432420829244, 27.811840890043005]}, "properties": {"id": "b9a42dd5-dd79-41a0-8152-5ef9ec05fa73", "name": "श्री महादेव मा.वि. कोल्पुटार,नुवाकोट", "category": "education", "address": "Belkotgadhi-5,Kolputar,Nuwakot", "phone": "+9779860082460", "website": null, "confidence": 0.9499520063400269, "source": "meta"}}]}