{"type":"FeatureCollection","features":[{"type":"Feature","id":1,"geometry":{"type":"Point","coordinates":[85.345833330000062,28.17083333000005]},"properties":{"OBJECTID":1,"Project":"Bhotekoshi Khola Hydropower Project","Province":"Province 3","District":"RASUWA","Municipality":"Gosaikunda","Capacity (MW)":33.5,"River":"Bhote Koshi","Lic No":"1009","Isuue Date":"2075-02-10","Validity":"2077-02-09","Promoter":"Pawan Kumar Golyan","Address":"Rangeli, Morang, Phone no 014671201","Longitude":85.345833330000005,"Latitude":28.170833330000001,"Status":"Survey","ORIG_FID":1}},{"type":"Feature","id":2,"geometry":{"type":"Point","coordinates":[85.138888890000032,27.902222220000056]},"properties":{"OBJECTID":2,"Project":"Devighat","Province":"Province 3","District":"NUWAKOT","Municipality":"Panchakanya","Capacity (MW)":14.1,"River":"Trishuli","Lic No":"1_gtd","Isuue Date":"2051-12-06","Validity":"2101-11-30","Promoter":"Nepal Electricity Authority","Address":"0","Longitude":85.138888890000004,"Latitude":27.902222219999999,"Status":"Operation","ORIG_FID":2}},{"type":"Feature","id":3,"geometry":{"type":"Point","coordinates":[85.354166670000041,28.204722220000065]},"properties":{"OBJECTID":3,"Project":"Rasuwa Bhotekoshi","Province":"Province 3","District":"RASUWA","Municipality":"Gosaikunda","Capacity (MW)":120,"River":"Bhote koshi","Lic No":"223","Isuue Date":"2074-11-03","Validity":"2109-11-02","Promoter":"Langtang Bhotekosi Hydropower Company Pvt. Ltd","Address":"Sitapaila, Kathmandu, Tel no 9810157778, 9843077976, email langtangproject@gmail.com, liaoxiangi@hotmail.com","Longitude":85.354166669999998,"Latitude":28.204722220000001,"Status":"Under Construction","ORIG_FID":3}},{"type":"Feature","id":4,"geometry":{"type":"Point","coordinates":[85.370138890000078,28.251111110000068]},"properties":{"OBJECTID":4,"Project":"Rasuwagadhi","Province":"Province 3","District":"RASUWA","Municipality":"Gosaikunda","Capacity (MW)":111,"River":"Bhote koshi","Lic No":"75","Isuue Date":"2069-08-21","Validity":"2104-08-20","Promoter":"Rasuwagadhi H P","Address":"Gyaneswor Kathmandu, P.O.Box 25210, Phone 014439163, 014439284","Longitude":85.370138890000007,"Latitude":28.25111111,"Status":"Under Construction","ORIG_FID":4}},{"type":"Feature","id":5,"geometry":{"type":"Point","coordinates":[85.166111110000031,27.946388890000037]},"properties":{"OBJECTID":5,"Project":"Trishuli","Province":"Province 3","District":"NUWAKOT","Municipality":"Suryagadhi","Capacity (MW)":24,"River":"Trishuli","Lic No":"1_gtd","Isuue Date":"2051-12-06","Validity":"2101-11-30","Promoter":"Nepal Electricity Authority","Address":"0","Longitude":85.166111110000003,"Latitude":27.946388890000001,"Status":"Operation","ORIG_FID":5}},{"type":"Feature","id":6,"geometry":{"type":"Point","coordinates":[85.022916670000086,27.827777780000076]},"properties":{"OBJECTID":6,"Project":"Trishuli Galchhi","Province":"Province 3","District":"NUWAKOT","Municipality":"Meghang","Capacity (MW)":75,"River":"Trishuli","Lic No":"174","Isuue Date":"2073-07-01","Validity":"2108-06-29","Promoter":"Siddhakali Power Pvt.Ltd","Address":"P.O.Box 9106, Kathmandu, Phone 01-5111048, 9851156559Fax 01-4447895","Longitude":85.022916670000001,"Latitude":27.827777780000002,"Status":"Under Construction","ORIG_FID":6}},{"type":"Feature","id":7,"geometry":{"type":"Point","coordinates":[85.199166670000068,28.046527780000076]},"properties":{"OBJECTID":7,"Project":"Upper Trishuli 3A","Province":"Province 3","District":"RASUWA","Municipality":"Kalika","Capacity (MW)":60,"River":"Trishuli","Lic No":"43","Isuue Date":"2067-11-15","Validity":"2102-11-14","Promoter":"Nepal Electricity Authority","Address":"Durbar Marg , Kathmandu","Longitude":85.199166669999997,"Latitude":28.046527780000002,"Status":"Under Construction","ORIG_FID":7}},{"type":"Feature","id":8,"geometry":{"type":"Point","coordinates":[85.185000000000059,28.00458333000006]},"properties":{"OBJECTID":8,"Project":"Upper Trishuli 3B","Province":"Province 3","District":"RASUWA","Municipality":"Uttargaya","Capacity (MW)":37,"River":"Trishuli","Lic No":"104","Isuue Date":"2070-04-27","Validity":"2105-04-26","Promoter":"Nepal Electricity Authority","Address":"0","Longitude":85.185000000000002,"Latitude":28.004583329999999,"Status":"Under Construction","ORIG_FID":8}},{"type":"Feature","id":9,"geometry":{"type":"Point","coordinates":[85.255972220000046,28.10125000000005]},"properties":{"OBJECTID":9,"Project":"Upper Trishuli-1","Province":"Province 3","District":"RASUWA","Municipality":"Parbati Kunda","Capacity (MW)":216,"River":"Trishuli","Lic No":"209","Isuue Date":"2074-07-23","Validity":"2109-07-22","Promoter":"Nepal Water & Energy Development Co. P. Ltd","Address":"Narayan Chaur, Naxal, Kathmandu P.O.Box: 786, Ph: 4412257, 4412229","Longitude":85.255972220000004,"Latitude":28.10125,"Status":"Under Construction","ORIG_FID":9}},{"type":"Feature","id":10,"geometry":{"type":"Point","coordinates":[85.209027780000042,28.072500000000048]},"properties":{"OBJECTID":10,"Project":"Upper Trishuli-I Cascade HEP","Province":"Province 3","District":"RASUWA","Municipality":"Parbati Kunda","Capacity (MW)":24.600000000000001,"River":"Trishuli Ganga","Lic No":"1006","Isuue Date":"2075-02-09","Validity":"2077-02-08","Promoter":"Sahan Engineering Concern Pvt. Ltd","Address":"Sunakothi, Lalitpur","Longitude":85.20902778,"Latitude":28.072500000000002,"Status":"Survey","ORIG_FID":10}}]}