{"type": "FeatureCollection", "features": [{"type": "Feature", "geometry": {"type": "Point", "coordinates": [84.65, 27.86]}, "properties": {"title": "Eyewitness video placeholder 1", "video_url": "", "source_page": "https://flood.thimitech.com/", "is_placeholder": true, "note": "Replace video_url and coordinates with real data from flood.thimitech.com once accessible."}}, {"type": "Feature", "geometry": {"type": "Point", "coordinates": [84.95, 28.05]}, "properties": {"title": "Eyewitness video placeholder 2", "video_url": "", "source_page": "https://flood.thimitech.com/", "is_placeholder": true, "note": "Replace video_url and coordinates with real data from flood.thimitech.com once accessible."}}, {"type": "Feature", "geometry": {"type": "Point", "coordinates": [85.25, 28.19]}, "properties": {"title": "Eyewitness video placeholder 3", "video_url": "", "source_page": "https://flood.thimitech.com/", "is_placeholder": true, "note": "Replace video_url and coordinates with real data from flood.thimitech.com once accessible."}}]}