{"type": "FeatureCollection", "features": [{"type": "Feature", "geometry": {"type": "Point", "coordinates": [84.83661401935468, 27.805142790330574]}, "properties": {"id": "c13e24d4-8769-41c8-b6a0-a35b6d06e187", "name": "Malekhu Teaching Hospital/मलेखु टिचिङ हस्पिटल & Trauma Centre/ट्रमा सेन्टर", "category": "hospital", "address": "Gajuri-02, Malekhu", "phone": "+9779861013109", "website": "http://malekhuhospital.com/", "confidence": 0.9001533389091492, "source": "meta"}}, {"type": "Feature", "geometry": {"type": "Point", "coordinates": [84.94385, 27.80784]}, "properties": {"id": "12d4c182-4dcf-4da5-b390-bd2204656223", "name": "Khatiwada Medical", "category": "pharmacy", "address": "Mahendra Marg", "phone": null, "website": null, "confidence": 0.5751896500587463, "source": "meta"}}, {"type": "Feature", "geometry": {"type": "Point", "coordinates": [85.147250890732, 27.922665601389]}, "properties": {"id": "92b07aae-f649-4236-bc2d-2a5f10189cf2", "name": "Trishuli Dental Care", "category": "dentist", "address": "Trishuli Bazar, Bidur-1", "phone": "+97710560935", "website": "https://linktr.ee/shreeharibogati", "confidence": 0.8328066468238831, "source": "meta"}}]}