{"type": "FeatureCollection", "features": [{"type": "Feature", "geometry": {"type": "Point", "coordinates": [85.50837, 28.29437]}, "properties": {"name": "Flood origin (landslide-dammed lake)", "kind": "hazard", "icon": "hazard_pin", "observed_date": "2026-08-27", "source": "Sentinel-2 / Copernicus Browser (dataspace.copernicus.eu)", "note": "New waterbody detected upstream on 27 Aug imagery, consistent with a landslide-dammed lake that may have breached and driven the downstream flash flood.", "highlight": true}}, {"type": "Feature", "geometry": {"type": "Point", "coordinates": [85.618, 28.213]}, "properties": {"name": "Langtang Glacier / Valley", "kind": "glacier", "icon": "glacier_pin", "source": "Approximate — Langtang valley glacier region (OpenStreetMap / Wikipedia, Langtang National Park)", "note": "Upper-catchment glacier zone above the Bhotekoshi headwaters; contextual reference, not a precise glacier-outline dataset.", "highlight": true}}, {"type": "Feature", "geometry": {"type": "Polygon", "coordinates": [[[85.52995740044466, 28.293441144491513], [85.52964555862042, 28.29355678624784], [85.52938743053659, 28.293526544800017], [85.52909538740124, 28.293706475214265], [85.52870877040819, 28.293995231634845], [85.52820247546802, 28.293962313482044], [85.52738698144255, 28.293852828449165], [85.52665988710072, 28.294082983395228], [85.52615838434508, 28.29445287683247], [85.52598928211853, 28.29471651166724], [85.52562396484255, 28.294959719918406], [85.52517743736732, 28.295092204294814], [85.52456723052745, 28.295094765251896], [85.52330785650354, 28.294925535426128], [85.52234886157903, 28.294722930129982], [85.52179921248154, 28.29408536844349], [85.52058096357231, 28.29393486667739], [85.51988061502016, 28.293725892873702], [85.51873703618423, 28.29341141603712], [85.51717427739655, 28.293495144657985], [85.51589501866279, 28.293270708524826], [85.51547501076307, 28.29298237529028], [85.51506712387099, 28.292566019679693], [85.51397794336079, 28.292059865812963], [85.51332118103325, 28.292437175175376], [85.51329245045503, 28.292272094328336], [85.51219370570746, 28.291710899701876], [85.51203297640548, 28.29137045850104], [85.51211964186245, 28.291087635802068], [85.51202298959483, 28.29060143235392], [85.5111867351923, 28.290500779106424], [85.51020328703859, 28.28983098086494], [85.51007320356779, 28.289518333193005], [85.5102630146789, 28.289254944661916], [85.51088286668775, 28.288556864888477], [85.51145969688741, 28.287977312192762], [85.512097539898, 28.28747165190887], [85.51283813594826, 28.287012876431803], [85.51363576279202, 28.286170258441278], [85.51437824938817, 28.285574187835785], [85.51532433968553, 28.285209171406972], [85.51642018419733, 28.285230234582656], [85.51721923176908, 28.28502837557451], [85.51812090932654, 28.284882548292885], [85.51913695052198, 28.28469218615159], [85.52060741176493, 28.284543355007184], [85.52187826241517, 28.284621192759822], [85.52275167220054, 28.285024257245517], [85.52311064474642, 28.28523867753185], [85.52365206621226, 28.28572052997083], [85.52408947860108, 28.285496412791094], [85.5245368500086, 28.28529986319416], [85.5249423576396, 28.28513947516304], [85.5252050008692, 28.285590848724446], [85.52578678321719, 28.285395746484507], [85.52638999857567, 28.285145950074845], [85.52688465167198, 28.285270286474855], [85.52739065305079, 28.28532151292557], [85.52833292484182, 28.28523097853355], [85.52896161601791, 28.285384213341167], [85.52916249188638, 28.2858166067175], [85.52944583387229, 28.286268195530393], [85.53000872361979, 28.286695331817334], [85.53010306667304, 28.28735542266721], [85.53009464248106, 28.287968638134704], [85.53009655776955, 28.288581964846234], [85.53006556732034, 28.289332244603237], [85.52998765545766, 28.2897341739767], [85.5299682610547, 28.290393040209565], [85.52993221075597, 28.290758804857585], [85.5297732123045, 28.291040861333666], [85.52976553962664, 28.291599161601365], [85.52982028460661, 28.292130672457137], [85.52981298918009, 28.292661515262207], [85.52999382931354, 28.2930479226204], [85.5300210767493, 28.29332283044994], [85.52995740044466, 28.293441144491513]]]}, "properties": {"name": "Landslide (Sq. km: 1.66801)", "kind": "hazard", "icon": "hazard_pin", "source": "Manual Mapping (Planet scope imagery)", "note": "Landslide area in the Langtang region; contextual reference, not a precise landslide dataset.", "highlight": true}}, {"type": "Feature", "geometry": {"type": "Polygon", "coordinates": [[[85.5083150861085, 28.295458241511767], [85.50847427470501, 28.29516706021758], [85.50855010231106, 28.29492073693052], [85.50867928954779, 28.294555997482803], [85.50875856122786, 28.294062559970087], [85.50885519516606, 28.293807309916644], [85.508920170355, 28.293597482874645], [85.50896561319757, 28.293305058580643], [85.50901041792196, 28.29305839612539], [85.5091065400166, 28.292839755303135], [85.50904972967828, 28.29246383045114], [85.50897058136354, 28.29220666063543], [85.50893279328511, 28.29194994244682], [85.50903286096957, 28.29185772531315], [85.50909560264807, 28.291610951054906], [85.50920069630467, 28.291364639164726], [85.50929643098459, 28.291181964535724], [85.50920571138067, 28.291004753004927], [85.50921193169899, 28.290862344301047], [85.50943529649163, 28.29063981971086], [85.50967163161874, 28.290284333106626], [85.50980871339328, 28.289946041136716], [85.5099902400554, 28.289742977539106], [85.51011662413833, 28.28969748925556], [85.51028794368267, 28.289752084169777], [85.51053140301411, 28.28985433312681], [85.51070174457118, 28.289979217862765], [85.5108780517599, 28.290151034786845], [85.51113344329241, 28.290347147501166], [85.51131588023333, 28.290554181225218], [85.51155296940101, 28.29063878372108], [85.51188474108665, 28.29057795728778], [85.51204977139145, 28.290609047830856], [85.51205966623644, 28.290849350789927], [85.51199129126547, 28.291006782959983], [85.51196245838594, 28.291176362853207], [85.51203942478384, 28.291352954127092], [85.51201680206071, 28.291551893783833], [85.51206884641942, 28.291616903521685], [85.51230683459227, 28.29163707197864], [85.5125250515976, 28.291651166221186], [85.51258273658806, 28.291786538234703], [85.51272718331626, 28.291870129541735], [85.51287138599218, 28.291971293297195], [85.51306991384041, 28.291973455406435], [85.51296755585872, 28.292194960581355], [85.51296584597122, 28.292317968737677], [85.51318300614673, 28.29240820989378], [85.51327974687558, 28.292590874261634], [85.51322666634434, 28.29307654496779], [85.51300649211794, 28.293203032470956], [85.51276402119993, 28.293505029240237], [85.51266027640992, 28.293826112053694], [85.51255677531049, 28.294129622164803], [85.51241953317282, 28.294479631875788], [85.51224462025402, 28.294682770550367], [85.51206471851788, 28.294768686316104], [85.511967407714, 28.2946270238333], [85.51165547666926, 28.294688066382264], [85.51128603785605, 28.29507655232129], [85.51111518869544, 28.295329881771693], [85.5110061205736, 28.29555740475155], [85.51092675201267, 28.295781502166676], [85.51061003608913, 28.295710558589576], [85.51035146761228, 28.295722735169534], [85.51020087281591, 28.295586114176047], [85.51023334014604, 28.295384001754485], [85.51029587269977, 28.29515222229628], [85.51004483637877, 28.295231969414203], [85.50971630918633, 28.29540085542692], [85.50953491874765, 28.29534638399707], [85.5094384974152, 28.2952740930873], [85.50949135935565, 28.295128444265742], [85.5094761417372, 28.29500454850188], [85.50924978602808, 28.2951370549452], [85.50908716953751, 28.29525525951277], [85.50874196064223, 28.295405214060565], [85.50854582596503, 28.295496806171172], [85.50842294733172, 28.295499213169478], [85.5083150861085, 28.295458241511767]]]}, "properties": {"name": "New Lake (landslide-dammed, observed 27 Aug 2026)", "kind": "lake", "source": "Sentinel-2 / Copernicus Browser, manual digitization", "observed_date": "2026-08-27", "note": "New waterbody formed upstream after the glacier/rock collapse blocked the Lhende valley; consistent with the flood-origin point, now mapped as an actual extent.", "highlight": true}}]}