{
  "type": "FeatureCollection",
  "features": [
    {
      "type": "Feature",
      "geometry": { "type": "Point", "coordinates": [85.50837, 28.29437] },
      "properties": {
        "name": "Flood origin (landslide-dammed lake)",
        "kind": "hazard",
        "icon": "hazard_pin",
        "observed_date": "2026-08-27",
        "source": "Sentinel-2 / Copernicus Browser (dataspace.copernicus.eu)",
        "note": "New waterbody detected upstream on 27 Aug imagery, consistent with a landslide-dammed lake that may have breached and driven the downstream flash flood.",
        "highlight": true
      }
    },
    {
      "type": "Feature",
      "geometry": { "type": "Point", "coordinates": [85.618, 28.213] },
      "properties": {
        "name": "Langtang Glacier / Valley",
        "kind": "glacier",
        "icon": "glacier_pin",
        "source": "Approximate — Langtang valley glacier region (OpenStreetMap / Wikipedia, Langtang National Park)",
        "note": "Upper-catchment glacier zone above the Bhotekoshi headwaters; contextual reference, not a precise glacier-outline dataset.",
        "highlight": true
      }
    },
    {
      "type": "Feature",
      "geometry": {
        "type": "Polygon",
        "coordinates": [
          [
            [355846.3653464988, 3130585.7051100954],
            [355815.9380374262, 3130598.8902773596],
            [355790.5819465332, 3130595.8475464545],
            [355762.18312473316, 3130616.132419165],
            [355724.65611021407, 3130648.5882155094],
            [355674.9581720624, 3130645.5454846043],
            [355594.8329248419, 3130634.388804609],
            [355523.83587034047, 3130660.7591391373],
            [355475.15217582695, 3130702.3431282043],
            [355458.9242776558, 3130731.7561936397],
            [355423.4257504074, 3130759.1407718044],
            [355379.8132740697, 3130774.3544263393],
            [355319.97289956454, 3130775.3686699755],
            [355196.23517600633, 3130758.126528168],
            [355101.9105178844, 3130736.8274118174],
            [355047.1413615551, 3130666.8446009513],
            [354927.46061254106, 3130651.6309464183],
            [354858.4920453122, 3130629.3175864313],
            [354745.9110017484, 3130595.8475464545],
            [354592.76021275576, 3130607.004226448],
            [354466.9940019278, 3130583.676622823],
            [354425.41001286265, 3130552.2350701205],
            [354384.8402674347, 3130506.594106512],
            [354277.3304420477, 3130451.8249501847],
            [354213.4330929993, 3130494.4231828824],
            [354210.3903620923, 3130476.1667974405],
            [354101.8662930699, 3130415.3121792953],
            [354085.6383949006, 3130377.7851647735],
            [354093.75234398525, 3130346.3436120655],
            [354083.6099076271, 3130292.588699376],
            [354001.45617313683, 3130282.446263021],
            [353904.0887841061, 3130209.420721246],
            [353890.9036168428, 3130174.9364376348],
            [353909.1600022856, 3130145.5233721957],
            [353969.0003767926, 3130067.4266122486],
            [354024.7837767564, 3130002.51501956],
            [354086.6526385341, 3129945.71737596],
            [354158.66393666994, 3129893.990950538],
            [354235.74645298533, 3129799.6662924215],
            [354307.7577511212, 3129732.7262124605],
            [354400.0539219696, 3129691.142223399],
            [354507.5637473557, 3129692.1564670354],
            [354585.6605073055, 3129668.8288634103],
            [354673.89970361255, 3129651.5867216047],
            [354773.295579914, 3129629.2733616196],
            [354917.3181761857, 3129611.016976174],
            [355042.0701433774, 3129618.116681624],
            [355128.28085241467, 3129661.72915796],
            [355163.77937966306, 3129685.0567615833],
            [355217.5342923561, 3129737.797430638],
            [355260.1325250566, 3129712.441339746],
            [355303.7450013906, 3129690.127979761],
            [355343.3005031841, 3129671.871594319],
            [355369.6708377134, 3129721.569532469],
            [355426.46848131437, 3129699.25617248],
            [355485.2946121851, 3129670.857350683],
            [355533.9783066977, 3129684.042517947],
            [355583.6762448475, 3129689.1137361247],
            [355675.9724156987, 3129677.957056133],
            [355737.8412774764, 3129694.1849543024],
            [355758.12615019176, 3129741.854405185],
            [355786.5249719918, 3129791.552343333],
            [355842.3083719555, 3129838.207550574],
            [355852.45080831274, 3129911.233092349],
            [355852.45080831274, 3129979.1874159407],
            [355853.465051949, 3130047.1417395324],
            [355851.43656467646, 3130130.3097176626],
            [355844.3368592262, 3130174.9364376348],
            [355843.3226155918, 3130247.961979404],
            [355840.27988468297, 3130288.531724835],
            [355825.066230149, 3130319.973277541],
            [355825.066230149, 3130381.8421393186],
            [355831.1516919639, 3130440.668270193],
            [355831.1516919639, 3130499.49440106],
            [355849.40807740577, 3130542.0926337596],
            [355852.45080831274, 3130572.5199428312],
            [355846.3653464988, 3130585.7051100954]
          ]
        ]
      },
      "properties": {
        "name": "Landslide (Sq. km: 1.66801)",
        "kind": "hazard",
        "icon": "hazard_pin",
        "source": "Manual Mapping (Planet scope imagery)",
        "note": "Landslide area in the Langtang region; contextual reference, not a precise landslide dataset.",
        "highlight": true
      }
    },
    {"type":"Feature","geometry":{"type":"Polygon","coordinates":[[[85.5083150861085,28.295458241511767],[85.50847427470501,28.29516706021758],[85.50855010231106,28.29492073693052],[85.50867928954779,28.294555997482803],[85.50875856122786,28.294062559970087],[85.50885519516606,28.293807309916644],[85.508920170355,28.293597482874645],[85.50896561319757,28.293305058580643],[85.50901041792196,28.29305839612539],[85.5091065400166,28.292839755303135],[85.50904972967828,28.29246383045114],[85.50897058136354,28.29220666063543],[85.50893279328511,28.29194994244682],[85.50903286096957,28.29185772531315],[85.50909560264807,28.291610951054906],[85.50920069630467,28.291364639164726],[85.50929643098459,28.291181964535724],[85.50920571138067,28.291004753004927],[85.50921193169899,28.290862344301047],[85.50943529649163,28.29063981971086],[85.50967163161874,28.290284333106626],[85.50980871339328,28.289946041136716],[85.5099902400554,28.289742977539106],[85.51011662413833,28.28969748925556],[85.51028794368267,28.289752084169777],[85.51053140301411,28.28985433312681],[85.51070174457118,28.289979217862765],[85.5108780517599,28.290151034786845],[85.51113344329241,28.290347147501166],[85.51131588023333,28.290554181225218],[85.51155296940101,28.29063878372108],[85.51188474108665,28.29057795728778],[85.51204977139145,28.290609047830856],[85.51205966623644,28.290849350789927],[85.51199129126547,28.291006782959983],[85.51196245838594,28.291176362853207],[85.51203942478384,28.291352954127092],[85.51201680206071,28.291551893783833],[85.51206884641942,28.291616903521685],[85.51230683459227,28.29163707197864],[85.5125250515976,28.291651166221186],[85.51258273658806,28.291786538234703],[85.51272718331626,28.291870129541735],[85.51287138599218,28.291971293297195],[85.51306991384041,28.291973455406435],[85.51296755585872,28.292194960581355],[85.51296584597122,28.292317968737677],[85.51318300614673,28.29240820989378],[85.51327974687558,28.292590874261634],[85.51322666634434,28.29307654496779],[85.51300649211794,28.293203032470956],[85.51276402119993,28.293505029240237],[85.51266027640992,28.293826112053694],[85.51255677531049,28.294129622164803],[85.51241953317282,28.294479631875788],[85.51224462025402,28.294682770550367],[85.51206471851788,28.294768686316104],[85.511967407714,28.2946270238333],[85.51165547666926,28.294688066382264],[85.51128603785605,28.29507655232129],[85.51111518869544,28.295329881771693],[85.5110061205736,28.29555740475155],[85.51092675201267,28.295781502166676],[85.51061003608913,28.295710558589576],[85.51035146761228,28.295722735169534],[85.51020087281591,28.295586114176047],[85.51023334014604,28.295384001754485],[85.51029587269977,28.29515222229628],[85.51004483637877,28.295231969414203],[85.50971630918633,28.29540085542692],[85.50953491874765,28.29534638399707],[85.5094384974152,28.2952740930873],[85.50949135935565,28.295128444265742],[85.5094761417372,28.29500454850188],[85.50924978602808,28.2951370549452],[85.50908716953751,28.29525525951277],[85.50874196064223,28.295405214060565],[85.50854582596503,28.295496806171172],[85.50842294733172,28.295499213169478],[85.5083150861085,28.295458241511767]]]},
  "properties": {
        "name": "New Lake (Drained; Sq. km: 0.194987)",
        "kind": "lake",
        "icon": "hazard_pin",
        "source": "Manual Mapping (Planet scope imagery)",
        "note": "Newly formed lake due to landslides in the Langtang region; It is already drained and no longer exists.",
        "highlight": true
      }}
  ]
}
