{"type":"FeatureCollection", "features": [
{"type":"Feature","geometry":{"type":"Polygon","coordinates":[[[85.5083150861085,28.295458241511767],[85.50847427470501,28.29516706021758],[85.50855010231106,28.29492073693052],[85.50867928954779,28.294555997482803],[85.50875856122786,28.294062559970087],[85.50885519516606,28.293807309916644],[85.508920170355,28.293597482874645],[85.50896561319757,28.293305058580643],[85.50901041792196,28.29305839612539],[85.5091065400166,28.292839755303135],[85.50904972967828,28.29246383045114],[85.50897058136354,28.29220666063543],[85.50893279328511,28.29194994244682],[85.50903286096957,28.29185772531315],[85.50909560264807,28.291610951054906],[85.50920069630467,28.291364639164726],[85.50929643098459,28.291181964535724],[85.50920571138067,28.291004753004927],[85.50921193169899,28.290862344301047],[85.50943529649163,28.29063981971086],[85.50967163161874,28.290284333106626],[85.50980871339328,28.289946041136716],[85.5099902400554,28.289742977539106],[85.51011662413833,28.28969748925556],[85.51028794368267,28.289752084169777],[85.51053140301411,28.28985433312681],[85.51070174457118,28.289979217862765],[85.5108780517599,28.290151034786845],[85.51113344329241,28.290347147501166],[85.51131588023333,28.290554181225218],[85.51155296940101,28.29063878372108],[85.51188474108665,28.29057795728778],[85.51204977139145,28.290609047830856],[85.51205966623644,28.290849350789927],[85.51199129126547,28.291006782959983],[85.51196245838594,28.291176362853207],[85.51203942478384,28.291352954127092],[85.51201680206071,28.291551893783833],[85.51206884641942,28.291616903521685],[85.51230683459227,28.29163707197864],[85.5125250515976,28.291651166221186],[85.51258273658806,28.291786538234703],[85.51272718331626,28.291870129541735],[85.51287138599218,28.291971293297195],[85.51306991384041,28.291973455406435],[85.51296755585872,28.292194960581355],[85.51296584597122,28.292317968737677],[85.51318300614673,28.29240820989378],[85.51327974687558,28.292590874261634],[85.51322666634434,28.29307654496779],[85.51300649211794,28.293203032470956],[85.51276402119993,28.293505029240237],[85.51266027640992,28.293826112053694],[85.51255677531049,28.294129622164803],[85.51241953317282,28.294479631875788],[85.51224462025402,28.294682770550367],[85.51206471851788,28.294768686316104],[85.511967407714,28.2946270238333],[85.51165547666926,28.294688066382264],[85.51128603785605,28.29507655232129],[85.51111518869544,28.295329881771693],[85.5110061205736,28.29555740475155],[85.51092675201267,28.295781502166676],[85.51061003608913,28.295710558589576],[85.51035146761228,28.295722735169534],[85.51020087281591,28.295586114176047],[85.51023334014604,28.295384001754485],[85.51029587269977,28.29515222229628],[85.51004483637877,28.295231969414203],[85.50971630918633,28.29540085542692],[85.50953491874765,28.29534638399707],[85.5094384974152,28.2952740930873],[85.50949135935565,28.295128444265742],[85.5094761417372,28.29500454850188],[85.50924978602808,28.2951370549452],[85.50908716953751,28.29525525951277],[85.50874196064223,28.295405214060565],[85.50854582596503,28.295496806171172],[85.50842294733172,28.295499213169478],[85.5083150861085,28.295458241511767]]]},"properties":{"Id":0,"area_sqkm":0.194987}}
]}