{"type":"FeatureCollection", "features": [
{"type":"Feature","geometry":{"type":"Polygon","coordinates":[[[355846.3653464988,3130585.7051100954],[355815.9380374262,3130598.8902773596],[355790.5819465332,3130595.8475464545],[355762.18312473316,3130616.132419165],[355724.65611021407,3130648.5882155094],[355674.9581720624,3130645.5454846043],[355594.8329248419,3130634.388804609],[355523.83587034047,3130660.7591391373],[355475.15217582695,3130702.3431282043],[355458.9242776558,3130731.7561936397],[355423.4257504074,3130759.1407718044],[355379.8132740697,3130774.3544263393],[355319.97289956454,3130775.3686699755],[355196.23517600633,3130758.126528168],[355101.9105178844,3130736.8274118174],[355047.1413615551,3130666.8446009513],[354927.46061254106,3130651.6309464183],[354858.4920453122,3130629.3175864313],[354745.9110017484,3130595.8475464545],[354592.76021275576,3130607.004226448],[354466.9940019278,3130583.676622823],[354425.41001286265,3130552.2350701205],[354384.8402674347,3130506.594106512],[354277.3304420477,3130451.8249501847],[354213.4330929993,3130494.4231828824],[354210.3903620923,3130476.1667974405],[354101.8662930699,3130415.3121792953],[354085.6383949006,3130377.7851647735],[354093.75234398525,3130346.3436120655],[354083.6099076271,3130292.588699376],[354001.45617313683,3130282.446263021],[353904.0887841061,3130209.420721246],[353890.9036168428,3130174.9364376348],[353909.1600022856,3130145.5233721957],[353969.0003767926,3130067.4266122486],[354024.7837767564,3130002.51501956],[354086.6526385341,3129945.71737596],[354158.66393666994,3129893.990950538],[354235.74645298533,3129799.6662924215],[354307.7577511212,3129732.7262124605],[354400.0539219696,3129691.142223399],[354507.5637473557,3129692.1564670354],[354585.6605073055,3129668.8288634103],[354673.89970361255,3129651.5867216047],[354773.295579914,3129629.2733616196],[354917.3181761857,3129611.016976174],[355042.0701433774,3129618.116681624],[355128.28085241467,3129661.72915796],[355163.77937966306,3129685.0567615833],[355217.5342923561,3129737.797430638],[355260.1325250566,3129712.441339746],[355303.7450013906,3129690.127979761],[355343.3005031841,3129671.871594319],[355369.6708377134,3129721.569532469],[355426.46848131437,3129699.25617248],[355485.2946121851,3129670.857350683],[355533.9783066977,3129684.042517947],[355583.6762448475,3129689.1137361247],[355675.9724156987,3129677.957056133],[355737.8412774764,3129694.1849543024],[355758.12615019176,3129741.854405185],[355786.5249719918,3129791.552343333],[355842.3083719555,3129838.207550574],[355852.45080831274,3129911.233092349],[355852.45080831274,3129979.1874159407],[355853.465051949,3130047.1417395324],[355851.43656467646,3130130.3097176626],[355844.3368592262,3130174.9364376348],[355843.3226155918,3130247.961979404],[355840.27988468297,3130288.531724835],[355825.066230149,3130319.973277541],[355825.066230149,3130381.8421393186],[355831.1516919639,3130440.668270193],[355831.1516919639,3130499.49440106],[355849.40807740577,3130542.0926337596],[355852.45080831274,3130572.5199428312],[355846.3653464988,3130585.7051100954]]]},"properties":{"Id":0,"area_sq_km":1.66801}}
]}
