{"type":"FeatureCollection", "features": [
{"type":"Feature","geometry":{"type":"Point","coordinates":[85.33600000000007,28.161000000000058]},"properties":{"Name":"NIC ASIA Bank Syafrubesi Branch","Latitude":28.161,"Longitude":85.336,"District":"RASUWA","Municipali":"Gosaikunda"}},
{"type":"Feature","geometry":{"type":"Point","coordinates":[85.29600000000005,28.113000000000056]},"properties":{"Name":"Global IME Bank Limited","Latitude":28.113,"Longitude":85.296,"District":"RASUWA","Municipali":"Gosaikunda"}},
{"type":"Feature","geometry":{"type":"Point","coordinates":[85.36600000000004,28.253000000000043]},"properties":{"Name":"Global IME Bank Limited","Latitude":28.253,"Longitude":85.366,"District":"RASUWA","Municipali":"Gosaikunda"}},
{"type":"Feature","geometry":{"type":"Point","coordinates":[85.18400000000008,27.976000000000056]},"properties":{"Name":"Uttargaya Rural Municipality, Office","Latitude":27.976,"Longitude":85.184,"District":"RASUWA","Municipali":"Uttargaya"}},
{"type":"Feature","geometry":{"type":"Point","coordinates":[85.18600000000004,27.974000000000046]},"properties":{"Name":"NIC ASIA Bank Betrawati Branch","Latitude":27.974,"Longitude":85.186,"District":"NUWAKOT","Municipali":"Bidur"}},
{"type":"Feature","geometry":{"type":"Point","coordinates":[85.20500000000004,27.99700000000007]},"properties":{"Name":"Nirdhan Utthan Laghubitta Bittiya Sanstha Limited","Latitude":27.997,"Longitude":85.205,"District":"","Municipali":""}},
{"type":"Feature","geometry":{"type":"Point","coordinates":[85.14200000000005,27.902000000000044]},"properties":{"Name":"Laxmi Sunrise - Battar","Latitude":27.902,"Longitude":85.142,"District":"NUWAKOT","Municipali":"Bidur"}},
{"type":"Feature","geometry":{"type":"Point","coordinates":[85.14800000000008,27.922000000000025]},"properties":{"Name":"NIC ASIA Bank Trishuli Branch","Latitude":27.922,"Longitude":85.148,"District":"NUWAKOT","Municipali":"Bidur"}},
{"type":"Feature","geometry":{"type":"Point","coordinates":[85.14400000000006,27.911000000000058]},"properties":{"Name":"Rastriya Banijya Bank","Latitude":27.911,"Longitude":85.144,"District":"NUWAKOT","Municipali":"Bidur"}},
{"type":"Feature","geometry":{"type":"Point","coordinates":[85.14600000000007,27.897000000000048]},"properties":{"Name":"Muktinath Bikas Bank Ltd., Battar Branch","Latitude":27.897,"Longitude":85.146,"District":"NUWAKOT","Municipali":"Bidur"}},
{"type":"Feature","geometry":{"type":"Point","coordinates":[85.14300000000009,27.915000000000077]},"properties":{"Name":"Sanima Bank Ltd. Bidur Branch","Latitude":27.915,"Longitude":85.143,"District":"NUWAKOT","Municipali":"Bidur"}},
{"type":"Feature","geometry":{"type":"Point","coordinates":[85.14400000000006,27.904000000000053]},"properties":{"Name":"Sangam saving and credit co-operative Ltd","Latitude":27.904,"Longitude":85.144,"District":"NUWAKOT","Municipali":"Bidur"}},
{"type":"Feature","geometry":{"type":"Point","coordinates":[85.14200000000005,27.916000000000054]},"properties":{"Name":"Nepal Bank Ltd. Trisuli Branch","Latitude":27.916,"Longitude":85.142,"District":"NUWAKOT","Municipali":"Bidur"}},
{"type":"Feature","geometry":{"type":"Point","coordinates":[85.14700000000005,27.898000000000025]},"properties":{"Name":"NIC ASIA Bank Battar Branch","Latitude":27.898,"Longitude":85.147,"District":"","Municipali":""}},
{"type":"Feature","geometry":{"type":"Point","coordinates":[85.18600000000004,27.974000000000046]},"properties":{"Name":"NIC ASIA Bank Betrawati Branch","Latitude":27.974,"Longitude":85.186,"District":"NUWAKOT","Municipali":"Bidur"}},
{"type":"Feature","geometry":{"type":"Point","coordinates":[85.14700000000005,27.898000000000025]},"properties":{"Name":"Jyoti Bikash Bank Limited","Latitude":27.898,"Longitude":85.147,"District":"","Municipali":""}},
{"type":"Feature","geometry":{"type":"Point","coordinates":[85.14700000000005,27.897000000000048]},"properties":{"Name":"Nabil Bank Limited","Latitude":27.897,"Longitude":85.147,"District":"","Municipali":""}},
{"type":"Feature","geometry":{"type":"Point","coordinates":[84.78000000000003,27.811000000000035]},"properties":{"Name":"Muktinath Bikas Bank Ltd. Benighat Branch","Latitude":27.811,"Longitude":84.78,"District":"DHADING","Municipali":"Benighat Rorang"}},
{"type":"Feature","geometry":{"type":"Point","coordinates":[84.82800000000003,27.814000000000078]},"properties":{"Name":"Kumari Bank Limited","Latitude":27.814,"Longitude":84.828,"District":"DHADING","Municipali":"Benighat Rorang"}},
{"type":"Feature","geometry":{"type":"Point","coordinates":[84.82800000000003,27.814000000000078]},"properties":{"Name":"Rastriya Banijya Bank","Latitude":27.814,"Longitude":84.828,"District":"DHADING","Municipali":"Benighat Rorang"}},
{"type":"Feature","geometry":{"type":"Point","coordinates":[84.76900000000006,27.80800000000005]},"properties":{"Name":"Benighat Rorang Rural Municipality, Bishaltar","Latitude":27.808,"Longitude":84.769,"District":"DHADING","Municipali":"Benighat Rorang"}},
{"type":"Feature","geometry":{"type":"Point","coordinates":[84.83100000000007,27.814000000000078]},"properties":{"Name":"Shangri-la Development Bank","Latitude":27.814,"Longitude":84.831,"District":"DHADING","Municipali":"Benighat Rorang"}},
{"type":"Feature","geometry":{"type":"Point","coordinates":[85.14400000000006,27.911000000000058]},"properties":{"Name":"Rastriya Banijya Bank","Latitude":27.911,"Longitude":85.144,"District":"NUWAKOT","Municipali":"Bidur"}},
{"type":"Feature","geometry":{"type":"Point","coordinates":[85.14300000000009,27.915000000000077]},"properties":{"Name":"Sanima Bank Ltd. Bidur Branch","Latitude":27.915,"Longitude":85.143,"District":"NUWAKOT","Municipali":"Bidur"}},
{"type":"Feature","geometry":{"type":"Point","coordinates":[85.14700000000005,27.896000000000072]},"properties":{"Name":"Global IME Bank Limited","Latitude":27.896,"Longitude":85.147,"District":"NUWAKOT","Municipali":"Bidur"}},
{"type":"Feature","geometry":{"type":"Point","coordinates":[85.14500000000004,27.912000000000035]},"properties":{"Name":"DLB Bank Limited - Bidur","Latitude":27.912,"Longitude":85.145,"District":"","Municipali":""}},
{"type":"Feature","geometry":{"type":"Point","coordinates":[85.14200000000005,27.916000000000054]},"properties":{"Name":"Nepal Bank Ltd. Trisuli Branch","Latitude":27.916,"Longitude":85.142,"District":"NUWAKOT","Municipali":"Bidur"}},
{"type":"Feature","geometry":{"type":"Point","coordinates":[85.14100000000008,27.911000000000058]},"properties":{"Name":"Bidur Municipality Office","Latitude":27.911,"Longitude":85.141,"District":"NUWAKOT","Municipali":"Bidur"}},
{"type":"Feature","geometry":{"type":"Point","coordinates":[85.14200000000005,27.902000000000044]},"properties":{"Name":"Laxmi Sunrise - Battar","Latitude":27.902,"Longitude":85.142,"District":"NUWAKOT","Municipali":"Bidur"}},
{"type":"Feature","geometry":{"type":"Point","coordinates":[85.14700000000005,27.897000000000048]},"properties":{"Name":"Mega Bank Limited","Latitude":27.897,"Longitude":85.147,"District":"","Municipali":""}},
{"type":"Feature","geometry":{"type":"Point","coordinates":[85.14600000000007,27.898000000000025]},"properties":{"Name":"Prime Commercial Bank Ltd. Battar Branch","Latitude":27.898,"Longitude":85.146,"District":"NUWAKOT","Municipali":"Bidur"}},
{"type":"Feature","geometry":{"type":"Point","coordinates":[85.14600000000007,27.903000000000077]},"properties":{"Name":"Prabhu Bank Limited","Latitude":27.903,"Longitude":85.146,"District":"NUWAKOT","Municipali":"Bidur"}},
{"type":"Feature","geometry":{"type":"Point","coordinates":[84.87600000000003,27.805000000000064]},"properties":{"Name":"Citizen Bank International Gajuri","Latitude":27.805,"Longitude":84.876,"District":"DHADING","Municipali":"Gajuri"}},
{"type":"Feature","geometry":{"type":"Point","coordinates":[84.88300000000004,27.80400000000003]},"properties":{"Name":"Gajuri Rural Municipality Office","Latitude":27.804,"Longitude":84.883,"District":"DHADING","Municipali":"Gajuri"}},
{"type":"Feature","geometry":{"type":"Point","coordinates":[84.88000000000005,27.805000000000064]},"properties":{"Name":"Prabhu Bank Limited/ATM","Latitude":27.805,"Longitude":84.88,"District":"DHADING","Municipali":"Gajuri"}},
{"type":"Feature","geometry":{"type":"Point","coordinates":[84.88000000000005,27.805000000000064]},"properties":{"Name":"NIC ASIA Bank Gajuri Branch","Latitude":27.805,"Longitude":84.88,"District":"DHADING","Municipali":"Gajuri"}},
{"type":"Feature","geometry":{"type":"Point","coordinates":[85.00000000000006,27.79600000000005]},"properties":{"Name":"NMB Galchhi Branch","Latitude":27.796,"Longitude":85,"District":"DHADING","Municipali":"Galchi"}},
{"type":"Feature","geometry":{"type":"Point","coordinates":[84.87700000000007,27.80400000000003]},"properties":{"Name":"Nabil Bank Limited","Latitude":27.804,"Longitude":84.877,"District":"DHADING","Municipali":"Gajuri"}},
{"type":"Feature","geometry":{"type":"Point","coordinates":[85.00000000000006,27.79800000000006]},"properties":{"Name":"NIC ASIA Bank Galchi Branch","Latitude":27.798,"Longitude":85,"District":"DHADING","Municipali":"Galchi"}},
{"type":"Feature","geometry":{"type":"Point","coordinates":[84.99400000000009,27.800000000000068]},"properties":{"Name":"Galchhi Rural Municipality Office","Latitude":27.8,"Longitude":84.994,"District":"DHADING","Municipali":"Galchi"}},
{"type":"Feature","geometry":{"type":"Point","coordinates":[84.87600000000003,27.805000000000064]},"properties":{"Name":"Citizen Bank International Gajuri","Latitude":27.805,"Longitude":84.876,"District":"DHADING","Municipali":"Gajuri"}},
{"type":"Feature","geometry":{"type":"Point","coordinates":[84.82800000000003,27.814000000000078]},"properties":{"Name":"Sanima Bank","Latitude":27.814,"Longitude":84.828,"District":"DHADING","Municipali":"Benighat Rorang"}},
{"type":"Feature","geometry":{"type":"Point","coordinates":[84.83100000000007,27.814000000000078]},"properties":{"Name":"Shangri-la Development Bank","Latitude":27.814,"Longitude":84.831,"District":"DHADING","Municipali":"Benighat Rorang"}},
{"type":"Feature","geometry":{"type":"Point","coordinates":[84.87900000000008,27.805000000000064]},"properties":{"Name":"Machhapuchchhre Bank","Latitude":27.805,"Longitude":84.879,"District":"DHADING","Municipali":"Gajuri"}},
{"type":"Feature","geometry":{"type":"Point","coordinates":[84.87900000000008,27.805000000000064]},"properties":{"Name":"Riddhiaiddhi SACCOS","Latitude":27.805,"Longitude":84.879,"District":"DHADING","Municipali":"Gajuri"}},
{"type":"Feature","geometry":{"type":"Point","coordinates":[84.83300000000008,27.811000000000035]},"properties":{"Name":"Mega Bank Ltd","Latitude":27.811,"Longitude":84.833,"District":"DHADING","Municipali":"Benighat Rorang"}},
{"type":"Feature","geometry":{"type":"Point","coordinates":[84.62500000000006,27.871000000000038]},"properties":{"Name":"Machchhapuchchhre Bank Ltd. Ichchhakamana Branch, Kurintar","Latitude":27.871,"Longitude":84.625,"District":"CHITAWAN","Municipali":"Ichchhyakamana"}},
{"type":"Feature","geometry":{"type":"Point","coordinates":[84.62600000000003,27.87000000000006]},"properties":{"Name":"Ichchhakamana Rural Municipality, Office of the Municipal Executive","Latitude":27.87,"Longitude":84.626,"District":"CHITAWAN","Municipali":"Ichchhyakamana"}},
{"type":"Feature","geometry":{"type":"Point","coordinates":[84.62300000000005,27.87200000000007]},"properties":{"Name":"Global IME Bank Limited, Kurintar Extension Counter","Latitude":27.872,"Longitude":84.623,"District":"CHITAWAN","Municipali":"Ichchhyakamana"}},
{"type":"Feature","geometry":{"type":"Point","coordinates":[84.56100000000004,27.85600000000005]},"properties":{"Name":"Mega Bank","Latitude":27.856,"Longitude":84.561,"District":"CHITAWAN","Municipali":"Ichchhyakamana"}},
{"type":"Feature","geometry":{"type":"Point","coordinates":[85.20500000000004,27.99700000000007]},"properties":{"Name":"Nirdhan Utthan Laghubitta Bittiya Sanstha Limited","Latitude":27.997,"Longitude":85.205,"District":"","Municipali":""}},
{"type":"Feature","geometry":{"type":"Point","coordinates":[85.20400000000006,27.99700000000007]},"properties":{"Name":"ICFC Finance Limited","Latitude":27.997,"Longitude":85.204,"District":"","Municipali":""}},
{"type":"Feature","geometry":{"type":"Point","coordinates":[85.21000000000004,27.986000000000047]},"properties":{"Name":"Kalika","Latitude":27.986,"Longitude":85.21,"District":"","Municipali":""}},
{"type":"Feature","geometry":{"type":"Point","coordinates":[85.14400000000006,27.904000000000053]},"properties":{"Name":"Sangam saving and credit co-operative Ltd","Latitude":27.904,"Longitude":85.144,"District":"NUWAKOT","Municipali":"Bidur"}},
{"type":"Feature","geometry":{"type":"Point","coordinates":[85.14600000000007,27.900000000000034]},"properties":{"Name":"Nepal SBI Bank, Battar Branch","Latitude":27.9,"Longitude":85.146,"District":"NUWAKOT","Municipali":"Bidur"}},
{"type":"Feature","geometry":{"type":"Point","coordinates":[85.14200000000005,27.916000000000054]},"properties":{"Name":"Nepal Bank Ltd. Trisuli Branch","Latitude":27.916,"Longitude":85.142,"District":"NUWAKOT","Municipali":"Bidur"}},
{"type":"Feature","geometry":{"type":"Point","coordinates":[85.14700000000005,27.898000000000025]},"properties":{"Name":"NIC ASIA Bank Battar Branch","Latitude":27.898,"Longitude":85.147,"District":"","Municipali":""}},
{"type":"Feature","geometry":{"type":"Point","coordinates":[84.62500000000006,27.871000000000038]},"properties":{"Name":"Machchhapuchchhre Bank Ltd. Ichchhakamana Branch, Kurintar","Latitude":27.871,"Longitude":84.625,"District":"CHITAWAN","Municipali":"Ichchhyakamana"}},
{"type":"Feature","geometry":{"type":"Point","coordinates":[84.56100000000004,27.85600000000005]},"properties":{"Name":"Nirdhan Utthan Laghubitta Bittiya Sanstha Limited","Latitude":27.856,"Longitude":84.561,"District":"CHITAWAN","Municipali":"Ichchhyakamana"}},
{"type":"Feature","geometry":{"type":"Point","coordinates":[85.14200000000005,27.902000000000044]},"properties":{"Name":"Laxmi Sunrise - Battar","Latitude":27.902,"Longitude":85.142,"District":"NUWAKOT","Municipali":"Bidur"}},
{"type":"Feature","geometry":{"type":"Point","coordinates":[85.20500000000004,27.99700000000007]},"properties":{"Name":"Nirdhan Utthan Laghubitta Bittiya Sanstha Limited","Latitude":27.997,"Longitude":85.205,"District":"","Municipali":""}},
{"type":"Feature","geometry":{"type":"Point","coordinates":[84.78700000000003,27.835000000000036]},"properties":{"Name":"Siddhalek Ward 3 Office","Latitude":27.835,"Longitude":84.787,"District":"DHADING","Municipali":"Siddhalek"}},
{"type":"Feature","geometry":{"type":"Point","coordinates":[84.83100000000007,27.814000000000078]},"properties":{"Name":"Shangri-la Development Bank","Latitude":27.814,"Longitude":84.831,"District":"DHADING","Municipali":"Benighat Rorang"}},
{"type":"Feature","geometry":{"type":"Point","coordinates":[85.14200000000005,27.902000000000044]},"properties":{"Name":"Laxmi Sunrise - Battar","Latitude":27.902,"Longitude":85.142,"District":"NUWAKOT","Municipali":"Bidur"}},
{"type":"Feature","geometry":{"type":"Point","coordinates":[85.14200000000005,27.916000000000054]},"properties":{"Name":"Nepal Bank Ltd. Trisuli Branch","Latitude":27.916,"Longitude":85.142,"District":"NUWAKOT","Municipali":"Bidur"}},
{"type":"Feature","geometry":{"type":"Point","coordinates":[85.14700000000005,27.897000000000048]},"properties":{"Name":"Mega Bank Limited","Latitude":27.897,"Longitude":85.147,"District":"","Municipali":""}},
{"type":"Feature","geometry":{"type":"Point","coordinates":[85.14200000000005,27.916000000000054]},"properties":{"Name":"Nepal Bank Ltd. Trisuli Branch","Latitude":27.916,"Longitude":85.142,"District":"NUWAKOT","Municipali":"Bidur"}},
{"type":"Feature","geometry":{"type":"Point","coordinates":[85.14700000000005,27.898000000000025]},"properties":{"Name":"Jyoti Bikash Bank Limited","Latitude":27.898,"Longitude":85.147,"District":"","Municipali":""}},
{"type":"Feature","geometry":{"type":"Point","coordinates":[85.14600000000007,27.898000000000025]},"properties":{"Name":"Prime Commercial Bank Ltd. Battar Branch","Latitude":27.898,"Longitude":85.146,"District":"NUWAKOT","Municipali":"Bidur"}},
{"type":"Feature","geometry":{"type":"Point","coordinates":[85.14700000000005,27.898000000000025]},"properties":{"Name":"NIC ASIA Bank Battar Branch","Latitude":27.898,"Longitude":85.147,"District":"","Municipali":""}},
{"type":"Feature","geometry":{"type":"Point","coordinates":[85.14400000000006,27.911000000000058]},"properties":{"Name":"Rastriya Banijya Bank","Latitude":27.911,"Longitude":85.144,"District":"NUWAKOT","Municipali":"Bidur"}},
{"type":"Feature","geometry":{"type":"Point","coordinates":[85.14200000000005,27.902000000000044]},"properties":{"Name":"Laxmi Sunrise - Battar","Latitude":27.902,"Longitude":85.142,"District":"NUWAKOT","Municipali":"Bidur"}},
{"type":"Feature","geometry":{"type":"Point","coordinates":[85.14300000000009,27.915000000000077]},"properties":{"Name":"Sanima Bank Ltd. Bidur Branch","Latitude":27.915,"Longitude":85.143,"District":"NUWAKOT","Municipali":"Bidur"}},
{"type":"Feature","geometry":{"type":"Point","coordinates":[85.18400000000008,27.976000000000056]},"properties":{"Name":"Uttargaya Rural Municipality, Office","Latitude":27.976,"Longitude":85.184,"District":"RASUWA","Municipali":"Uttargaya"}},
{"type":"Feature","geometry":{"type":"Point","coordinates":[85.33600000000007,28.161000000000058]},"properties":{"Name":"NIC ASIA Bank Syafrubesi Branch","Latitude":28.161,"Longitude":85.336,"District":"RASUWA","Municipali":"Gosaikunda"}},
{"type":"Feature","geometry":{"type":"Point","coordinates":[85.20400000000006,27.99700000000007]},"properties":{"Name":"ICFC Finance Limited","Latitude":27.997,"Longitude":85.204,"District":"","Municipali":""}},
{"type":"Feature","geometry":{"type":"Point","coordinates":[85.29600000000005,28.113000000000056]},"properties":{"Name":"Global IME Bank Limited","Latitude":28.113,"Longitude":85.296,"District":"RASUWA","Municipali":"Gosaikunda"}}
]}