{
"type": "FeatureCollection",
"name": "Education_100m_AOI",
"crs": { "type": "name", "properties": { "name": "urn:ogc:def:crs:OGC:1.3:CRS84" } },
"features": [
{ "type": "Feature", "properties": { "osm_id": 5046072853, "amenity": "school", "Final_Name": "Shri Sila Devi Ma. Vi", "GAPA_NAPA_min": "Belkotgadhi", "Long": 85.042318, "Lat": 27.85146 }, "geometry": { "type": "Point", "coordinates": [ 85.0423178, 27.8514602 ] } },
{ "type": "Feature", "properties": { "osm_id": 4969579345, "amenity": "school", "Final_Name": "Shree Chipleti Pra Vi", "GAPA_NAPA_min": "Uttargaya", "Long": 85.208176, "Lat": 28.056387 }, "geometry": { "type": "Point", "coordinates": [ 85.2081762, 28.0563867 ] } },
{ "type": "Feature", "properties": { "osm_id": 7940743986, "amenity": "school", "Final_Name": "Chandeshwori Higher Secondary School", "GAPA_NAPA_min": "Bidur", "Long": 85.169397, "Lat": 27.964749 }, "geometry": { "type": "Point", "coordinates": [ 85.1693966, 27.964749 ] } },
{ "type": "Feature", "properties": { "osm_id": 5055276919, "amenity": "school", "Final_Name": "Shri Ganeshman Singh Memorial Primary School", "GAPA_NAPA_min": "Tarkeshwar", "Long": 85.02767, "Lat": 27.849136 }, "geometry": { "type": "Point", "coordinates": [ 85.0276701, 27.8491356 ] } },
{ "type": "Feature", "properties": { "osm_id": 4969595164, "amenity": "school", "Final_Name": "Shree Simle Pra Vi", "GAPA_NAPA_min": "Uttargaya", "Long": 85.190789, "Lat": 28.029756 }, "geometry": { "type": "Point", "coordinates": [ 85.1907891, 28.0297555 ] } },
{ "type": "Feature", "properties": { "osm_id": 9794119187, "amenity": "school", "Final_Name": "Shree Rastriya Aardharbhut School, Fishling", "GAPA_NAPA_min": "Ichchhyakamana", "Long": 84.661484, "Lat": 27.842489 }, "geometry": { "type": "Point", "coordinates": [ 84.6614838, 27.8424892 ] } },
{ "type": "Feature", "properties": { "osm_id": 9794119213, "amenity": "school", "Final_Name": "Green Field Secondary English School, Muglin", "GAPA_NAPA_min": "Ichchhyakamana", "Long": 84.56153, "Lat": 27.857688 }, "geometry": { "type": "Point", "coordinates": [ 84.5615298, 27.8576882 ] } },
{ "type": "Feature", "properties": { "osm_id": 4941869402, "amenity": "school", "Final_Name": "Shri Aadarsha Bahumukhi Campus", "GAPA_NAPA_min": "Gajuri", "Long": 84.877341, "Lat": 27.807084 }, "geometry": { "type": "Point", "coordinates": [ 84.8773408, 27.8070838 ] } },
{ "type": "Feature", "properties": { "osm_id": 4941743504, "amenity": "school", "Final_Name": "Shri Adarsha Uchha Ma V", "GAPA_NAPA_min": "Gajuri", "Long": 84.879326, "Lat": 27.807585 }, "geometry": { "type": "Point", "coordinates": [ 84.8793261, 27.807585 ] } },
{ "type": "Feature", "properties": { "osm_id": 4939797039, "amenity": "school", "Final_Name": "Shri Chandrodaya Ma Vi", "GAPA_NAPA_min": "Benighat Rorang", "Long": 84.781624, "Lat": 27.812166 }, "geometry": { "type": "Point", "coordinates": [ 84.7816236, 27.8121655 ] } },
{ "type": "Feature", "properties": { "osm_id": 5055871471, "amenity": "school", "Final_Name": "Shree Mandredhunga Pra V", "GAPA_NAPA_min": "Bidur", "Long": 85.129896, "Lat": 27.886485 }, "geometry": { "type": "Point", "coordinates": [ 85.1298955, 27.8864849 ] } },
{ "type": "Feature", "properties": { "osm_id": 4563086889, "amenity": "school", "Final_Name": null, "GAPA_NAPA_min": "Bidur", "Long": 85.145188, "Lat": 27.917893 }, "geometry": { "type": "Point", "coordinates": [ 85.1451878, 27.9178928 ] } },
{ "type": "Feature", "properties": { "osm_id": 4941662039, "amenity": "school", "Final_Name": "Shri Buddhi Bikash Pra V", "GAPA_NAPA_min": "Benighat Rorang", "Long": 84.748677, "Lat": 27.803501 }, "geometry": { "type": "Point", "coordinates": [ 84.7486773, 27.8035007 ] } },
{ "type": "Feature", "properties": { "osm_id": 5055300883, "amenity": "school", "Final_Name": "Shri Chandi Ni.Ma.Vi.", "GAPA_NAPA_min": "Bidur", "Long": 85.080635, "Lat": 27.857647 }, "geometry": { "type": "Point", "coordinates": [ 85.0806347, 27.8576473 ] } },
{ "type": "Feature", "properties": { "osm_id": null, "amenity": null, "Final_Name": "Shree Bhadrakali Gurukul Saskriti Bidhyalaya", "GAPA_NAPA_min": "Gajuri", "Long": 84.835907, "Lat": 27.807022 }, "geometry": { "type": "Point", "coordinates": [ 84.8359065, 27.8070224 ] } },
{ "type": "Feature", "properties": { "osm_id": null, "amenity": null, "Final_Name": "Shree Baludaya Pra Vi", "GAPA_NAPA_min": "Uttargaya", "Long": 85.208105, "Lat": 28.073383 }, "geometry": { "type": "Point", "coordinates": [ 85.2081045, 28.0733826 ] } },
{ "type": "Feature", "properties": { "osm_id": null, "amenity": null, "Final_Name": "Shree Pimaltar Uchcha Ma.Vi.", "GAPA_NAPA_min": "Tarkeshwar", "Long": 85.0193, "Lat": 27.839041 }, "geometry": { "type": "Point", "coordinates": [ 85.0192998, 27.8390414 ] } },
{ "type": "Feature", "properties": { "osm_id": null, "amenity": null, "Final_Name": "Shree Mahadev Uchha Ma V", "GAPA_NAPA_min": "Belkotgadhi", "Long": 85.014091, "Lat": 27.810527 }, "geometry": { "type": "Point", "coordinates": [ 85.014091, 27.8105267 ] } },
{ "type": "Feature", "properties": { "osm_id": null, "amenity": null, "Final_Name": "Shree Chetana Primary School", "GAPA_NAPA_min": "Bidur", "Long": 85.171365, "Lat": 27.96187 }, "geometry": { "type": "Point", "coordinates": [ 85.1713652, 27.9618698 ] } },
{ "type": "Feature", "properties": { "osm_id": null, "amenity": null, "Final_Name": "Gosaikunda English Reading School", "GAPA_NAPA_min": "Gosaikunda", "Long": 85.338742, "Lat": 28.1642 }, "geometry": { "type": "Point", "coordinates": [ 85.338741563675072, 28.164200267471696 ] } },
{ "type": "Feature", "properties": { "osm_id": null, "amenity": null, "Final_Name": "Shree Sankhadevi Secondary School", "GAPA_NAPA_min": "Benighat Rorang", "Long": 84.705114, "Lat": 27.806086 }, "geometry": { "type": "Point", "coordinates": [ 84.705113545060158, 27.806086181166421 ] } },
{ "type": "Feature", "properties": { "osm_id": null, "amenity": null, "Final_Name": "Rising Star English Boarding School", "GAPA_NAPA_min": "Benighat Rorang", "Long": 84.739369, "Lat": 27.801527 }, "geometry": { "type": "Point", "coordinates": [ 84.739369377493858, 27.80152673713777 ] } }
]
}
