{
"type": "FeatureCollection",
"name": "schools_buffer100m",
"crs": { "type": "name", "properties": { "name": "urn:ogc:def:crs:OGC:1.3:CRS84" } },
"features": [
{ "type": "Feature", "properties": { "Province": "Bagamati Province", "District": "Rasuwa", "Local Level": "Gosaikunda Rural Municipality", "School Type": "Public", "EMISCode": "290140005", "School Name": "Nepal Rastriya Basic School", "ContactNumber": "9860165729", "ContactPerson": "Damai Singi Lama ", "ContactPersonNumber": "9860165729", "Original_Longitude": "85.1640790682355", "Original_Latitude": "27.9543566312137", "QGIS_Longitude": "85.1640790682355", "QGIS_Latitude": "27.9543566312137", "Coordinate_Status": "Original_OK" }, "geometry": { "type": "Point", "coordinates": [ 85.164079068235495, 27.954356631213699 ] } },
{ "type": "Feature", "properties": { "Province": "Bagamati Province", "District": "Rasuwa", "Local Level": "Uttargaya Rural Municipality", "School Type": "Public", "EMISCode": "290100001", "School Name": "Malika Devi Basic School", "ContactNumber": "9861583126", "ContactPerson": "Purna Bahadur Ghale", "ContactPersonNumber": "9861583126", "Original_Longitude": "85.1848645", "Original_Latitude": "28.0065434", "QGIS_Longitude": "85.1848645", "QGIS_Latitude": "28.0065434", "Coordinate_Status": "Original_OK" }, "geometry": { "type": "Point", "coordinates": [ 85.1848645, 28.0065434 ] } },
{ "type": "Feature", "properties": { "Province": "Bagamati Province", "District": "Rasuwa", "Local Level": "Uttargaya Rural Municipality", "School Type": "Public", "EMISCode": "290040006", "School Name": "Chipleti Basic School", "ContactNumber": "9841889295", "ContactPerson": "Sabita Tamang", "ContactPersonNumber": "9841889295", "Original_Longitude": "85.207741", "Original_Latitude": "28.05715", "QGIS_Longitude": "85.207741", "QGIS_Latitude": "28.05715", "Coordinate_Status": "Original_OK" }, "geometry": { "type": "Point", "coordinates": [ 85.207741, 28.05715 ] } },
{ "type": "Feature", "properties": { "Province": "Bagamati Province", "District": "Rasuwa", "Local Level": "Uttargaya Rural Municipality", "School Type": "Public", "EMISCode": "290150004", "School Name": "Simle Basic School", "ContactNumber": "9841185610", "ContactPerson": "Chudamani Adhikari", "ContactPersonNumber": "9841185610", "Original_Longitude": "85.1863555908203", "Original_Latitude": "28.0249252319336", "QGIS_Longitude": "85.1863555908203", "QGIS_Latitude": "28.0249252319336", "Coordinate_Status": "Original_OK" }, "geometry": { "type": "Point", "coordinates": [ 85.186355590820298, 28.024925231933601 ] } },
{ "type": "Feature", "properties": { "Province": "Bagamati Province", "District": "Nuwakot", "Local Level": "Tarakeshwor Rural Municipality", "School Type": "Public", "EMISCode": "280570001", "School Name": "Ganesh Man Singh Smriti Basic School", "ContactNumber": "9840182004", "ContactPerson": "Deuti Devi  Neupane", "ContactPersonNumber": "9813538026", "Original_Longitude": "85.0274688", "Original_Latitude": "27.8490504", "QGIS_Longitude": "85.0274688", "QGIS_Latitude": "27.8490504", "Coordinate_Status": "Original_OK" }, "geometry": { "type": "Point", "coordinates": [ 85.0274688, 27.8490504 ] } },
{ "type": "Feature", "properties": { "Province": "Bagamati Province", "District": "Nuwakot", "Local Level": "Tarakeshwor Rural Municipality", "School Type": "Public", "EMISCode": "280570010", "School Name": "PIMALTAR  SECONDARY SCHOOL", "ContactNumber": "9843689412", "ContactPerson": "krishna shyam Nepal", "ContactPersonNumber": "9843689412", "Original_Longitude": "85.0242309748927", "Original_Latitude": "27.8341254959227", "QGIS_Longitude": "85.0242309748927", "QGIS_Latitude": "27.8341254959227", "Coordinate_Status": "Original_OK" }, "geometry": { "type": "Point", "coordinates": [ 85.024230974892703, 27.834125495922699 ] } },
{ "type": "Feature", "properties": { "Province": "Bagamati Province", "District": "Nuwakot", "Local Level": "Myagang Rural Municipality", "School Type": "Public", "EMISCode": "280480010", "School Name": "Bindu Keshar Secondary School", "ContactNumber": "9851080133", "ContactPerson": "Motikhar Adhikari", "ContactPersonNumber": "9860961157", "Original_Longitude": "85.1607552", "Original_Latitude": "27.9543808", "QGIS_Longitude": "85.1607552", "QGIS_Latitude": "27.9543808", "Coordinate_Status": "Original_OK" }, "geometry": { "type": "Point", "coordinates": [ 85.1607552, 27.9543808 ] } },
{ "type": "Feature", "properties": { "Province": "Bagamati Province", "District": "Nuwakot", "Local Level": "Bidur Municipality", "School Type": "Public", "EMISCode": "280610001", "School Name": "Chandeswory Secondary School", "ContactNumber": "9860188155", "ContactPerson": "Ganesh Prasad Lamichhane", "ContactPersonNumber": "9860904149", "Original_Longitude": "85.1687944835907", "Original_Latitude": "27.9643615203317", "QGIS_Longitude": "85.1687944835907", "QGIS_Latitude": "27.9643615203317", "Coordinate_Status": "Original_OK" }, "geometry": { "type": "Point", "coordinates": [ 85.168794483590702, 27.9643615203317 ] } },
{ "type": "Feature", "properties": { "Province": "Bagamati Province", "District": "Nuwakot", "Local Level": "Belkotgadhi Municipality", "School Type": "Public", "EMISCode": "280180008", "School Name": "Mahadev Secondary School", "ContactNumber": "9803144461", "ContactPerson": "Kedar Prasad Nepal", "ContactPersonNumber": "9803144461", "Original_Longitude": "85.0143313737731", "Original_Latitude": "27.8107533779389", "QGIS_Longitude": "85.0143313737731", "QGIS_Latitude": "27.8107533779389", "Coordinate_Status": "Original_OK" }, "geometry": { "type": "Point", "coordinates": [ 85.014331373773103, 27.810753377938902 ] } },
{ "type": "Feature", "properties": { "Province": "Bagamati Province", "District": "Nuwakot", "Local Level": "Belkotgadhi Municipality", "School Type": "Public", "EMISCode": "280250002", "School Name": "Shilasita Basic School", "ContactNumber": "9841679236", "ContactPerson": "Dilman Singh Lama ", "ContactPersonNumber": "9841679236", "Original_Longitude": "85.180416", "Original_Latitude": "27.9707648", "QGIS_Longitude": "85.180416", "QGIS_Latitude": "27.9707648", "Coordinate_Status": "Original_OK" }, "geometry": { "type": "Point", "coordinates": [ 85.180416, 27.9707648 ] } },
{ "type": "Feature", "properties": { "Province": "Bagamati Province", "District": "Nuwakot", "Local Level": "Bidur Municipality", "School Type": "Public", "EMISCode": "280310004", "School Name": "Chandi Basic School", "ContactNumber": "9841738182", "ContactPerson": "Govinda Prasad  Dahal", "ContactPersonNumber": "9841738182", "Original_Longitude": "85.0802697", "Original_Latitude": "27.8577161", "QGIS_Longitude": "85.0802697", "QGIS_Latitude": "27.8577161", "Coordinate_Status": "Original_OK" }, "geometry": { "type": "Point", "coordinates": [ 85.0802697, 27.8577161 ] } },
{ "type": "Feature", "properties": { "Province": "Bagamati Province", "District": "Nuwakot", "Local Level": "Bidur Municipality", "School Type": "Public", "EMISCode": "280310005", "School Name": "Seti Devi basic School", "ContactNumber": "9841840888", "ContactPerson": "Raju Kumar Rimal", "ContactPersonNumber": "9841840888", "Original_Longitude": "85.067436", "Original_Latitude": "27.853281", "QGIS_Longitude": "85.067436", "QGIS_Latitude": "27.853281", "Coordinate_Status": "Original_OK" }, "geometry": { "type": "Point", "coordinates": [ 85.067436, 27.853281 ] } },
{ "type": "Feature", "properties": { "Province": "Bagamati Province", "District": "Nuwakot", "Local Level": "Bidur Municipality", "School Type": "Public", "EMISCode": "280310013", "School Name": "Rana Bhubaneswori Secondary School", "ContactNumber": "10410010", "ContactPerson": "Bikam Sharma", "ContactPersonNumber": "9849651167", "Original_Longitude": "85.1078902", "Original_Latitude": "27.8624508", "QGIS_Longitude": "85.1078902", "QGIS_Latitude": "27.8624508", "Coordinate_Status": "Original_OK" }, "geometry": { "type": "Point", "coordinates": [ 85.1078902, 27.8624508 ] } },
{ "type": "Feature", "properties": { "Province": "Bagamati Province", "District": "Nuwakot", "Local Level": "Bidur Municipality", "School Type": "Public", "EMISCode": "280220010", "School Name": "Ramchandra Basic School", "ContactNumber": "10412162", "ContactPerson": "Santosh Nepal", "ContactPersonNumber": "9851206451", "Original_Longitude": "85.1845039", "Original_Latitude": "27.9709259", "QGIS_Longitude": "85.1845039", "QGIS_Latitude": "27.9709259", "Coordinate_Status": "Original_OK" }, "geometry": { "type": "Point", "coordinates": [ 85.1845039, 27.9709259 ] } },
{ "type": "Feature", "properties": { "Province": "Bagamati Province", "District": "Nuwakot", "Local Level": "Bidur Municipality", "School Type": "Public", "EMISCode": "280080013", "School Name": " Sahid Jagat Prakash Jung Shah Sanskrit Secondary School", "ContactNumber": "10410060", "ContactPerson": "MANJU CHITRAKAR ", "ContactPersonNumber": "9851129042", "Original_Longitude": "85.1132405265996", "Original_Latitude": "27.8636022428272", "QGIS_Longitude": "85.1132405265996", "QGIS_Latitude": "27.8636022428272", "Coordinate_Status": "Original_OK" }, "geometry": { "type": "Point", "coordinates": [ 85.113240526599597, 27.863602242827199 ] } },
{ "type": "Feature", "properties": { "Province": "Bagamati Province", "District": "Nuwakot", "Local Level": "Bidur Municipality", "School Type": "Public", "EMISCode": "280080027", "School Name": "Tribhuvan Trishuli Secondary School", "ContactNumber": "10560019", "ContactPerson": "RAJENDRA DAWADI", "ContactPersonNumber": "9851032757", "Original_Longitude": "85.1500081602741", "Original_Latitude": "27.9236586048121", "QGIS_Longitude": "85.1500081602741", "QGIS_Latitude": "27.9236586048121", "Coordinate_Status": "Original_OK" }, "geometry": { "type": "Point", "coordinates": [ 85.150008160274098, 27.9236586048121 ] } },
{ "type": "Feature", "properties": { "Province": "Bagamati Province", "District": "Dhading", "Local Level": "Galchhi Rural Municipality", "School Type": "Public", "EMISCode": "300200001", "School Name": "Rakta Bachchhala Basic School", "ContactNumber": "9841542560", "ContactPerson": "Tika Bdr. Acharya", "ContactPersonNumber": "9841542560", "Original_Longitude": "84.9674527", "Original_Latitude": "27.8129858", "QGIS_Longitude": "84.9674527", "QGIS_Latitude": "27.8129858", "Coordinate_Status": "Original_OK" }, "geometry": { "type": "Point", "coordinates": [ 84.9674527, 27.8129858 ] } },
{ "type": "Feature", "properties": { "Province": "Bagamati Province", "District": "Dhading", "Local Level": "Benighat Rorang Rural Municipality", "School Type": "Public", "EMISCode": "300180012", "School Name": "Shankhadevi Secondary School", "ContactNumber": "9849156491", "ContactPerson": "Tilak Bahadur Praja", "ContactPersonNumber": "9849156491", "Original_Longitude": "84.7049511411045", "Original_Latitude": "27.8058470902298", "QGIS_Longitude": "84.7049511411045", "QGIS_Latitude": "27.8058470902298", "Coordinate_Status": "Original_OK" }, "geometry": { "type": "Point", "coordinates": [ 84.704951141104502, 27.805847090229801 ] } },
{ "type": "Feature", "properties": { "Province": "Bagamati Province", "District": "Dhading", "Local Level": "Benighat Rorang Rural Municipality", "School Type": "Public", "EMISCode": "300280014", "School Name": "Pipal Bhanjyang Secondary Schoool", "ContactNumber": "9841568964", "ContactPerson": "Kul Bahadur Paudel", "ContactPersonNumber": "9841568964", "Original_Longitude": "84.82724", "Original_Latitude": "27.813705", "QGIS_Longitude": "84.82724", "QGIS_Latitude": "27.813705", "Coordinate_Status": "Original_OK" }, "geometry": { "type": "Point", "coordinates": [ 84.82724, 27.813705 ] } },
{ "type": "Feature", "properties": { "Province": "Bagamati Province", "District": "Dhading", "Local Level": "Benighat Rorang Rural Municipality", "School Type": "Public", "EMISCode": "300040004", "School Name": "Tin Kanya Bagesori  Basic School", "ContactNumber": "9861704996", "ContactPerson": "Saraswati Shrestha", "ContactPersonNumber": "9861704996", "Original_Longitude": "84.8312583625918", "Original_Latitude": "27.8085394075966", "QGIS_Longitude": "84.8312583625918", "QGIS_Latitude": "27.8085394075966", "Coordinate_Status": "Original_OK" }, "geometry": { "type": "Point", "coordinates": [ 84.831258362591797, 27.808539407596601 ] } },
{ "type": "Feature", "properties": { "Province": "Bagamati Province", "District": "Dhading", "Local Level": "Benighat Rorang Rural Municipality", "School Type": "Public", "EMISCode": "300040009", "School Name": "Chandrodaya Secondary School", "ContactNumber": "9749329988", "ContactPerson": "Satyadhar Kadel", "ContactPersonNumber": "9841579088", "Original_Longitude": "84.7738723754883", "Original_Latitude": "27.8085784912109", "QGIS_Longitude": "84.7738723754883", "QGIS_Latitude": "27.8085784912109", "Coordinate_Status": "Original_OK" }, "geometry": { "type": "Point", "coordinates": [ 84.773872375488295, 27.808578491210898 ] } },
{ "type": "Feature", "properties": { "Province": "Bagamati Province", "District": "Chitwan", "Local Level": "Ichchhakamana Rural Municipality", "School Type": "Public", "EMISCode": "350100007", "School Name": "Rastriya Adharbhut Bidhyalaya (1-5) Dhusa", "ContactNumber": "9845203064", "ContactPerson": "Somlal shrestha", "ContactPersonNumber": "9845203064", "Original_Longitude": "84.6621912899083", "Original_Latitude": "27.842137772844", "QGIS_Longitude": "84.6621912899083", "QGIS_Latitude": "27.842137772844", "Coordinate_Status": "Original_OK" }, "geometry": { "type": "Point", "coordinates": [ 84.662191289908293, 27.842137772844001 ] } },
{ "type": "Feature", "properties": { "Province": "Bagamati Province", "District": "Chitwan", "Local Level": "Ichchhakamana Rural Municipality", "School Type": "Public", "EMISCode": "350100011", "School Name": "Rastriya Aadharbhut Bidhyalaya (1-8) Fisling", "ContactNumber": "9846144816", "ContactPerson": "Bhabishor gurung", "ContactPersonNumber": "9846144816", "Original_Longitude": "84.6622849640552", "Original_Latitude": "27.8419114545433", "QGIS_Longitude": "84.6622849640552", "QGIS_Latitude": "27.8419114545433", "Coordinate_Status": "Original_OK" }, "geometry": { "type": "Point", "coordinates": [ 84.662284964055203, 27.8419114545433 ] } },
{ "type": "Feature", "properties": { "Province": "Bagamati Province", "District": "Dhading", "Local Level": "Benighat Rorang Rural Municipality", "School Type": "Private", "EMISCode": "300040015", "School Name": "Pashupati Shiksha Mandir", "ContactNumber": "10400122", "ContactPerson": "Shahadev Ghimire", "ContactPersonNumber": "9851190184", "Original_Longitude": "84.8243239", "Original_Latitude": "27.8127605", "QGIS_Longitude": "84.8243239", "QGIS_Latitude": "27.8127605", "Coordinate_Status": "Original_OK" }, "geometry": { "type": "Point", "coordinates": [ 84.8243239, 27.8127605 ] } },
{ "type": "Feature", "properties": { "Province": "Bagamati Province", "District": "Dhading", "Local Level": "Benighat Rorang Rural Municipality", "School Type": "Private", "EMISCode": "300040016", "School Name": "Bright Future Eng. Boarding School", "ContactNumber": "10400107", "ContactPerson": "Kalpana Silwal", "ContactPersonNumber": "9841066375", "Original_Longitude": "84.8293205", "Original_Latitude": "27.812662", "QGIS_Longitude": "84.8293205", "QGIS_Latitude": "27.812662", "Coordinate_Status": "Original_OK" }, "geometry": { "type": "Point", "coordinates": [ 84.8293205, 27.812662 ] } },
{ "type": "Feature", "properties": { "Province": "Bagamati Province", "District": "Dhading", "Local Level": "Benighat Rorang Rural Municipality", "School Type": "Private", "EMISCode": "300110012", "School Name": "Rising Star English Boarding School", "ContactNumber": "9813759145", "ContactPerson": "Tika Prasad Thapaliya", "ContactPersonNumber": "9813759145", "Original_Longitude": "84.7396508", "Original_Latitude": "27.8013069", "QGIS_Longitude": "84.7396508", "QGIS_Latitude": "27.8013069", "Coordinate_Status": "Original_OK" }, "geometry": { "type": "Point", "coordinates": [ 84.7396508, 27.8013069 ] } },
{ "type": "Feature", "properties": { "Province": "Bagamati Province", "District": "Nuwakot", "Local Level": "Bidur Municipality", "School Type": "Private", "EMISCode": "280080035", "School Name": "Orchid Academy Nuwakot", "ContactNumber": "10560361", "ContactPerson": "RAMHARI RIMAL", "ContactPersonNumber": "9851248842", "Original_Longitude": "85.1424255371094", "Original_Latitude": "27.9051723480225", "QGIS_Longitude": "85.1424255371094", "QGIS_Latitude": "27.9051723480225", "Coordinate_Status": "Original_OK" }, "geometry": { "type": "Point", "coordinates": [ 85.142425537109403, 27.9051723480225 ] } },
{ "type": "Feature", "properties": { "Province": "Bagamati Province", "District": "Nuwakot", "Local Level": "Bidur Municipality", "School Type": "Private", "EMISCode": "280080045", "School Name": "Trishuli Samudaik Boarding School", "ContactNumber": "10560975", "ContactPerson": "Suman Kumar Karna", "ContactPersonNumber": "9745348792", "Original_Longitude": "85.1497650146484", "Original_Latitude": "27.9240684509277", "QGIS_Longitude": "85.1497650146484", "QGIS_Latitude": "27.9240684509277", "Coordinate_Status": "Original_OK" }, "geometry": { "type": "Point", "coordinates": [ 85.149765014648395, 27.924068450927699 ] } },
{ "type": "Feature", "properties": { "Province": "Bagamati Province", "District": "Nuwakot", "Local Level": "Bidur Municipality", "School Type": "Private", "EMISCode": "280080046", "School Name": "Dibyaratna Boarding School", "ContactNumber": "10560650", "ContactPerson": "Gagan Kalyan Pradhan", "ContactPersonNumber": "9851160650", "Original_Longitude": "85.1438134922556", "Original_Latitude": "27.9177203974511", "QGIS_Longitude": "85.1438134922556", "QGIS_Latitude": "27.9177203974511", "Coordinate_Status": "Original_OK" }, "geometry": { "type": "Point", "coordinates": [ 85.143813492255603, 27.917720397451099 ] } },
{ "type": "Feature", "properties": { "Province": "Bagamati Province", "District": "Rasuwa", "Local Level": "Uttargaya Rural Municipality", "School Type": "Private", "EMISCode": "290100012", "School Name": "Modern Trinity English Boarding School", "ContactNumber": "10412148", "ContactPerson": "Suroj Dangol", "ContactPersonNumber": "9862196336", "Original_Longitude": "85.183593", "Original_Latitude": "27.986083", "QGIS_Longitude": "85.183593", "QGIS_Latitude": "27.986083", "Coordinate_Status": "Original_OK" }, "geometry": { "type": "Point", "coordinates": [ 85.183593, 27.986083 ] } },
{ "type": "Feature", "properties": { "Province": "Bagamati Province", "District": "Rasuwa", "Local Level": "Gosaikunda Rural Municipality", "School Type": "Private", "EMISCode": "290140007", "School Name": "Gosaikunda Ebs", "ContactNumber": "9841903646", "ContactPerson": "Raju Lama", "ContactPersonNumber": "9841903646", "Original_Longitude": "85.3380068333333", "Original_Latitude": "28.163177", "QGIS_Longitude": "85.3380068333333", "QGIS_Latitude": "28.163177", "Coordinate_Status": "Original_OK" }, "geometry": { "type": "Point", "coordinates": [ 85.338006833333296, 28.163177 ] } },
{ "type": "Feature", "properties": { "Province": "Bagamati Province", "District": "Dhading", "Local Level": "Galchhi Rural Municipality", "School Type": "Religious", "EMISCode": "300020021", "School Name": "Amleshwar Gurukul Sanskrit Veda Vidyashram", "ContactNumber": "104203238", "ContactPerson": "Bimal Bhattarai", "ContactPersonNumber": "9860806961", "Original_Longitude": "84.9816597160254", "Original_Latitude": "27.8009430277016", "QGIS_Longitude": "84.9816597160254", "QGIS_Latitude": "27.8009430277016", "Coordinate_Status": "Original_OK" }, "geometry": { "type": "Point", "coordinates": [ 84.981659716025405, 27.800943027701599 ] } }
]
}
