{
"type": "FeatureCollection",
"name": "Education_AOI_V6",
"crs": { "type": "name", "properties": { "name": "urn:ogc:def:crs:OGC:1.3:CRS84" } },
"features": [
{ "type": "Feature", "properties": { "osm_id": 5055255859, "amenity": "school", "Final_Name": "Shri Janasewa Lower Secondary School", "GAPA_NAPA_min": "Belkotgadhi", "Long": 85.089701, "Lat": 27.853684 }, "geometry": { "type": "Point", "coordinates": [ 85.0897009, 27.8536836 ] } },
{ "type": "Feature", "properties": { "osm_id": 5046072853, "amenity": "school", "Final_Name": "Shri Sila Devi Ma. Vi", "GAPA_NAPA_min": "Belkotgadhi", "Long": 85.042318, "Lat": 27.85146 }, "geometry": { "type": "Point", "coordinates": [ 85.0423178, 27.8514602 ] } },
{ "type": "Feature", "properties": { "osm_id": 5063441826, "amenity": "school", "Final_Name": "Shree Sundaradevi Pra Vi", "GAPA_NAPA_min": "Bidur", "Long": 85.176973, "Lat": 27.976273 }, "geometry": { "type": "Point", "coordinates": [ 85.1769728, 27.9762731 ] } },
{ "type": "Feature", "properties": { "osm_id": 4969579345, "amenity": "school", "Final_Name": "Shree Chipleti Pra Vi", "GAPA_NAPA_min": "Uttargaya", "Long": 85.208176, "Lat": 28.056387 }, "geometry": { "type": "Point", "coordinates": [ 85.2081762, 28.0563867 ] } },
{ "type": "Feature", "properties": { "osm_id": 4968022376, "amenity": "school", "Final_Name": "Shree Arunodaya Primary School", "GAPA_NAPA_min": "Gosaikunda", "Long": 85.35177, "Lat": 28.228854 }, "geometry": { "type": "Point", "coordinates": [ 85.351770112222397, 28.228854197937302 ] } },
{ "type": "Feature", "properties": { "osm_id": 7940743986, "amenity": "school", "Final_Name": "Chandeshwori Higher Secondary School", "GAPA_NAPA_min": "Bidur", "Long": 85.169397, "Lat": 27.964749 }, "geometry": { "type": "Point", "coordinates": [ 85.1693966, 27.964749 ] } },
{ "type": "Feature", "properties": { "osm_id": 5055276919, "amenity": "school", "Final_Name": "Shri Ganeshman Singh Memorial Primary School", "GAPA_NAPA_min": "Tarkeshwar", "Long": 85.02767, "Lat": 27.849136 }, "geometry": { "type": "Point", "coordinates": [ 85.0276701, 27.8491356 ] } },
{ "type": "Feature", "properties": { "osm_id": 4939790691, "amenity": "school", "Final_Name": "Shri Panchayat Pra V", "GAPA_NAPA_min": "Benighat Rorang", "Long": 84.718397, "Lat": 27.797923 }, "geometry": { "type": "Point", "coordinates": [ 84.7183971, 27.7979233 ] } },
{ "type": "Feature", "properties": { "osm_id": 4969595164, "amenity": "school", "Final_Name": "Shree Simle Pra Vi", "GAPA_NAPA_min": "Uttargaya", "Long": 85.190789, "Lat": 28.029756 }, "geometry": { "type": "Point", "coordinates": [ 85.1907891, 28.0297555 ] } },
{ "type": "Feature", "properties": { "osm_id": 4929738122, "amenity": "school", "Final_Name": "त्रिवेणी बराहा माध्यामिक विद्यालय मुग्लिन", "GAPA_NAPA_min": "Ichchhyakamana", "Long": 84.561214, "Lat": 27.854359 }, "geometry": { "type": "Point", "coordinates": [ 84.5612144, 27.8543594 ] } },
{ "type": "Feature", "properties": { "osm_id": 9794119187, "amenity": "school", "Final_Name": "Shree Rastriya Aardharbhut School, Fishling", "GAPA_NAPA_min": "Ichchhyakamana", "Long": 84.661484, "Lat": 27.842489 }, "geometry": { "type": "Point", "coordinates": [ 84.6614838, 27.8424892 ] } },
{ "type": "Feature", "properties": { "osm_id": 9794119213, "amenity": "school", "Final_Name": "Green Field Secondary English School, Muglin", "GAPA_NAPA_min": "Ichchhyakamana", "Long": 84.56153, "Lat": 27.857688 }, "geometry": { "type": "Point", "coordinates": [ 84.5615298, 27.8576882 ] } },
{ "type": "Feature", "properties": { "osm_id": 9794127028, "amenity": "school", "Final_Name": "Sarbhashanti Secondary School, Kurintar", "GAPA_NAPA_min": "Ichchhyakamana", "Long": 84.623044, "Lat": 27.870902 }, "geometry": { "type": "Point", "coordinates": [ 84.6230438, 27.8709017 ] } },
{ "type": "Feature", "properties": { "osm_id": 4934948633, "amenity": "school", "Final_Name": "Shri Satyawati Uchha Ma V", "GAPA_NAPA_min": "Siddhalek", "Long": 84.937777, "Lat": 27.810738 }, "geometry": { "type": "Point", "coordinates": [ 84.9377771, 27.810738 ] } },
{ "type": "Feature", "properties": { "osm_id": 4969563549, "amenity": "school", "Final_Name": "Shree Danda Gaun Ucha Ma. V", "GAPA_NAPA_min": "Uttargaya", "Long": 85.185189, "Lat": 28.037893 }, "geometry": { "type": "Point", "coordinates": [ 85.1851894, 28.0378925 ] } },
{ "type": "Feature", "properties": { "osm_id": 4969611375, "amenity": "school", "Final_Name": "Shree Sivalaya Ni Ma.V", "GAPA_NAPA_min": "Uttargaya", "Long": 85.191312, "Lat": 27.983549 }, "geometry": { "type": "Point", "coordinates": [ 85.1913123, 27.9835489 ] } },
{ "type": "Feature", "properties": { "osm_id": 4878209122, "amenity": "school", "Final_Name": "Shri Janajagriti Primary School", "GAPA_NAPA_min": "Gandaki", "Long": 84.640951, "Lat": 27.862242 }, "geometry": { "type": "Point", "coordinates": [ 84.6409513, 27.8622423 ] } },
{ "type": "Feature", "properties": { "osm_id": 4939775439, "amenity": "school", "Final_Name": "Shri Janajyoti Pra V", "GAPA_NAPA_min": "Benighat Rorang", "Long": 84.700844, "Lat": 27.799989 }, "geometry": { "type": "Point", "coordinates": [ 84.7008441, 27.7999887 ] } },
{ "type": "Feature", "properties": { "osm_id": 4967982080, "amenity": "school", "Final_Name": "Shree komin Pra.V", "GAPA_NAPA_min": "Gosaikunda", "Long": 85.33217, "Lat": 28.16167 }, "geometry": { "type": "Point", "coordinates": [ 85.3321695, 28.1616696 ] } },
{ "type": "Feature", "properties": { "osm_id": 5010981070, "amenity": "school", "Final_Name": "Shr Prithibi Ma Vi", "GAPA_NAPA_min": "Bidur", "Long": 85.141572, "Lat": 27.913977 }, "geometry": { "type": "Point", "coordinates": [ 85.141572, 27.9139771 ] } },
{ "type": "Feature", "properties": { "osm_id": 5019534984, "amenity": "school", "Final_Name": "Shree Tribhuwan Ma Vi", "GAPA_NAPA_min": "Kispang", "Long": 85.178298, "Lat": 28.01816 }, "geometry": { "type": "Point", "coordinates": [ 85.1782975, 28.0181595 ] } },
{ "type": "Feature", "properties": { "osm_id": 4940188938, "amenity": "school", "Final_Name": "Shri Sarashwati Pra Vi", "GAPA_NAPA_min": "Gajuri", "Long": 84.902255, "Lat": 27.798875 }, "geometry": { "type": "Point", "coordinates": [ 84.9022552, 27.7988753 ] } },
{ "type": "Feature", "properties": { "osm_id": 4941848995, "amenity": "school", "Final_Name": "Shri Jibanjyoti Bal Bikash Kendra", "GAPA_NAPA_min": "Gajuri", "Long": 84.884255, "Lat": 27.800538 }, "geometry": { "type": "Point", "coordinates": [ 84.8842549, 27.8005379 ] } },
{ "type": "Feature", "properties": { "osm_id": 5634837379, "amenity": "school", "Final_Name": "Munal Academy", "GAPA_NAPA_min": "Gajuri", "Long": 84.877144, "Lat": 27.805272 }, "geometry": { "type": "Point", "coordinates": [ 84.8771444, 27.8052718 ] } },
{ "type": "Feature", "properties": { "osm_id": 4941869402, "amenity": "school", "Final_Name": "Shri Aadarsha Bahumukhi Campus", "GAPA_NAPA_min": "Gajuri", "Long": 84.877341, "Lat": 27.807084 }, "geometry": { "type": "Point", "coordinates": [ 84.8773408, 27.8070838 ] } },
{ "type": "Feature", "properties": { "osm_id": 4941743504, "amenity": "school", "Final_Name": "Shri Adarsha Uchha Ma V", "GAPA_NAPA_min": "Gajuri", "Long": 84.879326, "Lat": 27.807585 }, "geometry": { "type": "Point", "coordinates": [ 84.8793261, 27.807585 ] } },
{ "type": "Feature", "properties": { "osm_id": 4934940717, "amenity": "school", "Final_Name": "Shri Golma Rani Pra V", "GAPA_NAPA_min": "Siddhalek", "Long": 84.837947, "Lat": 27.812443 }, "geometry": { "type": "Point", "coordinates": [ 84.8379473, 27.8124431 ] } },
{ "type": "Feature", "properties": { "osm_id": 4941787232, "amenity": "school", "Final_Name": "Shri Orbang Pra V", "GAPA_NAPA_min": "Benighat Rorang", "Long": 84.798734, "Lat": 27.809773 }, "geometry": { "type": "Point", "coordinates": [ 84.7987338, 27.8097729 ] } },
{ "type": "Feature", "properties": { "osm_id": 4939797039, "amenity": "school", "Final_Name": "Shri Chandrodaya Ma Vi", "GAPA_NAPA_min": "Benighat Rorang", "Long": 84.781624, "Lat": 27.812166 }, "geometry": { "type": "Point", "coordinates": [ 84.7816236, 27.8121655 ] } },
{ "type": "Feature", "properties": { "osm_id": 4968032717, "amenity": "school", "Final_Name": "Shree Nepal Rastriya Pra Vi", "GAPA_NAPA_min": "Parbati Kunda", "Long": 85.344546, "Lat": 28.197042 }, "geometry": { "type": "Point", "coordinates": [ 85.344545975155185, 28.197042382676361 ] } },
{ "type": "Feature", "properties": { "osm_id": 4967821159, "amenity": "school", "Final_Name": "Shree Haku Besi Ni.Ma.V", "GAPA_NAPA_min": "Parbati Kunda", "Long": 85.279417, "Lat": 28.114628 }, "geometry": { "type": "Point", "coordinates": [ 85.2794174, 28.1146281 ] } },
{ "type": "Feature", "properties": { "osm_id": 6100115486, "amenity": null, "Final_Name": "Greenline Transport", "GAPA_NAPA_min": "Ichchhyakamana", "Long": 84.616645, "Lat": 27.874113 }, "geometry": { "type": "Point", "coordinates": [ 84.6166453, 27.8741127 ] } },
{ "type": "Feature", "properties": { "osm_id": 9794127022, "amenity": "school", "Final_Name": "Kurin Boarding School", "GAPA_NAPA_min": "Ichchhyakamana", "Long": 84.625157, "Lat": 27.870644 }, "geometry": { "type": "Point", "coordinates": [ 84.6251566, 27.8706443 ] } },
{ "type": "Feature", "properties": { "osm_id": 4915942407, "amenity": "school", "Final_Name": "Shri Rainas Pra V", "GAPA_NAPA_min": "Sahid Lakhan", "Long": 84.633095, "Lat": 27.871628 }, "geometry": { "type": "Point", "coordinates": [ 84.6330946, 27.8716283 ] } },
{ "type": "Feature", "properties": { "osm_id": 5055871471, "amenity": "school", "Final_Name": "Shree Mandredhunga Pra V", "GAPA_NAPA_min": "Bidur", "Long": 85.129896, "Lat": 27.886485 }, "geometry": { "type": "Point", "coordinates": [ 85.1298955, 27.8864849 ] } },
{ "type": "Feature", "properties": { "osm_id": 4967980711, "amenity": "school", "Final_Name": "Shree Barahi Pra.V", "GAPA_NAPA_min": "Uttargaya", "Long": 85.188375, "Lat": 27.988014 }, "geometry": { "type": "Point", "coordinates": [ 85.1883746, 27.9880137 ] } },
{ "type": "Feature", "properties": { "osm_id": 4706138525, "amenity": "school", "Final_Name": "Shree Neelkanta Higher Sec School", "GAPA_NAPA_min": "Uttargaya", "Long": 85.184074, "Lat": 27.978568 }, "geometry": { "type": "Point", "coordinates": [ 85.1840744, 27.9785677 ] } },
{ "type": "Feature", "properties": { "osm_id": 4940185637, "amenity": "school", "Final_Name": "Shri Indrayani Ni Ma Vi", "GAPA_NAPA_min": "Gajuri", "Long": 84.943901, "Lat": 27.805 }, "geometry": { "type": "Point", "coordinates": [ 84.9439006, 27.8050001 ] } },
{ "type": "Feature", "properties": { "osm_id": 5010622731, "amenity": "school", "Final_Name": "Nari Chetana Bal Bikash Kendra", "GAPA_NAPA_min": "Bidur", "Long": 85.142491, "Lat": 27.914213 }, "geometry": { "type": "Point", "coordinates": [ 85.1424913, 27.9142129 ] } },
{ "type": "Feature", "properties": { "osm_id": 4563086889, "amenity": "school", "Final_Name": null, "GAPA_NAPA_min": "Bidur", "Long": 85.145188, "Lat": 27.917893 }, "geometry": { "type": "Point", "coordinates": [ 85.1451878, 27.9178928 ] } },
{ "type": "Feature", "properties": { "osm_id": 4367679495, "amenity": "school", "Final_Name": "Shree Panchakanya Star Boarding School", "GAPA_NAPA_min": "Bidur", "Long": 85.140601, "Lat": 27.922251 }, "geometry": { "type": "Point", "coordinates": [ 85.1406005, 27.9222514 ] } },
{ "type": "Feature", "properties": { "osm_id": 4969629203, "amenity": "school", "Final_Name": "Shree Bhimsensthan Pra.V", "GAPA_NAPA_min": "Uttargaya", "Long": 85.193143, "Lat": 27.985037 }, "geometry": { "type": "Point", "coordinates": [ 85.1931431, 27.9850371 ] } },
{ "type": "Feature", "properties": { "osm_id": 4941662039, "amenity": "school", "Final_Name": "Shri Buddhi Bikash Pra V", "GAPA_NAPA_min": "Benighat Rorang", "Long": 84.748677, "Lat": 27.803501 }, "geometry": { "type": "Point", "coordinates": [ 84.7486773, 27.8035007 ] } },
{ "type": "Feature", "properties": { "osm_id": 4912228426, "amenity": "school", "Final_Name": "Shri Shilingtar Pra V", "GAPA_NAPA_min": "Sahid Lakhan", "Long": 84.591149, "Lat": 27.881603 }, "geometry": { "type": "Point", "coordinates": [ 84.5911485, 27.8816026 ] } },
{ "type": "Feature", "properties": { "osm_id": 5055300883, "amenity": "school", "Final_Name": "Shri Chandi Ni.Ma.Vi.", "GAPA_NAPA_min": "Bidur", "Long": 85.080635, "Lat": 27.857647 }, "geometry": { "type": "Point", "coordinates": [ 85.0806347, 27.8576473 ] } },
{ "type": "Feature", "properties": { "osm_id": 5047244078, "amenity": "school", "Final_Name": "Shree Sulakshyana Ma Vi", "GAPA_NAPA_min": "Bidur", "Long": 85.158467, "Lat": 27.947585 }, "geometry": { "type": "Point", "coordinates": [ 85.1584666, 27.9475845 ] } },
{ "type": "Feature", "properties": { "osm_id": 5055601519, "amenity": "school", "Final_Name": "Mahadev Multiple Campus", "GAPA_NAPA_min": "Belkotgadhi", "Long": 85.060324, "Lat": 27.852293 }, "geometry": { "type": "Point", "coordinates": [ 85.0603241, 27.8522932 ] } },
{ "type": "Feature", "properties": { "osm_id": 4969565986, "amenity": "school", "Final_Name": "Shree Dipendra Pra Vi", "GAPA_NAPA_min": "Uttargaya", "Long": 85.189464, "Lat": 28.047396 }, "geometry": { "type": "Point", "coordinates": [ 85.1894642, 28.0473961 ] } },
{ "type": "Feature", "properties": { "osm_id": 5055224610, "amenity": "school", "Final_Name": "Shri Seti Devi Pra Bi", "GAPA_NAPA_min": "Bidur", "Long": 85.087397, "Lat": 27.862504 }, "geometry": { "type": "Point", "coordinates": [ 85.0873968, 27.8625042 ] } },
{ "type": "Feature", "properties": { "osm_id": 4936634947, "amenity": "school", "Final_Name": "Shri Belinitar Pra Vi", "GAPA_NAPA_min": "Galchi", "Long": 84.944261, "Lat": 27.814772 }, "geometry": { "type": "Point", "coordinates": [ 84.9442606, 27.8147716 ] } },
{ "type": "Feature", "properties": { "osm_id": 4912218252, "amenity": "school", "Final_Name": "Shri Karantar Namuna Pra V", "GAPA_NAPA_min": "Sahid Lakhan", "Long": 84.553547, "Lat": 27.862025 }, "geometry": { "type": "Point", "coordinates": [ 84.5535466, 27.8620247 ] } },
{ "type": "Feature", "properties": { "osm_id": 5053261618, "amenity": "school", "Final_Name": "Shr Mahendra Ma Vi", "GAPA_NAPA_min": "Bidur", "Long": 85.132942, "Lat": 27.905472 }, "geometry": { "type": "Point", "coordinates": [ 85.1329416, 27.9054717 ] } },
{ "type": "Feature", "properties": { "osm_id": 4894847801, "amenity": "school", "Final_Name": "Shri Praja Jyoti Pra V", "GAPA_NAPA_min": "Gandaki", "Long": 84.700062, "Lat": 27.811653 }, "geometry": { "type": "Point", "coordinates": [ 84.7000622, 27.8116525 ] } },
{ "type": "Feature", "properties": { "osm_id": null, "amenity": null, "Final_Name": "Shree Bhadrakali Gurukul Saskriti Bidhyalaya", "GAPA_NAPA_min": "Gajuri", "Long": 84.835907, "Lat": 27.807022 }, "geometry": { "type": "Point", "coordinates": [ 84.8359065, 27.8070224 ] } },
{ "type": "Feature", "properties": { "osm_id": null, "amenity": null, "Final_Name": "Shree Janajagriti Primary School", "GAPA_NAPA_min": "Gandaki", "Long": 84.640951, "Lat": 27.862242 }, "geometry": { "type": "Point", "coordinates": [ 84.6409513, 27.8622423 ] } },
{ "type": "Feature", "properties": { "osm_id": null, "amenity": null, "Final_Name": "Shree Rainas Pra V", "GAPA_NAPA_min": "Sahid Lakhan", "Long": 84.633095, "Lat": 27.871628 }, "geometry": { "type": "Point", "coordinates": [ 84.6330946, 27.8716283 ] } },
{ "type": "Feature", "properties": { "osm_id": null, "amenity": null, "Final_Name": "Shree Malika Devi Pra.V", "GAPA_NAPA_min": "Uttargaya", "Long": 85.189315, "Lat": 28.009335 }, "geometry": { "type": "Point", "coordinates": [ 85.1893145, 28.0093346 ] } },
{ "type": "Feature", "properties": { "osm_id": null, "amenity": null, "Final_Name": "Shree Baludaya Pra Vi", "GAPA_NAPA_min": "Uttargaya", "Long": 85.208105, "Lat": 28.073383 }, "geometry": { "type": "Point", "coordinates": [ 85.2081045, 28.0733826 ] } },
{ "type": "Feature", "properties": { "osm_id": null, "amenity": null, "Final_Name": "Shree kalika Pra Vi", "GAPA_NAPA_min": "Uttargaya", "Long": 85.222002, "Lat": 28.087736 }, "geometry": { "type": "Point", "coordinates": [ 85.2220017, 28.0877364 ] } },
{ "type": "Feature", "properties": { "osm_id": null, "amenity": null, "Final_Name": "Sundarikyurini Uchha Ma Vi", "GAPA_NAPA_min": "Bidur", "Long": 85.16104, "Lat": 27.936674 }, "geometry": { "type": "Point", "coordinates": [ 85.1610401, 27.936674 ] } },
{ "type": "Feature", "properties": { "osm_id": null, "amenity": null, "Final_Name": "Shree Raktakali Primary School", "GAPA_NAPA_min": "Bidur", "Long": 85.13151, "Lat": 27.873011 }, "geometry": { "type": "Point", "coordinates": [ 85.1315096, 27.8730113 ] } },
{ "type": "Feature", "properties": { "osm_id": null, "amenity": null, "Final_Name": "Shree Pimaltar Uchcha Ma.Vi.", "GAPA_NAPA_min": "Tarkeshwar", "Long": 85.0193, "Lat": 27.839041 }, "geometry": { "type": "Point", "coordinates": [ 85.0192998, 27.8390414 ] } },
{ "type": "Feature", "properties": { "osm_id": null, "amenity": null, "Final_Name": "Shree Mahadev Uchha Ma V", "GAPA_NAPA_min": "Belkotgadhi", "Long": 85.014091, "Lat": 27.810527 }, "geometry": { "type": "Point", "coordinates": [ 85.014091, 27.8105267 ] } },
{ "type": "Feature", "properties": { "osm_id": null, "amenity": null, "Final_Name": "Shree United Ni.Ma.Vi.", "GAPA_NAPA_min": "Bidur", "Long": 85.143806, "Lat": 27.899481 }, "geometry": { "type": "Point", "coordinates": [ 85.1438057, 27.8994811 ] } },
{ "type": "Feature", "properties": { "osm_id": null, "amenity": null, "Final_Name": "Shree Mahalaxmi Pra.Vi.", "GAPA_NAPA_min": "Bidur", "Long": 85.13673, "Lat": 27.886311 }, "geometry": { "type": "Point", "coordinates": [ 85.1367303, 27.8863114 ] } },
{ "type": "Feature", "properties": { "osm_id": null, "amenity": null, "Final_Name": "Shree Chetana Primary School", "GAPA_NAPA_min": "Bidur", "Long": 85.171365, "Lat": 27.96187 }, "geometry": { "type": "Point", "coordinates": [ 85.1713652, 27.9618698 ] } },
{ "type": "Feature", "properties": { "osm_id": null, "amenity": null, "Final_Name": "Shree Karki Manakamana Nima Vi", "GAPA_NAPA_min": "Kispang", "Long": 85.1742, "Lat": 27.988257 }, "geometry": { "type": "Point", "coordinates": [ 85.1742004, 27.9882565 ] } },
{ "type": "Feature", "properties": { "osm_id": null, "amenity": null, "Final_Name": "Dhading Polytechnical Institute", "GAPA_NAPA_min": "Gajuri", "Long": 84.873027, "Lat": 27.800077 }, "geometry": { "type": "Point", "coordinates": [ 84.8730272, 27.8000771 ] } },
{ "type": "Feature", "properties": { "osm_id": null, "amenity": null, "Final_Name": "Shree Raktabachhala Primary School", "GAPA_NAPA_min": "Galchi", "Long": 84.967156, "Lat": 27.813071 }, "geometry": { "type": "Point", "coordinates": [ 84.9671555, 27.813071 ] } },
{ "type": "Feature", "properties": { "osm_id": null, "amenity": null, "Final_Name": "Gosaikunda English Reading School", "GAPA_NAPA_min": "Gosaikunda", "Long": 85.338742, "Lat": 28.1642 }, "geometry": { "type": "Point", "coordinates": [ 85.338741563675072, 28.164200267471696 ] } },
{ "type": "Feature", "properties": { "osm_id": null, "amenity": null, "Final_Name": "Shree Sankhadevi Secondary School", "GAPA_NAPA_min": "Benighat Rorang", "Long": 84.705114, "Lat": 27.806086 }, "geometry": { "type": "Point", "coordinates": [ 84.705113545060158, 27.806086181166421 ] } },
{ "type": "Feature", "properties": { "osm_id": null, "amenity": null, "Final_Name": "Rising Star English Boarding School", "GAPA_NAPA_min": "Benighat Rorang", "Long": 84.739369, "Lat": 27.801527 }, "geometry": { "type": "Point", "coordinates": [ 84.739369377493858, 27.80152673713777 ] } },
{ "type": "Feature", "properties": { "osm_id": null, "amenity": null, "Final_Name": "Jhagare Danda Basic School", "GAPA_NAPA_min": "Benighat Rorang", "Long": 84.746855, "Lat": 27.796211 }, "geometry": { "type": "Point", "coordinates": [ 84.746855422854438, 27.79621109849079 ] } },
{ "type": "Feature", "properties": { "osm_id": null, "amenity": null, "Final_Name": "Beni Sikshya Sadan", "GAPA_NAPA_min": "Benighat Rorang", "Long": 84.782457, "Lat": 27.810863 }, "geometry": { "type": "Point", "coordinates": [ 84.782457388937488, 27.81086339775905 ] } }
]
}
